{
"type": "FeatureCollection",
"name": "adm1_19",
"crs": { "type": "name", "properties": { "name": "urn:ogc:def:crs:OGC:1.3:CRS84" } },
"features": [
{ "type": "Feature", "properties": { "pro_code": "19", "pro_th": "สระบุรี", "pro_en": "Saraburi", "reg_nesdb": "Central", "reg_royin": "Central", "perimeter": 427.04356420091, "area_sqkm": 3487.6504514849998 }, "geometry": { "type": "MultiPolygon", "coordinates": [ [ [ [ 100.61939001660096, 14.560341643901797 ], [ 100.604278766248825, 14.556050785928067 ], [ 100.6032457303358, 14.555957312439471 ], [ 100.60260317321972, 14.556527749800944 ], [ 100.602042425440857, 14.557183490983938 ], [ 100.603167273286275, 14.578487419158742 ], [ 100.575285464017057, 14.59685927374273 ], [ 100.578912936353888, 14.599809581981324 ], [ 100.576711975009061, 14.604603605354765 ], [ 100.582181693078411, 14.624281888241919 ], [ 100.584069445623157, 14.628152238801501 ], [ 100.584319451027469, 14.629035183799889 ], [ 100.593057160943957, 14.641861080490346 ], [ 100.602397856340872, 14.653838423311983 ], [ 100.611651440025199, 14.646298603062572 ], [ 100.626723426391649, 14.654930414966074 ], [ 100.617098733863457, 14.663024738114903 ], [ 100.639450012328467, 14.674164894514057 ], [ 100.656054827247772, 14.703396394508507 ], [ 100.653231524016505, 14.71166050294703 ], [ 100.664289280805363, 14.736892663576368 ], [ 100.667714402376845, 14.733301337698977 ], [ 100.67019236553972, 14.739257656578973 ], [ 100.694296754035392, 14.762268243886892 ], [ 100.712233667534193, 14.761771100378338 ], [ 100.725665342765538, 14.760262390541783 ], [ 100.736945426332468, 14.774750205845713 ], [ 100.758135812384609, 14.782441307361825 ], [ 100.774068342122447, 14.789707627976682 ], [ 100.777428416536964, 14.795964032146923 ], [ 100.801783740784813, 14.79190466128124 ], [ 100.828310422812137, 14.804915320701673 ], [ 100.846908927633194, 14.80448796795925 ], [ 100.851663269229064, 14.797245962466871 ], [ 100.858677361383428, 14.78851035449275 ], [ 100.874949519758985, 14.782039057567218 ], [ 100.881936838575683, 14.764221872360741 ], [ 100.892471487014703, 14.764631715592325 ], [ 100.899479894268822, 14.772056902796319 ], [ 100.910293158423656, 14.769639517409749 ], [ 100.926452954919867, 14.754802105862217 ], [ 100.941001716324593, 14.750829524251095 ], [ 100.942510929963134, 14.741493014812047 ], [ 100.954158430454868, 14.746635153913228 ], [ 100.962003716509344, 14.745239178030021 ], [ 100.966349625850484, 14.751448950846617 ], [ 100.991936392106865, 14.740384743917367 ], [ 100.990322151075446, 14.76339811897321 ], [ 101.000316984926272, 14.771845741758654 ], [ 101.023815999916764, 14.809123181268138 ], [ 101.054137757825899, 14.790182312272352 ], [ 101.058799771713666, 14.778143888711401 ], [ 101.05420824571766, 14.774285619149659 ], [ 101.061656725695443, 14.767319984241167 ], [ 101.060756208640754, 14.759587277144378 ], [ 101.073324908453017, 14.76343836132529 ], [ 101.061862766398747, 14.789338507699341 ], [ 101.072555001523867, 14.791125593330053 ], [ 101.068232168171747, 14.81241883028132 ], [ 101.072048624017199, 14.815726800711889 ], [ 101.081426989786223, 14.810977276308057 ], [ 101.077886768722507, 14.818136552904967 ], [ 101.088579592644649, 14.829878271800538 ], [ 101.084833695624667, 14.834413388210457 ], [ 101.091830449018403, 14.850676989289873 ], [ 101.084389038792111, 14.857012321322905 ], [ 101.084669581938286, 14.864100886786877 ], [ 101.078505743585438, 14.86596401357331 ], [ 101.0826947893393, 14.871305937454967 ], [ 101.073360146388239, 14.87857198509287 ], [ 101.086827841157373, 14.887885807311017 ], [ 101.084934000375753, 14.890651151146841 ], [ 101.090679206240722, 14.892225311055499 ], [ 101.090594394569678, 14.899986954743058 ], [ 101.099524326331263, 14.908468051631012 ], [ 101.151405722526619, 14.896916432924034 ], [ 101.181537596666658, 14.917627990025238 ], [ 101.197821712776445, 14.922091556493665 ], [ 101.205630779109725, 14.918446247711879 ], [ 101.226476736854167, 14.919427964871463 ], [ 101.258533760897237, 14.912986739046184 ], [ 101.26643819805885, 14.91909993448567 ], [ 101.276091648176333, 14.938550385480912 ], [ 101.294591345604204, 14.949522432719293 ], [ 101.298333703212293, 14.959244804016011 ], [ 101.328750490593379, 14.966099897244407 ], [ 101.331841281191799, 14.982587239283291 ], [ 101.336547001332818, 14.990181282292308 ], [ 101.347981882168213, 14.993563495550223 ], [ 101.350045975170787, 15.015843059649233 ], [ 101.362792701006768, 15.040247677400648 ], [ 101.363041787912834, 15.046136728546658 ], [ 101.371077102381648, 15.043192400317471 ], [ 101.381171860619801, 15.067432260076 ], [ 101.399143410088186, 15.072451073946931 ], [ 101.410672538963126, 15.053143390812222 ], [ 101.413810856730933, 15.034207009585153 ], [ 101.424576211144554, 15.012807811618867 ], [ 101.420330119478848, 14.996965214373347 ], [ 101.429055824306033, 14.983127902101247 ], [ 101.430858797343149, 14.970362570156617 ], [ 101.431633863517632, 14.949934776398596 ], [ 101.449223259306081, 14.912980219174123 ], [ 101.448620433247953, 14.902089256161767 ], [ 101.454158775615269, 14.876221788113709 ], [ 101.450857354633484, 14.873928543298309 ], [ 101.454377586034028, 14.864306835105602 ], [ 101.450841934913427, 14.857701134928831 ], [ 101.423277548299822, 14.843664155174469 ], [ 101.415403451797147, 14.844359129132888 ], [ 101.3957171533131, 14.818460066225521 ], [ 101.369281334441425, 14.804301986445152 ], [ 101.345879444598722, 14.786966550005014 ], [ 101.337103446206626, 14.786228964720756 ], [ 101.339717661457286, 14.772708929713612 ], [ 101.330422336422544, 14.760762833650871 ], [ 101.307196888768431, 14.758662684358551 ], [ 101.297641107560921, 14.738761000284544 ], [ 101.29049387196423, 14.737345603868178 ], [ 101.283719131190821, 14.746496322197684 ], [ 101.281492494169299, 14.732834513515051 ], [ 101.266975839962342, 14.729957147434693 ], [ 101.254089144706541, 14.732592582753032 ], [ 101.231736017111487, 14.732299870634677 ], [ 101.216312967867637, 14.747003225936957 ], [ 101.214492375509792, 14.753982557548701 ], [ 101.20692373572345, 14.752130379385186 ], [ 101.197324814006421, 14.756708026575478 ], [ 101.197786009662508, 14.74906288432804 ], [ 101.188411214320965, 14.749311075567645 ], [ 101.193855109699385, 14.731287547486335 ], [ 101.185302695970748, 14.722102337551178 ], [ 101.189251398714973, 14.715139175988213 ], [ 101.186876090544729, 14.711309007431467 ], [ 101.195018930187317, 14.705692015477183 ], [ 101.203776336829236, 14.683699756181104 ], [ 101.199010178005565, 14.663982803443073 ], [ 101.204357331440875, 14.649885082036857 ], [ 101.208382046025321, 14.630624688540751 ], [ 101.204074822256771, 14.623517141151586 ], [ 101.207443329145605, 14.613880332545683 ], [ 101.204295009337358, 14.608029018221913 ], [ 101.215410176045964, 14.587131551295208 ], [ 101.20551945168917, 14.580286891069557 ], [ 101.200845732675688, 14.565741646126266 ], [ 101.193284057990653, 14.558865311560204 ], [ 101.19474383319573, 14.554214006866021 ], [ 101.184772502941485, 14.551393265444915 ], [ 101.181059711831594, 14.543622045276825 ], [ 101.187575757783307, 14.530010903078866 ], [ 101.195451218273547, 14.530924415248249 ], [ 101.223092041631702, 14.50414418114808 ], [ 101.242782448911271, 14.471530481968289 ], [ 101.22487482364869, 14.472567982470954 ], [ 101.225488327080996, 14.463466645126369 ], [ 101.233863776900691, 14.458866085335947 ], [ 101.231830701676969, 14.45224191199366 ], [ 101.222127864896393, 14.446126141246536 ], [ 101.229318185618851, 14.434354758730294 ], [ 101.22740127418146, 14.430741661827556 ], [ 101.213782324513474, 14.437393724370732 ], [ 101.209168866705966, 14.428625990230369 ], [ 101.210561355735607, 14.416175189444704 ], [ 101.202248296279691, 14.402551184855065 ], [ 101.211871197652272, 14.379157965738814 ], [ 101.210210629058835, 14.372006954704922 ], [ 101.186103102303846, 14.367223793583161 ], [ 101.185014212353764, 14.353817705128987 ], [ 101.17685268501522, 14.347461439497032 ], [ 101.167260497781328, 14.348417915290575 ], [ 101.165125707785876, 14.342973986924834 ], [ 101.164293294185242, 14.342934532120532 ], [ 101.164018493690804, 14.343113340700308 ], [ 101.157296958819984, 14.34823545438088 ], [ 101.158222245841046, 14.357746568806599 ], [ 101.146565462783002, 14.374441726496155 ], [ 101.116715222282451, 14.383828217291464 ], [ 101.085390916671585, 14.382542031797309 ], [ 101.075807120135408, 14.390119850706398 ], [ 101.071340409796605, 14.405630679043965 ], [ 101.06170593048337, 14.414784289401299 ], [ 101.056080201902631, 14.414390561681637 ], [ 101.053420016415089, 14.412514899800939 ], [ 101.057978715769465, 14.398547572663453 ], [ 101.054276479679316, 14.391621596458503 ], [ 101.063040727765269, 14.377096929747125 ], [ 101.051522913019937, 14.3580054966906 ], [ 101.049268206504749, 14.347569590771563 ], [ 101.017758470830969, 14.316001969155398 ], [ 101.013784435344874, 14.301000601212403 ], [ 100.989350321189548, 14.297867103556555 ], [ 100.986431568330644, 14.286897974487195 ], [ 100.983792860740891, 14.291127847637783 ], [ 100.978415070739203, 14.290327658746595 ], [ 100.951718178463892, 14.272146155923732 ], [ 100.892328249354122, 14.24370197582846 ], [ 100.891652152592144, 14.275469563388548 ], [ 100.845967068003731, 14.253707135849986 ], [ 100.823063471059442, 14.243899907913509 ], [ 100.823601799535254, 14.276283841792033 ], [ 100.82358564334784, 14.285786056039441 ], [ 100.823541732155491, 14.329525745369889 ], [ 100.815460661006, 14.326866186420286 ], [ 100.788526071901501, 14.322874776072785 ], [ 100.784529928316047, 14.322806551302534 ], [ 100.77280722298093, 14.329737220492007 ], [ 100.782151267859234, 14.339830392723885 ], [ 100.784708664110639, 14.349790139365103 ], [ 100.793015972468211, 14.364413973166814 ], [ 100.787950626971721, 14.364637541039299 ], [ 100.7868694826265, 14.370120393745294 ], [ 100.788012055217422, 14.380604730538185 ], [ 100.797088111546117, 14.390651549013185 ], [ 100.781089719856624, 14.398596014371211 ], [ 100.782028354969171, 14.405872334991869 ], [ 100.779037205710424, 14.411994320601206 ], [ 100.770428022437812, 14.407239555125875 ], [ 100.759701167850267, 14.413520883458887 ], [ 100.76821021521819, 14.420707988743668 ], [ 100.767384109559273, 14.431044519129689 ], [ 100.771368071380095, 14.43577421418596 ], [ 100.76022029462942, 14.451116000240978 ], [ 100.766164569948216, 14.454178285888974 ], [ 100.770355393098342, 14.466085864484917 ], [ 100.766120424814801, 14.478735713507692 ], [ 100.772170779726807, 14.479353345540208 ], [ 100.772977414648338, 14.483322792524639 ], [ 100.765327437575081, 14.484097747386466 ], [ 100.772365904897072, 14.492751627560894 ], [ 100.767872141942277, 14.498312142906578 ], [ 100.762999262472931, 14.493939411830107 ], [ 100.74992655879737, 14.509309016562915 ], [ 100.748946499311216, 14.517187236480678 ], [ 100.766504168919568, 14.525033842586554 ], [ 100.777584561333214, 14.530982832252842 ], [ 100.774250007074045, 14.550700358076371 ], [ 100.780668496548927, 14.567537563710895 ], [ 100.762708144768808, 14.568554832661784 ], [ 100.756646290339702, 14.569505369063693 ], [ 100.731562105261602, 14.56888471670093 ], [ 100.724195124901385, 14.568500814334438 ], [ 100.72268733747768, 14.576509433229241 ], [ 100.712617544896034, 14.575484189772357 ], [ 100.701983784318358, 14.575256830729584 ], [ 100.682674351488586, 14.584972578522388 ], [ 100.677653986379937, 14.594598198115875 ], [ 100.655969534277105, 14.606075703482551 ], [ 100.677056473913083, 14.56231807617181 ], [ 100.675099087024591, 14.55709671734966 ], [ 100.670186423381026, 14.556583891389291 ], [ 100.657953377578593, 14.549532898259105 ], [ 100.644396589370785, 14.548761962628015 ], [ 100.632969837783236, 14.551049568201236 ], [ 100.61939001660096, 14.560341643901797 ] ] ] ] } }
]
}
