{
"type": "FeatureCollection",
"name": "adm1_67",
"crs": { "type": "name", "properties": { "name": "urn:ogc:def:crs:OGC:1.3:CRS84" } },
"features": [
{ "type": "Feature", "properties": { "pro_code": "67", "pro_th": "เพชรบูรณ์", "pro_en": "Phetchabun", "reg_nesdb": "LowwerNorth", "reg_royin": "Central", "perimeter": 721.28178694595999, "area_sqkm": 12333.156078883399, "adm1_code": 67 }, "geometry": { "type": "MultiPolygon", "coordinates": [ [ [ [ 101.302565480799103, 15.501182837450484 ], [ 101.306868150331965, 15.472346000096902 ], [ 101.297624721002109, 15.455909925476044 ], [ 101.302143529519199, 15.438798925282311 ], [ 101.307466025663444, 15.434942317755624 ], [ 101.302863992505095, 15.430809374492057 ], [ 101.305452836600679, 15.392657591768636 ], [ 101.298901362612767, 15.38071270517362 ], [ 101.284879548696082, 15.374170268045061 ], [ 101.278466436010476, 15.363222594095351 ], [ 101.253486000408714, 15.351797910061947 ], [ 101.247708496988565, 15.35369146185413 ], [ 101.2263532082019, 15.341087262838276 ], [ 101.20691742501505, 15.329239874535878 ], [ 101.202092155698111, 15.325601156897953 ], [ 101.189327687295744, 15.330200275245701 ], [ 101.182824321574245, 15.326993178512598 ], [ 101.175590654757372, 15.334167830826891 ], [ 101.152623569218065, 15.333125577518285 ], [ 101.147385724268503, 15.339385677636828 ], [ 101.12756405354385, 15.334634238438198 ], [ 101.123464974001536, 15.341372058179934 ], [ 101.124365103539205, 15.336120575604861 ], [ 101.115380239786461, 15.33920011971739 ], [ 101.110523051124659, 15.336447316137248 ], [ 101.111849253568536, 15.342060605069857 ], [ 101.105454852125746, 15.339978457899841 ], [ 101.106280719502479, 15.344107883759428 ], [ 101.082269775560675, 15.35228823559294 ], [ 101.065662128037644, 15.327788270384323 ], [ 101.053712575078919, 15.319836160510393 ], [ 101.040787732206923, 15.325829172259102 ], [ 101.029198699589173, 15.322522534552462 ], [ 101.022768113987297, 15.338517192578223 ], [ 101.012467049526705, 15.328164530616201 ], [ 100.994429063022949, 15.320495343976949 ], [ 100.985618425538618, 15.324724889636986 ], [ 100.978204980636875, 15.33702587607806 ], [ 100.983921904499908, 15.348011829061583 ], [ 100.978406779951001, 15.367025781087902 ], [ 100.975293664565839, 15.416669475912641 ], [ 100.963629706025898, 15.411017879931203 ], [ 100.953674638705962, 15.411807086363071 ], [ 100.948334546358396, 15.406098912397955 ], [ 100.932267389031892, 15.414531286749584 ], [ 100.930802628315504, 15.427519288216818 ], [ 100.924320251719152, 15.43475960233339 ], [ 100.927530640888691, 15.46264655842503 ], [ 100.932882743525198, 15.468962710315596 ], [ 100.926893221245479, 15.483188604338578 ], [ 100.911264689232354, 15.48962148727432 ], [ 100.910568586664596, 15.500891529882498 ], [ 100.889088296379612, 15.514623170242182 ], [ 100.889666622274831, 15.525169584415824 ], [ 100.884176235802613, 15.529720146252579 ], [ 100.854464078782215, 15.526937755056689 ], [ 100.85491438731394, 15.547578410899742 ], [ 100.832775489318465, 15.552731585413493 ], [ 100.832161530253927, 15.563674640875156 ], [ 100.813751540317043, 15.578986419357832 ], [ 100.818490790859911, 15.58608756016468 ], [ 100.808387529757496, 15.594275832675859 ], [ 100.825005543792386, 15.61402969372404 ], [ 100.818350821280816, 15.630974750102016 ], [ 100.826488680600832, 15.646036999986158 ], [ 100.823189861487904, 15.66212171866094 ], [ 100.82695250142703, 15.664328092213498 ], [ 100.826318762014154, 15.675993070279702 ], [ 100.833481974209491, 15.680718117830878 ], [ 100.82678999868601, 15.683943745696773 ], [ 100.818733082117845, 15.712359272497254 ], [ 100.819685801069582, 15.747375533923606 ], [ 100.812013745728535, 15.75977013023943 ], [ 100.808171116756242, 15.779214187389718 ], [ 100.806666337898079, 15.784489479204451 ], [ 100.797586993567123, 15.828711697812325 ], [ 100.789864182820509, 15.844401312382432 ], [ 100.799746986278251, 15.865135616470965 ], [ 100.797758539487276, 15.891600404387701 ], [ 100.779348913445858, 15.896992943010398 ], [ 100.779348329869038, 15.896992947815999 ], [ 100.763929583937525, 15.911382906559286 ], [ 100.766406661741243, 15.931413134268251 ], [ 100.77286189290578, 15.929200374407783 ], [ 100.780899656877878, 15.935091651805111 ], [ 100.799018022549276, 15.936338551636227 ], [ 100.791103858496001, 15.958302650159538 ], [ 100.778019848680998, 15.966116035903173 ], [ 100.784131348124632, 15.981081110766141 ], [ 100.782070057226207, 15.99403765119192 ], [ 100.769170439085698, 15.998480740867796 ], [ 100.768944025706404, 16.003805258046985 ], [ 100.760286456421696, 16.009519856882569 ], [ 100.744086903212377, 16.012000491473096 ], [ 100.727094293594988, 16.02241395948586 ], [ 100.690148124334513, 16.027018815606233 ], [ 100.668567972310612, 16.030266018772913 ], [ 100.656804141375133, 16.047708602530385 ], [ 100.635327202291307, 16.045653796963144 ], [ 100.642820572130347, 16.051435670664869 ], [ 100.654125879106601, 16.1015851677797 ], [ 100.654633925919839, 16.126002964302181 ], [ 100.644228910634141, 16.139954313873456 ], [ 100.682861181982219, 16.202807819787566 ], [ 100.707194716556884, 16.242139715209294 ], [ 100.719089159046689, 16.251465569420574 ], [ 100.71773727746951, 16.257643003696515 ], [ 100.714440748199067, 16.253864093003358 ], [ 100.707747330215568, 16.255830567848385 ], [ 100.694124734347483, 16.249294455667595 ], [ 100.677488574774245, 16.248009124568249 ], [ 100.669168451976333, 16.250479780738186 ], [ 100.668575011517447, 16.25477701669282 ], [ 100.67325004986759, 16.256205261175328 ], [ 100.676320833127974, 16.262609635281752 ], [ 100.671608303112009, 16.257252953592626 ], [ 100.662833494145133, 16.267795885420806 ], [ 100.650057233981755, 16.297480799298388 ], [ 100.648978833197503, 16.308177738312089 ], [ 100.653772677973635, 16.319570916024521 ], [ 100.65260201842419, 16.321974883785234 ], [ 100.666987270798685, 16.350918836415843 ], [ 100.706886542674539, 16.385659727983356 ], [ 100.703753367530723, 16.411209345134388 ], [ 100.709430780296344, 16.418003991564916 ], [ 100.723971526826006, 16.422965955999352 ], [ 100.740914825104525, 16.418820676697486 ], [ 100.762290325884891, 16.431681976565592 ], [ 100.772194637886543, 16.426306605183083 ], [ 100.775126465886785, 16.438104834839883 ], [ 100.786594719810722, 16.449215926403635 ], [ 100.805222284348176, 16.449897841360361 ], [ 100.793517126596669, 16.472401581830738 ], [ 100.803847866451335, 16.480177754062385 ], [ 100.816788033570077, 16.482964174524518 ], [ 100.814817548174929, 16.496064554450573 ], [ 100.832592243790629, 16.505111673505731 ], [ 100.833661293117316, 16.519337537273177 ], [ 100.840628514076101, 16.524082299725706 ], [ 100.848461539094103, 16.522567330952036 ], [ 100.845982169225337, 16.539689951636984 ], [ 100.85817101621052, 16.547567269811999 ], [ 100.851558355631866, 16.575296528130334 ], [ 100.845860776836318, 16.578900523355518 ], [ 100.850426729753977, 16.583726985479487 ], [ 100.84716144490838, 16.591846583716997 ], [ 100.855083605907012, 16.609177042115103 ], [ 100.853775003593881, 16.615267641611016 ], [ 100.864631103879262, 16.618992671936546 ], [ 100.861447741532857, 16.638316230017882 ], [ 100.868978572147256, 16.649298244021733 ], [ 100.882292290852519, 16.656698988062171 ], [ 100.887735873467179, 16.667685524339998 ], [ 100.903309473512877, 16.667076573557502 ], [ 100.905481589368463, 16.671189294807171 ], [ 100.924754119353977, 16.665854056241066 ], [ 100.931577642413359, 16.68015368410796 ], [ 100.942228229003604, 16.681435347344735 ], [ 100.937968142276731, 16.687658944218075 ], [ 100.9291274126399, 16.685996551072602 ], [ 100.933613516906334, 16.696334243897287 ], [ 100.924339324743329, 16.701744925676298 ], [ 100.922961903226962, 16.711302674114219 ], [ 100.930913391627911, 16.710317090301345 ], [ 100.931427006348116, 16.717740613554952 ], [ 100.913834696552854, 16.730960721984427 ], [ 100.922561268073622, 16.745924947337091 ], [ 100.919660491728408, 16.756026580749158 ], [ 100.919195541605404, 16.759052164338939 ], [ 100.898897463101861, 16.762514388134957 ], [ 100.895296407438906, 16.773730250364345 ], [ 100.902884238754638, 16.775503567854951 ], [ 100.90642720107769, 16.782492580253411 ], [ 100.903202620044851, 16.802107020663083 ], [ 100.917159013771339, 16.791763912719773 ], [ 100.936888065486954, 16.795586415183699 ], [ 100.949087444391722, 16.791279947110418 ], [ 100.955124179502377, 16.795197116469531 ], [ 100.957119929439145, 16.800588051295652 ], [ 100.953397231634966, 16.803575731555643 ], [ 100.95739190355836, 16.80584176552534 ], [ 100.955354189440172, 16.812554069786657 ], [ 100.959197005227651, 16.820732841454433 ], [ 100.958241805709093, 16.823750702917536 ], [ 100.953562597629499, 16.820580924254166 ], [ 100.954934585884772, 16.825495517427164 ], [ 100.959245584458202, 16.825230829947778 ], [ 100.961679677663525, 16.83066040102408 ], [ 100.964925171828838, 16.827420728526604 ], [ 100.972204152674919, 16.829186262660897 ], [ 100.97192447842356, 16.824257964355379 ], [ 100.974731484584211, 16.82925911173956 ], [ 100.978513954904173, 16.82614735492816 ], [ 100.977188896671095, 16.83090021146624 ], [ 100.980199082029969, 16.829757624773269 ], [ 100.981463316684227, 16.834668485986974 ], [ 100.973439839582028, 16.842112843265266 ], [ 100.979362795578623, 16.84113987506084 ], [ 100.980967535906331, 16.848446286731686 ], [ 100.993386340031762, 16.854932963831953 ], [ 101.012630122850751, 16.857855377059984 ], [ 101.014040117867836, 16.863911942277465 ], [ 101.025811567522581, 16.87170608964718 ], [ 101.031063681983255, 16.893122225625351 ], [ 101.043671872365493, 16.903648848671519 ], [ 101.050549270555535, 16.906471184940173 ], [ 101.066829466587166, 16.902127665100625 ], [ 101.080340923214379, 16.901096316081695 ], [ 101.092222859117271, 16.900287421261698 ], [ 101.106848969858049, 16.907291601321166 ], [ 101.116033325907992, 16.931832738769668 ], [ 101.118101183067012, 16.977960437282125 ], [ 101.111407185970378, 17.005514975307825 ], [ 101.116210903629892, 17.019489893215251 ], [ 101.125620868097357, 17.026011697458188 ], [ 101.151978087808786, 17.032863568537831 ], [ 101.169410641974167, 17.038744665039477 ], [ 101.172548499970915, 17.052411375954431 ], [ 101.187908463586879, 17.064748406741526 ], [ 101.206234259760109, 17.068185002056811 ], [ 101.221921483474148, 17.059686837167579 ], [ 101.229198872659452, 17.067837971456207 ], [ 101.225998895563222, 17.075096783528711 ], [ 101.223166171572089, 17.085423042688962 ], [ 101.235509469702279, 17.095385899262947 ], [ 101.243342196101224, 17.108841981623254 ], [ 101.250146245075456, 17.111850339635456 ], [ 101.273259390559616, 17.095687363715353 ], [ 101.27889488494985, 17.097722083206683 ], [ 101.305080893049876, 17.115918255055721 ], [ 101.307404232607112, 17.129676692934837 ], [ 101.318626035724719, 17.136515267711321 ], [ 101.352295541753449, 17.167883283591685 ], [ 101.381801424009652, 17.169711902195193 ], [ 101.397596853985434, 17.178028143607609 ], [ 101.451155865662116, 17.142130350731566 ], [ 101.451966894960478, 17.123389217527968 ], [ 101.461491690105063, 17.10604285019739 ], [ 101.459017137123709, 17.098656066821789 ], [ 101.468715045518564, 17.092528083306391 ], [ 101.475100398511628, 17.088878957775076 ], [ 101.489468918137902, 17.059131981820435 ], [ 101.495859744377768, 17.020913089667168 ], [ 101.504299212079601, 17.010236946370096 ], [ 101.533225937392714, 17.023352587664128 ], [ 101.544423537746553, 17.015311903932236 ], [ 101.551031275662453, 16.994858371110368 ], [ 101.562725394914807, 16.990119852314457 ], [ 101.57523097584253, 16.983593434466243 ], [ 101.582546854307097, 16.986858439156087 ], [ 101.587428922129803, 16.996273188879339 ], [ 101.607558204529496, 16.998987811781419 ], [ 101.628911697412818, 17.045469840587906 ], [ 101.643976974328254, 17.039210708470645 ], [ 101.650080417394477, 17.041532416192332 ], [ 101.645396001751919, 17.028924533382508 ], [ 101.65540385487553, 17.011661340383132 ], [ 101.654253128579541, 17.005066447390906 ], [ 101.675297523619719, 16.975706490915165 ], [ 101.67230711584763, 16.957585850603564 ], [ 101.677995912232319, 16.939847011224341 ], [ 101.691707823095356, 16.936074499658101 ], [ 101.687080851745179, 16.930827275270623 ], [ 101.691890102556826, 16.923286035618872 ], [ 101.684957490261354, 16.922189622081699 ], [ 101.6847083866041, 16.901547216966687 ], [ 101.678166843921218, 16.883778991943679 ], [ 101.68357095556064, 16.868626951961957 ], [ 101.676607285584637, 16.866844002200363 ], [ 101.680875111716873, 16.857586338282651 ], [ 101.688105876356047, 16.858175798356161 ], [ 101.684484621783412, 16.848599159024431 ], [ 101.68716193406344, 16.844969615293611 ], [ 101.690478917561208, 16.848449507988711 ], [ 101.692591194523544, 16.835548727144214 ], [ 101.698563315612503, 16.833990297750816 ], [ 101.699707975247108, 16.828118438295686 ], [ 101.706326558148945, 16.829800323955165 ], [ 101.721472548090318, 16.806750103698587 ], [ 101.719317042520203, 16.799710572441231 ], [ 101.700668784156875, 16.809728196719803 ], [ 101.68696415233866, 16.798608365718017 ], [ 101.704815224392419, 16.783489653411593 ], [ 101.718700834143547, 16.758838834993767 ], [ 101.727740043299775, 16.753321006085642 ], [ 101.738206090512435, 16.755523585070222 ], [ 101.763239835736542, 16.756045219160612 ], [ 101.787928602983712, 16.764270599779909 ], [ 101.782920539482291, 16.754072495785749 ], [ 101.789729066254779, 16.746920641693553 ], [ 101.785865438425049, 16.742797240725775 ], [ 101.791621300218466, 16.726747323601661 ], [ 101.776435402815537, 16.712635865926316 ], [ 101.772252108279787, 16.687431349261114 ], [ 101.76592569671439, 16.679913056214197 ], [ 101.751648352841229, 16.677490000663777 ], [ 101.750751528466438, 16.668012488660782 ], [ 101.744158111915212, 16.669464793938381 ], [ 101.741286773793661, 16.660323769467336 ], [ 101.736912832349859, 16.661202308038021 ], [ 101.731389640058097, 16.652399751652627 ], [ 101.724617851618063, 16.651446896814758 ], [ 101.706533455797995, 16.670570720097306 ], [ 101.702614927447428, 16.668510808229001 ], [ 101.701318888381707, 16.679261555721428 ], [ 101.698347090289175, 16.677070685969269 ], [ 101.688698121291793, 16.686190473950465 ], [ 101.656519022741108, 16.688502797418213 ], [ 101.634393403414208, 16.680238237382024 ], [ 101.617888956138174, 16.685673749134093 ], [ 101.601680950926465, 16.707711936450707 ], [ 101.591783645135962, 16.709210291628448 ], [ 101.592508493179935, 16.718376637744171 ], [ 101.587477354925412, 16.723868002047642 ], [ 101.567819979974459, 16.725776428578595 ], [ 101.559838893688521, 16.730666001367332 ], [ 101.553952690360219, 16.728101486295234 ], [ 101.554017200450048, 16.711564843063968 ], [ 101.562570307897417, 16.697038980165626 ], [ 101.571171363683376, 16.692227574377995 ], [ 101.577658716105219, 16.67273558200969 ], [ 101.571861466344274, 16.648334884045614 ], [ 101.561255574906696, 16.649463114024165 ], [ 101.547196437736957, 16.668274606756551 ], [ 101.537876196173457, 16.666142210502855 ], [ 101.527004154213216, 16.679395923482502 ], [ 101.513395807700689, 16.680958266663158 ], [ 101.510600350999141, 16.676932056848397 ], [ 101.51363863643283, 16.672828284306672 ], [ 101.509007250561652, 16.655413182890516 ], [ 101.52614276089659, 16.619515367892848 ], [ 101.50636866435606, 16.616690663128999 ], [ 101.500079570688953, 16.610583603674481 ], [ 101.49848809449081, 16.579635293835366 ], [ 101.497162238018589, 16.561213174920759 ], [ 101.508115026602923, 16.555671018942967 ], [ 101.510161543938963, 16.559120557596877 ], [ 101.519526622408634, 16.549544728603937 ], [ 101.515542811976331, 16.542671596877344 ], [ 101.502973454940971, 16.545696390253422 ], [ 101.505052017817277, 16.538682380162957 ], [ 101.496722467549461, 16.538926788845156 ], [ 101.483638249447864, 16.524327904285325 ], [ 101.472314893247258, 16.529066857170761 ], [ 101.465044206127644, 16.512562758883227 ], [ 101.465368134722382, 16.497908625641035 ], [ 101.472153934454866, 16.48990435005047 ], [ 101.473138130516901, 16.479491308754941 ], [ 101.449112664281685, 16.450815045304072 ], [ 101.443140748444861, 16.438487936523362 ], [ 101.428199384026811, 16.43314671988248 ], [ 101.417833337061595, 16.423364876104785 ], [ 101.417330179635073, 16.411243492123109 ], [ 101.41035145193905, 16.411631972881683 ], [ 101.398436726421508, 16.400834599494807 ], [ 101.407750352271066, 16.3920007353777 ], [ 101.408482735369688, 16.383731345372425 ], [ 101.40603055714341, 16.378642008758348 ], [ 101.392100516061021, 16.373151573112839 ], [ 101.391919422144142, 16.366117697265793 ], [ 101.381409116078714, 16.359792569416857 ], [ 101.377025605239055, 16.347239160589588 ], [ 101.378552228322548, 16.317254233809798 ], [ 101.36684120595082, 16.293205075500349 ], [ 101.369559234176364, 16.275560147238057 ], [ 101.357622951790262, 16.269160997984031 ], [ 101.353372072015389, 16.260070677425425 ], [ 101.364304372037168, 16.245979409059242 ], [ 101.371986618173835, 16.243798874726799 ], [ 101.367617565088239, 16.224918765197422 ], [ 101.374318726747518, 16.214966691691298 ], [ 101.372362877159631, 16.204910362210207 ], [ 101.377507074297753, 16.187140085859721 ], [ 101.363247512989602, 16.185605258115022 ], [ 101.362513767971791, 16.176725327618485 ], [ 101.356081100815629, 16.17416219765423 ], [ 101.35422666893335, 16.165035996488339 ], [ 101.340795781737583, 16.153658015306856 ], [ 101.344558263641872, 16.143318010573743 ], [ 101.335351411642293, 16.118363475102612 ], [ 101.33771832071622, 16.111899749948595 ], [ 101.330947389084287, 16.076190157287446 ], [ 101.32532250317891, 16.061312470198832 ], [ 101.329913471027197, 16.054098573055096 ], [ 101.322917425180833, 16.040983706331954 ], [ 101.330086112716486, 16.03419811578236 ], [ 101.33054311543026, 16.02318065602012 ], [ 101.341438122120081, 16.012460637333742 ], [ 101.343435238452031, 16.001853274388846 ], [ 101.337249333830997, 15.99172013702246 ], [ 101.347292577361685, 15.9826975267591 ], [ 101.358075020823179, 15.963159990711009 ], [ 101.373943403201451, 15.968469104424893 ], [ 101.372281662264058, 15.95572146612486 ], [ 101.36996972294537, 15.939310914258858 ], [ 101.363685622504306, 15.931658178693962 ], [ 101.360799745864995, 15.922949455194891 ], [ 101.374334656138288, 15.919457252376471 ], [ 101.368997719107753, 15.910177114140524 ], [ 101.362560514953614, 15.907703472661675 ], [ 101.352539836825812, 15.888622395185388 ], [ 101.34052473991693, 15.888355334546779 ], [ 101.332434011347672, 15.88112627524573 ], [ 101.328620285722337, 15.858374191943751 ], [ 101.326658811984387, 15.851939227025136 ], [ 101.331606743409509, 15.850485726017727 ], [ 101.324474710232636, 15.832867761269657 ], [ 101.331968251756976, 15.830000258626894 ], [ 101.326570693899725, 15.806842577135784 ], [ 101.331294755879497, 15.803450390802356 ], [ 101.317173971849229, 15.78984682022366 ], [ 101.328363727884337, 15.785390817935758 ], [ 101.333657943390591, 15.777697903545203 ], [ 101.331952072966345, 15.773541265771856 ], [ 101.339249273785953, 15.767421325431345 ], [ 101.335441146487483, 15.753906409247282 ], [ 101.340645014076102, 15.756271706083544 ], [ 101.348440286251432, 15.750392386171056 ], [ 101.338790641297791, 15.747128705502814 ], [ 101.337604596984349, 15.721300218712006 ], [ 101.350855000931816, 15.662476475138403 ], [ 101.34639212900619, 15.651700237314694 ], [ 101.33961053065579, 15.637020954287213 ], [ 101.320970499806009, 15.616495340918762 ], [ 101.310969587942395, 15.574205575171346 ], [ 101.306362048211611, 15.550087766435789 ], [ 101.288071063069353, 15.531073118165546 ], [ 101.289308156390476, 15.526960828829386 ], [ 101.297876728628083, 15.529293030391027 ], [ 101.303355935664612, 15.519002022502631 ], [ 101.302565480799103, 15.501182837450484 ] ] ] ] } }
]
}
