{
"type": "FeatureCollection",
"name": "adm1_66",
"crs": { "type": "name", "properties": { "name": "urn:ogc:def:crs:OGC:1.3:CRS84" } },
"features": [
{ "type": "Feature", "properties": { "pro_code": "66", "pro_th": "พิจิตร", "pro_en": "Phichit", "reg_nesdb": "LowwerNorth", "reg_royin": "Central", "perimeter": 383.70807230815001, "area_sqkm": 4318.6512618092302, "adm1_code": 66 }, "geometry": { "type": "MultiPolygon", "coordinates": [ [ [ [ 100.575453805926287, 15.954161289136621 ], [ 100.546948958986988, 15.926674172093893 ], [ 100.5362966857668, 15.923950848723027 ], [ 100.528667732501461, 15.93662850627401 ], [ 100.521193362840606, 15.940271617672114 ], [ 100.503823192661073, 15.937609827308043 ], [ 100.474318921829692, 15.936459018352972 ], [ 100.461066045498953, 15.938347778516574 ], [ 100.458971077121447, 15.941628066165878 ], [ 100.448975871603551, 15.934303505618303 ], [ 100.416306909846469, 15.945131285540388 ], [ 100.410218657475738, 15.936710365357031 ], [ 100.39878281222181, 15.932687156697545 ], [ 100.3877460444305, 15.938591496602367 ], [ 100.36576062338564, 15.940600542995327 ], [ 100.331478050807419, 15.941117775988284 ], [ 100.34273208790492, 15.965184921337331 ], [ 100.338917134672982, 15.978508623329892 ], [ 100.322208364981691, 15.987779157960599 ], [ 100.323451173910797, 15.97411223151861 ], [ 100.313203249631229, 15.97794177966632 ], [ 100.30621543464423, 15.973518189969782 ], [ 100.309339020680511, 15.961211430913536 ], [ 100.276271884643066, 15.943633339844052 ], [ 100.26714448602236, 15.939868376250743 ], [ 100.257526885090968, 15.954545791931919 ], [ 100.241968599313239, 15.953215845654064 ], [ 100.239286125905792, 15.94969942903094 ], [ 100.244279820791519, 15.941306496760136 ], [ 100.240225542602374, 15.934295500868506 ], [ 100.216786846155017, 15.927635249648009 ], [ 100.202228374577388, 15.93432874202986 ], [ 100.18658240642641, 15.935182557227547 ], [ 100.18128647935697, 15.92874884640328 ], [ 100.175073475847185, 15.934120230255399 ], [ 100.168219516100294, 15.956413450658571 ], [ 100.160516490921196, 15.961010688687091 ], [ 100.16035745163029, 15.967972619704804 ], [ 100.161275915686744, 15.97970126194012 ], [ 100.148821395952766, 15.989089497999169 ], [ 100.137508501155935, 16.012683602396869 ], [ 100.128374117699025, 16.025946709984549 ], [ 100.130786319782501, 16.035534469331193 ], [ 100.115826178330352, 16.047152167763763 ], [ 100.119332654683916, 16.055012441008266 ], [ 100.112337161485328, 16.069425305663785 ], [ 100.109124707481826, 16.076250553988253 ], [ 100.114369309953744, 16.079087513669169 ], [ 100.096269952692282, 16.094617300693169 ], [ 100.094938284063687, 16.111039988004233 ], [ 100.077391262527172, 16.124893335973351 ], [ 100.085552329752588, 16.143456393847096 ], [ 100.076789400378672, 16.147301716699726 ], [ 100.075637068298008, 16.163148304380886 ], [ 100.063098602157282, 16.159564035942449 ], [ 100.055536164995729, 16.167342418520544 ], [ 100.04430715908596, 16.168439537833478 ], [ 100.038572658553051, 16.177416231485537 ], [ 100.037611997386335, 16.182533619628494 ], [ 100.025274349225398, 16.191825701008934 ], [ 100.046091844877552, 16.207505253341974 ], [ 100.027970563274749, 16.239942091370335 ], [ 100.021204625980076, 16.251613641475902 ], [ 100.028546513132056, 16.270397303364586 ], [ 100.033132575734513, 16.283824946704083 ], [ 100.018867919403149, 16.300965372463214 ], [ 100.021987888812887, 16.307688856923427 ], [ 100.019213256083731, 16.322488871500397 ], [ 100.027278321357002, 16.331540688424571 ], [ 100.021810847077617, 16.337935167765941 ], [ 100.006692653275493, 16.335910819198197 ], [ 99.995399628217797, 16.355559811852483 ], [ 99.983400558769588, 16.375115537317896 ], [ 99.993967641884765, 16.387413136636965 ], [ 99.997083796987923, 16.419450472284488 ], [ 100.002951125402518, 16.437948899670502 ], [ 99.999962392178986, 16.449993943136636 ], [ 100.003375598962919, 16.45824256461048 ], [ 100.034739814321682, 16.502213185984392 ], [ 100.025044276956265, 16.52007037170387 ], [ 100.010570496526199, 16.52188216683307 ], [ 100.01230158788384, 16.539632810554547 ], [ 100.011384842669187, 16.554270392739777 ], [ 100.012632185659143, 16.575077501034489 ], [ 100.034287211604564, 16.583311237963187 ], [ 100.047063491463916, 16.57120090255842 ], [ 100.073823924919921, 16.578115367244198 ], [ 100.089949389450481, 16.588443085988214 ], [ 100.086082258681827, 16.596821653575855 ], [ 100.097617390806505, 16.606714787248993 ], [ 100.103507416455017, 16.605223888634214 ], [ 100.105810735945738, 16.609779485161869 ], [ 100.118718567567257, 16.614094075322786 ], [ 100.1293935754383, 16.610506826826164 ], [ 100.146183995440111, 16.595555787234112 ], [ 100.166944032315527, 16.58887174332455 ], [ 100.185755077881666, 16.585962402657021 ], [ 100.175831584248144, 16.598755969569016 ], [ 100.197494591247931, 16.60918454496997 ], [ 100.194856397504324, 16.619973331242466 ], [ 100.200870661745967, 16.617723156190884 ], [ 100.203960248502241, 16.624523490724719 ], [ 100.191856481845321, 16.627828994940796 ], [ 100.190688947155309, 16.632799955411105 ], [ 100.195722061603263, 16.636290293969257 ], [ 100.191516984534715, 16.645908574057003 ], [ 100.202632437846418, 16.642550009289977 ], [ 100.215883946644894, 16.647665216419139 ], [ 100.215806074118845, 16.632802385931839 ], [ 100.22557541772585, 16.625446629444433 ], [ 100.225915437495686, 16.617448104764819 ], [ 100.231693815291436, 16.616412955405561 ], [ 100.233261105066845, 16.597417877941336 ], [ 100.233564524030655, 16.55455814493935 ], [ 100.237741465946783, 16.540666538022091 ], [ 100.24358558890242, 16.531975461370916 ], [ 100.250017635337628, 16.530096642818677 ], [ 100.264650600993306, 16.537429938961999 ], [ 100.285683443565091, 16.531323856896702 ], [ 100.323620883458815, 16.525682039735564 ], [ 100.360284370153352, 16.535256973708787 ], [ 100.376873392138592, 16.546406993192477 ], [ 100.369427465210137, 16.550451852504377 ], [ 100.38604757342037, 16.553567380597116 ], [ 100.425411279666122, 16.535833378349242 ], [ 100.430518765727442, 16.51586483852445 ], [ 100.4355558268458, 16.520030511417854 ], [ 100.471212162135345, 16.519783511870678 ], [ 100.474595425209174, 16.531129913742397 ], [ 100.484140537835316, 16.541824705110123 ], [ 100.483317563972918, 16.54256371954342 ], [ 100.504633126081757, 16.553406116145023 ], [ 100.504744211169267, 16.568244616546593 ], [ 100.5096128024243, 16.573866746023864 ], [ 100.526198806745313, 16.565751272503842 ], [ 100.537920358777058, 16.567909692265474 ], [ 100.559476170147633, 16.572044330847366 ], [ 100.575794191525787, 16.585579897055407 ], [ 100.580316685758149, 16.575922278990173 ], [ 100.578424281950376, 16.53404301527042 ], [ 100.577615246890943, 16.523109724592256 ], [ 100.587432277989009, 16.520340017809453 ], [ 100.582923957433138, 16.488839283119329 ], [ 100.585093381200295, 16.471554068543156 ], [ 100.568308640480751, 16.459839489437041 ], [ 100.579260343888976, 16.440179359125594 ], [ 100.595241376463292, 16.415755361217542 ], [ 100.606354023708604, 16.417517612212873 ], [ 100.604304665336855, 16.412236413972195 ], [ 100.613266459504885, 16.40517873855989 ], [ 100.624012793410685, 16.405452923938554 ], [ 100.630346490444254, 16.398070350581296 ], [ 100.635556008544754, 16.375151600189248 ], [ 100.623063449774165, 16.359414250982269 ], [ 100.619736971181183, 16.348978303317164 ], [ 100.623657487248252, 16.330482000792522 ], [ 100.625507395128182, 16.326913925629512 ], [ 100.634366703646592, 16.327349313675057 ], [ 100.65260201842419, 16.321974883785234 ], [ 100.653772677973635, 16.319570916024521 ], [ 100.648978833197503, 16.308177738312089 ], [ 100.650057233981755, 16.297480799298388 ], [ 100.662833494145133, 16.267795885420806 ], [ 100.671608303112009, 16.257252953592626 ], [ 100.676320833127974, 16.262609635281752 ], [ 100.67325004986759, 16.256205261175328 ], [ 100.668575011517447, 16.25477701669282 ], [ 100.669168451976333, 16.250479780738186 ], [ 100.677488574774245, 16.248009124568249 ], [ 100.694124734347483, 16.249294455667595 ], [ 100.707747330215568, 16.255830567848385 ], [ 100.714440748199067, 16.253864093003358 ], [ 100.71773727746951, 16.257643003696515 ], [ 100.719089159046689, 16.251465569420574 ], [ 100.707194716556884, 16.242139715209294 ], [ 100.682861181982219, 16.202807819787566 ], [ 100.644228910634141, 16.139954313873456 ], [ 100.654633925919839, 16.126002964302181 ], [ 100.654125879106601, 16.1015851677797 ], [ 100.642820572130347, 16.051435670664869 ], [ 100.635327202291307, 16.045653796963144 ], [ 100.656804141375133, 16.047708602530385 ], [ 100.668567972310612, 16.030266018772913 ], [ 100.690148124334513, 16.027018815606233 ], [ 100.727094293594988, 16.02241395948586 ], [ 100.744086903212377, 16.012000491473096 ], [ 100.760286456421696, 16.009519856882569 ], [ 100.768944025706404, 16.003805258046985 ], [ 100.769170439085698, 15.998480740867796 ], [ 100.782070057226207, 15.99403765119192 ], [ 100.784131348124632, 15.981081110766141 ], [ 100.778019848680998, 15.966116035903173 ], [ 100.791103858496001, 15.958302650159538 ], [ 100.799018022549276, 15.936338551636227 ], [ 100.780899656877878, 15.935091651805111 ], [ 100.77286189290578, 15.929200374407783 ], [ 100.766406661741243, 15.931413134268251 ], [ 100.767670478108855, 15.935552939222339 ], [ 100.756130368506149, 15.942506212690997 ], [ 100.750354122211505, 15.969274105218474 ], [ 100.737819312124259, 15.989251231957109 ], [ 100.702254255654822, 15.989315499183194 ], [ 100.682369034882683, 15.999840993839051 ], [ 100.655869935232147, 16.006346916415012 ], [ 100.654440290569454, 16.006691180633606 ], [ 100.625986702985827, 16.002724185198758 ], [ 100.61684481578196, 15.983420439165256 ], [ 100.575453805926287, 15.954161289136621 ] ] ] ] } }
]
}
