{
"type": "FeatureCollection",
"name": "adm1_27",
"crs": { "type": "name", "properties": { "name": "urn:ogc:def:crs:OGC:1.3:CRS84" } },
"features": [
{ "type": "Feature", "properties": { "pro_code": "27", "pro_th": "สระแก้ว", "pro_en": "Sa Kaeo", "reg_nesdb": "East", "reg_royin": "East", "perimeter": 483.87700077799002, "area_sqkm": 6815.1150349824802, "adm1_code": 27 }, "geometry": { "type": "MultiPolygon", "coordinates": [ [ [ [ 102.165137821939041, 13.32448889602248 ], [ 102.150319181347086, 13.318780350585561 ], [ 102.136216227303805, 13.333203143770643 ], [ 102.127616009299786, 13.334377355189586 ], [ 102.128206346911966, 13.31942151624383 ], [ 102.118901119003638, 13.303259138795012 ], [ 102.118210153040124, 13.277237904008601 ], [ 102.108533408327375, 13.263857571069897 ], [ 102.070928442826968, 13.25561625448506 ], [ 102.056346537400728, 13.239766912236323 ], [ 102.043663996006885, 13.241662280308208 ], [ 102.02833002537497, 13.236565587833942 ], [ 102.029119991859147, 13.266213134160479 ], [ 102.034544105390893, 13.284153286561969 ], [ 102.014179276490722, 13.292513420290367 ], [ 102.011923617855757, 13.289436771206036 ], [ 102.001634083468844, 13.31652162406407 ], [ 101.992387915626111, 13.324313174839958 ], [ 101.989122731593838, 13.334031136620842 ], [ 101.985567896729663, 13.340177180795164 ], [ 101.990125357546958, 13.353342084761241 ], [ 101.981857958270751, 13.359753745875556 ], [ 101.982018260454694, 13.380798613561845 ], [ 101.973178823809874, 13.394047064670319 ], [ 101.977076072342683, 13.408720237212076 ], [ 101.963522991020639, 13.416259815678659 ], [ 101.94351740796381, 13.438746183987778 ], [ 101.938155947032811, 13.450771414119354 ], [ 101.94307384745089, 13.460881374773257 ], [ 101.936105644514569, 13.471857466494187 ], [ 101.937199205116144, 13.478089011911381 ], [ 101.89484777796936, 13.471758448986581 ], [ 101.881149078969244, 13.4904116058906 ], [ 101.886794443454477, 13.501423445360725 ], [ 101.897367869555993, 13.510683445845048 ], [ 101.895609493755643, 13.516987824420756 ], [ 101.885265815873439, 13.52381924364707 ], [ 101.873750648496753, 13.524141437112965 ], [ 101.899027391896198, 13.5507878041089 ], [ 101.907073043618198, 13.570523894687362 ], [ 101.914765698651138, 13.585395114727589 ], [ 101.909557085366757, 13.604969051575209 ], [ 101.942053240283656, 13.616239411584646 ], [ 101.935730522768409, 13.628610359609226 ], [ 101.938775624248322, 13.646830624635323 ], [ 101.943712817986594, 13.650521969855628 ], [ 101.948612393018351, 13.667698636628595 ], [ 101.943634438916547, 13.692628953123119 ], [ 101.93763014682149, 13.710722011583664 ], [ 101.941605973695275, 13.739053991697407 ], [ 101.936118327384463, 13.740508528166787 ], [ 101.941808636499232, 13.754997083595379 ], [ 101.947694074779591, 13.802179548694905 ], [ 101.942081427226199, 13.811076630563148 ], [ 101.92392158384952, 13.816201270131538 ], [ 101.926811877188598, 13.822958911696324 ], [ 101.920315519918688, 13.831823980272496 ], [ 101.928642097469705, 13.854690519763439 ], [ 101.904611919444548, 13.882855542954648 ], [ 101.915428955058701, 13.899743681525758 ], [ 101.909833044159143, 13.903146998356377 ], [ 101.909638615536807, 13.908893853520944 ], [ 101.904561216447092, 13.906676390480403 ], [ 101.905763914521089, 13.914512018212854 ], [ 101.911649604435297, 13.933869304468411 ], [ 101.922123987171474, 13.937171975779693 ], [ 101.925506651489542, 13.939524901574698 ], [ 101.930870609370999, 13.933350784359739 ], [ 101.939036793970018, 13.935572131617361 ], [ 101.942083964537815, 13.930881382006579 ], [ 101.951909345191169, 13.935157186294788 ], [ 101.937605563191212, 13.959200548762555 ], [ 101.941404968469882, 13.966448775248255 ], [ 101.939492603245242, 13.983019229046741 ], [ 101.934739516731767, 13.990805379308595 ], [ 101.924865718909004, 13.993469608120462 ], [ 101.93633241571969, 14.001991907420617 ], [ 101.939777488199041, 14.016443749889829 ], [ 101.955262225199021, 14.023271592049495 ], [ 101.994167644364069, 14.032626699681622 ], [ 102.075248044087758, 14.035066776545836 ], [ 102.085412661179475, 14.061803725834586 ], [ 102.087656346825582, 14.087823014943984 ], [ 102.098823819506364, 14.10388891775245 ], [ 102.098229390646196, 14.126425856507026 ], [ 102.10672819594744, 14.151359012845395 ], [ 102.119837061010756, 14.148979957175056 ], [ 102.132153214995583, 14.137781541770273 ], [ 102.163710126404453, 14.14061634690319 ], [ 102.171611044302367, 14.158938237801751 ], [ 102.166281043763249, 14.164879088756321 ], [ 102.166670785981964, 14.172499501299532 ], [ 102.180655238941299, 14.194828357268628 ], [ 102.192001297551855, 14.195012481162262 ], [ 102.20667196322016, 14.174545407126907 ], [ 102.211331252557244, 14.17276291244613 ], [ 102.210622371806267, 14.153699068256463 ], [ 102.216022616937749, 14.144641452049763 ], [ 102.238179655390582, 14.144385333674967 ], [ 102.246130186600396, 14.139871763519993 ], [ 102.268775607781421, 14.146305738077343 ], [ 102.27165139670366, 14.128760709873127 ], [ 102.288886631338201, 14.135054317982179 ], [ 102.307261090393467, 14.120060580652549 ], [ 102.325970397776857, 14.127860352315768 ], [ 102.331785130388781, 14.120051493865599 ], [ 102.339124792366732, 14.125651051776238 ], [ 102.349222552162047, 14.125225016048899 ], [ 102.357283349580754, 14.132019099325982 ], [ 102.359176783581603, 14.165712780555605 ], [ 102.362917271902191, 14.166230229298472 ], [ 102.380863058444476, 14.146964856978503 ], [ 102.394030114148237, 14.145149465568448 ], [ 102.400270696656875, 14.145995511534233 ], [ 102.407044930342082, 14.15482450267476 ], [ 102.418339470041147, 14.154004780619813 ], [ 102.423758247894227, 14.157913186395252 ], [ 102.431293732288808, 14.152289645854276 ], [ 102.436583103452904, 14.14336019693776 ], [ 102.453383345174387, 14.142850504412479 ], [ 102.454722390631588, 14.136497412018743 ], [ 102.4690639624705, 14.131940648298054 ], [ 102.475459046650002, 14.131955399434421 ], [ 102.482689511888452, 14.14172634877913 ], [ 102.500269012570328, 14.132812649533253 ], [ 102.507445713555725, 14.132610911567147 ], [ 102.522279865446166, 14.143124419844849 ], [ 102.55015852938115, 14.135248717114751 ], [ 102.586027116563884, 14.156893202920983 ], [ 102.592444033470557, 14.166118928233066 ], [ 102.608024353000062, 14.171055647101685 ], [ 102.634306279957499, 14.148861071239249 ], [ 102.655347786550209, 14.16562123895733 ], [ 102.682490415620023, 14.151278406652233 ], [ 102.690711387920757, 14.142916461627959 ], [ 102.688678195842172, 14.134343202042052 ], [ 102.695737448255471, 14.130574910981293 ], [ 102.734498362067129, 14.141503547100816 ], [ 102.747689809529334, 14.139736631691644 ], [ 102.765725097210975, 14.140778719773788 ], [ 102.776959405526057, 14.162467461669854 ], [ 102.781824640336097, 14.163431937478782 ], [ 102.783798725478434, 14.155938685909062 ], [ 102.792327290697585, 14.173034845669388 ], [ 102.800221420612687, 14.158916421397441 ], [ 102.80420332801647, 14.159707183408754 ], [ 102.806397664443338, 14.171564036833185 ], [ 102.815707767327496, 14.17132114844437 ], [ 102.828866052537123, 14.157799599107188 ], [ 102.831316087134326, 14.168083918234869 ], [ 102.862369052622043, 14.148982899908606 ], [ 102.869814951799071, 14.150995851609578 ], [ 102.872209275214971, 14.170502371769318 ], [ 102.876885963042938, 14.174071117682423 ], [ 102.890768669258549, 14.170849048897908 ], [ 102.897770886225828, 14.164373718959908 ], [ 102.904651992335673, 14.166650607735793 ], [ 102.929764676231329, 14.176386447975682 ], [ 102.937293751387315, 14.165216343192974 ], [ 102.940371767541521, 14.148901829766382 ], [ 102.925457952571733, 14.133428099674301 ], [ 102.922925549265543, 14.105034138608813 ], [ 102.908889715232689, 14.09530994462625 ], [ 102.901120110515052, 14.083458595523345 ], [ 102.90271506870161, 14.067635097635037 ], [ 102.897595463773342, 14.052419820850197 ], [ 102.911519880551509, 14.017980466284085 ], [ 102.902092418826754, 14.016422787189093 ], [ 102.894028324050979, 14.007449157727971 ], [ 102.886042311511659, 14.010931995558936 ], [ 102.879580631968494, 14.004263437204216 ], [ 102.868252362502062, 14.005471131117776 ], [ 102.858264366780887, 13.995956969524862 ], [ 102.815432280257554, 13.965490445048777 ], [ 102.802696560708853, 13.943004164231827 ], [ 102.782846643682547, 13.932732543347285 ], [ 102.765902406548534, 13.855889280807409 ], [ 102.754595281987534, 13.844410944063002 ], [ 102.73505568018652, 13.813051240845597 ], [ 102.723036523892546, 13.793021031408601 ], [ 102.732448618157719, 13.785143662941531 ], [ 102.732262672758708, 13.773409364946875 ], [ 102.716138899832174, 13.773988636083596 ], [ 102.689000361017037, 13.751838095780423 ], [ 102.656446369691636, 13.737810157242201 ], [ 102.582640767023932, 13.701191577749162 ], [ 102.577023787160627, 13.693085900255188 ], [ 102.567967850461756, 13.689528258033253 ], [ 102.550865570319047, 13.664015436189832 ], [ 102.548518009080482, 13.660085187631712 ], [ 102.558786246419984, 13.648221286131323 ], [ 102.569534877715455, 13.64427676562765 ], [ 102.575404782058584, 13.63004423241019 ], [ 102.586791395077157, 13.629465921390768 ], [ 102.624651072264228, 13.609963550561066 ], [ 102.574395753187886, 13.603485653357728 ], [ 102.568365788341779, 13.583867078999111 ], [ 102.552986757501742, 13.57485704415703 ], [ 102.545420863435396, 13.575287493928734 ], [ 102.536975210983343, 13.566720209292928 ], [ 102.526739877101974, 13.564148036980091 ], [ 102.480006455498554, 13.572151639950206 ], [ 102.471847005415029, 13.56500505020402 ], [ 102.459177499136729, 13.56263755977254 ], [ 102.443873648936503, 13.563955198686655 ], [ 102.437695889091756, 13.560176524310743 ], [ 102.419865237817561, 13.571574434456817 ], [ 102.409878529599808, 13.566911705120186 ], [ 102.392638646186384, 13.567319483718775 ], [ 102.376049507692855, 13.57782782892499 ], [ 102.370862545436466, 13.575242581569366 ], [ 102.367118353593483, 13.578178879204795 ], [ 102.359890504499461, 13.570832490873432 ], [ 102.355471736037629, 13.56317265649936 ], [ 102.339895633567181, 13.559731863287913 ], [ 102.334322644113655, 13.5418314814362 ], [ 102.363349099183253, 13.506682986820778 ], [ 102.359175731865648, 13.483313505317563 ], [ 102.355404270700134, 13.447397763029619 ], [ 102.360503885758604, 13.443042261639517 ], [ 102.35806273226153, 13.435989743604294 ], [ 102.36249692639413, 13.425436062780456 ], [ 102.360646891155767, 13.40160182680099 ], [ 102.356065937339508, 13.394022411294243 ], [ 102.356734274448485, 13.381370179947575 ], [ 102.345328203313485, 13.348293814541416 ], [ 102.352051856173418, 13.340877048160404 ], [ 102.351518618163723, 13.331546264578682 ], [ 102.359660496958526, 13.314584439510728 ], [ 102.353353241377732, 13.298666910614399 ], [ 102.347963619824171, 13.297812554914229 ], [ 102.332707617518452, 13.316946474702357 ], [ 102.322334350548573, 13.295895150521968 ], [ 102.311255278099438, 13.287037884076893 ], [ 102.296655321507785, 13.290183489431667 ], [ 102.298092643133813, 13.295917492010222 ], [ 102.290875003868578, 13.300238047961637 ], [ 102.284575215448484, 13.303902674483084 ], [ 102.276199321951864, 13.289435851545944 ], [ 102.244394161817482, 13.285169500039121 ], [ 102.216312239413426, 13.311093910097885 ], [ 102.212736309052389, 13.304251411518079 ], [ 102.18950924434418, 13.292012376635858 ], [ 102.190495218968039, 13.298530421361106 ], [ 102.183743078886437, 13.304763262912976 ], [ 102.182392467580215, 13.314107164541772 ], [ 102.165137821939041, 13.32448889602248 ] ] ] ] } }
]
}
