{
"type": "FeatureCollection",
"name": "adm2_67",
"crs": { "type": "name", "properties": { "name": "urn:ogc:def:crs:OGC:1.3:CRS84" } },
"features": [
{ "type": "Feature", "properties": { "amp_code": "6704", "amp_th": "หล่มเก่า", "amp_en": "Lom Kao", "pro_code": "67", "pro_th": "เพชรบูรณ์", "pro_en": "Phetchabun", "reg_nesdb": "LowwerNorth", "reg_royin": "Central", "perimeter": 158.78257833934001, "area_sqkm": 963.29053967832999, "adm1_code": 67, "adm2_code": 6704 }, "geometry": { "type": "MultiPolygon", "coordinates": [ [ [ [ 101.198283879229479, 16.835112398949164 ], [ 101.194489288064602, 16.822228476498701 ], [ 101.166618324977705, 16.816655331501305 ], [ 101.141265790054021, 16.808826148681401 ], [ 101.130120990988857, 16.807105638643851 ], [ 101.111367404258473, 16.819187438316181 ], [ 101.096778197187675, 16.812445612665471 ], [ 101.080027455544055, 16.819481046882132 ], [ 101.069510777413157, 16.826137440876479 ], [ 101.058028820852371, 16.821991722783697 ], [ 101.060686878484432, 16.88109114475089 ], [ 101.073776756890737, 16.889970059565258 ], [ 101.080340923214379, 16.901096316081695 ], [ 101.092222859117271, 16.900287421261698 ], [ 101.106848969858049, 16.907291601321166 ], [ 101.116033325907992, 16.931832738769668 ], [ 101.118101183067012, 16.977960437282125 ], [ 101.111407185970378, 17.005514975307825 ], [ 101.116210903629892, 17.019489893215251 ], [ 101.125620868097357, 17.026011697458188 ], [ 101.151978087808786, 17.032863568537831 ], [ 101.169410641974167, 17.038744665039477 ], [ 101.172548499970915, 17.052411375954431 ], [ 101.187908463586879, 17.064748406741526 ], [ 101.206234259760109, 17.068185002056811 ], [ 101.221921483474148, 17.059686837167579 ], [ 101.229198872659452, 17.067837971456207 ], [ 101.225998895563222, 17.075096783528711 ], [ 101.223166171572089, 17.085423042688962 ], [ 101.235509469702279, 17.095385899262947 ], [ 101.243342196101224, 17.108841981623254 ], [ 101.250146245075456, 17.111850339635456 ], [ 101.273259390559616, 17.095687363715353 ], [ 101.27889488494985, 17.097722083206683 ], [ 101.305080893049876, 17.115918255055721 ], [ 101.307404232607112, 17.129676692934837 ], [ 101.318626035724719, 17.136515267711321 ], [ 101.352295541753449, 17.167883283591685 ], [ 101.381801424009652, 17.169711902195193 ], [ 101.397596853985434, 17.178028143607609 ], [ 101.451155865662116, 17.142130350731566 ], [ 101.451966894960478, 17.123389217527968 ], [ 101.461491690105063, 17.10604285019739 ], [ 101.459017137123709, 17.098656066821789 ], [ 101.468715045518564, 17.092528083306391 ], [ 101.475100398511628, 17.088878957775076 ], [ 101.489468918137902, 17.059131981820435 ], [ 101.495859744377768, 17.020913089667168 ], [ 101.504299212079601, 17.010236946370096 ], [ 101.488386379427268, 17.005442900823606 ], [ 101.454798759284785, 17.006054079052735 ], [ 101.443377972336705, 17.012892672349526 ], [ 101.426290775346018, 17.011028682530561 ], [ 101.431967148848656, 17.006486296647029 ], [ 101.429724081707036, 16.989742580939815 ], [ 101.434187483328813, 16.987455930998529 ], [ 101.434132645576881, 16.979795659696464 ], [ 101.422464430927789, 16.956335241079703 ], [ 101.426278245580917, 16.944389145077047 ], [ 101.417074597019152, 16.931766438339444 ], [ 101.409063864761094, 16.930336753248262 ], [ 101.402858096198997, 16.936358061147192 ], [ 101.387513589584159, 16.9289682978314 ], [ 101.377714580579621, 16.935882256982968 ], [ 101.361260671232188, 16.931792528190861 ], [ 101.352942534649856, 16.937658501288023 ], [ 101.344616910389831, 16.934585820818338 ], [ 101.333571344432187, 16.93928545151914 ], [ 101.327246858725772, 16.936134960057881 ], [ 101.325513318669621, 16.925516732551596 ], [ 101.315596261016353, 16.921014369481171 ], [ 101.304341184367175, 16.918004666278918 ], [ 101.291378291351435, 16.925404348606087 ], [ 101.283580882995764, 16.919870443601869 ], [ 101.269832375238863, 16.901539439348728 ], [ 101.268334010490733, 16.871807922834947 ], [ 101.261879668279761, 16.865997130911165 ], [ 101.261792306269399, 16.852145887616551 ], [ 101.255384313300013, 16.848584832482953 ], [ 101.251226215120639, 16.846758227166426 ], [ 101.218980841014044, 16.84730367593794 ], [ 101.212174519367736, 16.845519533199329 ], [ 101.198283879229479, 16.835112398949164 ] ] ] ] } },
{ "type": "Feature", "properties": { "amp_code": "6705", "amp_th": "วิเชียรบุรี", "amp_en": "Wichian Buri", "pro_code": "67", "pro_th": "เพชรบูรณ์", "pro_en": "Phetchabun", "reg_nesdb": "LowwerNorth", "reg_royin": "Central", "perimeter": 203.41592072167001, "area_sqkm": 1486.68969799974, "adm1_code": 67, "adm2_code": 6705 }, "geometry": { "type": "MultiPolygon", "coordinates": [ [ [ [ 101.078582337245734, 15.55151935076819 ], [ 101.081844442561049, 15.540721420135037 ], [ 101.088203959068636, 15.53889142950459 ], [ 101.089466984094855, 15.528674832002794 ], [ 101.082135907679813, 15.51718409104541 ], [ 101.090491631726692, 15.518275259439763 ], [ 101.09043539305182, 15.514367871533659 ], [ 101.095873976803546, 15.512903378457063 ], [ 101.090962530656213, 15.50968579999838 ], [ 101.090280857252566, 15.501153549617248 ], [ 101.083567839252424, 15.501884449611902 ], [ 101.087277495069429, 15.497856802060097 ], [ 101.083858656188085, 15.488599224145021 ], [ 101.086201573609713, 15.490345875341658 ], [ 101.089799731727354, 15.486662619062512 ], [ 101.076253902095019, 15.482338944085393 ], [ 101.055972794765495, 15.488354192753119 ], [ 101.041283130352781, 15.484939135334008 ], [ 101.03232963983227, 15.492916738618892 ], [ 101.017233855918093, 15.496638881336926 ], [ 100.989763385222247, 15.493207853660211 ], [ 100.967037206373007, 15.500247117947394 ], [ 100.931205422219819, 15.488030684682494 ], [ 100.926893221245479, 15.483188604338578 ], [ 100.911264689232354, 15.48962148727432 ], [ 100.910568586664596, 15.500891529882498 ], [ 100.889088296379612, 15.514623170242182 ], [ 100.889666622274831, 15.525169584415824 ], [ 100.884176235802613, 15.529720146252579 ], [ 100.854464078782215, 15.526937755056689 ], [ 100.85491438731394, 15.547578410899742 ], [ 100.832775489318465, 15.552731585413493 ], [ 100.832161530253927, 15.563674640875156 ], [ 100.813751540317043, 15.578986419357832 ], [ 100.818490790859911, 15.58608756016468 ], [ 100.808387529757496, 15.594275832675859 ], [ 100.825005543792386, 15.61402969372404 ], [ 100.818350821280816, 15.630974750102016 ], [ 100.826488680600832, 15.646036999986158 ], [ 100.823189861487904, 15.66212171866094 ], [ 100.82695250142703, 15.664328092213498 ], [ 100.826318762014154, 15.675993070279702 ], [ 100.833481974209491, 15.680718117830878 ], [ 100.82678999868601, 15.683943745696773 ], [ 100.818733082117845, 15.712359272497254 ], [ 100.841774676449717, 15.707767548522257 ], [ 100.846537677103825, 15.700774756503996 ], [ 100.859934332868633, 15.698482186403496 ], [ 100.896497235843782, 15.699837428984708 ], [ 100.914587905987588, 15.706656867510315 ], [ 100.95126181881173, 15.731813219700985 ], [ 100.963632342016396, 15.733346772543015 ], [ 100.966638780723798, 15.737469508451024 ], [ 100.989887180262286, 15.738904257996712 ], [ 101.013485111265865, 15.747464817687304 ], [ 101.045005236807725, 15.771130593855514 ], [ 101.055277639174847, 15.76067331902053 ], [ 101.069432683969197, 15.756792873072373 ], [ 101.076032282676849, 15.760722648930942 ], [ 101.088429824098498, 15.780152361661965 ], [ 101.092186252308252, 15.796240023365476 ], [ 101.123668587346657, 15.800991006092495 ], [ 101.140438852734178, 15.805632016707115 ], [ 101.174602163242611, 15.80429878382054 ], [ 101.190106414979567, 15.808164679113503 ], [ 101.198015144168849, 15.833637701759457 ], [ 101.233967675925896, 15.833257853558099 ], [ 101.246649823659993, 15.864313193011428 ], [ 101.259980840183829, 15.866212831686981 ], [ 101.266147851599271, 15.85760396545993 ], [ 101.272001083566806, 15.857120266737958 ], [ 101.27590505961841, 15.860723542771696 ], [ 101.273303712858464, 15.865343770454471 ], [ 101.28657855779025, 15.871873572933827 ], [ 101.302680519256214, 15.86518342070354 ], [ 101.30860403516283, 15.847396193233356 ], [ 101.318044549763727, 15.843683957174184 ], [ 101.326658811984387, 15.851939227025136 ], [ 101.331606743409509, 15.850485726017727 ], [ 101.324474710232636, 15.832867761269657 ], [ 101.331968251756976, 15.830000258626894 ], [ 101.326570693899725, 15.806842577135784 ], [ 101.331294755879497, 15.803450390802356 ], [ 101.317173971849229, 15.78984682022366 ], [ 101.328363727884337, 15.785390817935758 ], [ 101.333657943390591, 15.777697903545203 ], [ 101.331952072966345, 15.773541265771856 ], [ 101.339249273785953, 15.767421325431345 ], [ 101.335441146487483, 15.753906409247282 ], [ 101.340645014076102, 15.756271706083544 ], [ 101.348440286251432, 15.750392386171056 ], [ 101.338790641297791, 15.747128705502814 ], [ 101.337604596984349, 15.721300218712006 ], [ 101.350855000931816, 15.662476475138403 ], [ 101.34639212900619, 15.651700237314694 ], [ 101.33961053065579, 15.637020954287213 ], [ 101.320970499806009, 15.616495340918762 ], [ 101.310969587942395, 15.574205575171346 ], [ 101.272386395367505, 15.564306718372221 ], [ 101.183725828419682, 15.557676454313855 ], [ 101.16220001795773, 15.560128410423554 ], [ 101.154484284738018, 15.567913387712723 ], [ 101.143120414851879, 15.569689067403603 ], [ 101.109149384226583, 15.544413861392981 ], [ 101.108188741633796, 15.552477107872825 ], [ 101.093556042565012, 15.56119479856763 ], [ 101.092626603731404, 15.552238042157928 ], [ 101.09067500320559, 15.557134675278375 ], [ 101.083107668634838, 15.554599572581925 ], [ 101.080401049069792, 15.557549315498953 ], [ 101.082395152648814, 15.553493790399324 ], [ 101.078582337245734, 15.55151935076819 ] ] ] ] } },
{ "type": "Feature", "properties": { "amp_code": "6702", "amp_th": "ชนแดน", "amp_en": "Chon Daen", "pro_code": "67", "pro_th": "เพชรบูรณ์", "pro_en": "Phetchabun", "reg_nesdb": "LowwerNorth", "reg_royin": "Central", "perimeter": 192.46099717604, "area_sqkm": 1113.3133469448001, "adm1_code": 67, "adm2_code": 6702 }, "geometry": { "type": "MultiPolygon", "coordinates": [ [ [ [ 100.902230375816345, 15.987217805763564 ], [ 100.89581427698063, 15.969593956795674 ], [ 100.893388495693969, 15.96492549643083 ], [ 100.887805290233388, 15.966995269670482 ], [ 100.887804327355752, 15.962157479738842 ], [ 100.879767471598072, 15.956154262215534 ], [ 100.897687094995334, 15.915910018432008 ], [ 100.896819963324631, 15.90149234567828 ], [ 100.901868420958948, 15.896993081195642 ], [ 100.891724458404596, 15.900235796871415 ], [ 100.880798552083647, 15.922286132296328 ], [ 100.857244261979133, 15.928917320425844 ], [ 100.841538972630843, 15.909784990400926 ], [ 100.821163390613322, 15.910951821486675 ], [ 100.808518277493278, 15.92494180228797 ], [ 100.798217114525713, 15.926372111531707 ], [ 100.779348913445858, 15.896992943010398 ], [ 100.779348329869038, 15.896992947815999 ], [ 100.763929583937525, 15.911382906559286 ], [ 100.766406661741243, 15.931413134268251 ], [ 100.77286189290578, 15.929200374407783 ], [ 100.780899656877878, 15.935091651805111 ], [ 100.799018022549276, 15.936338551636227 ], [ 100.791103858496001, 15.958302650159538 ], [ 100.778019848680998, 15.966116035903173 ], [ 100.784131348124632, 15.981081110766141 ], [ 100.782070057226207, 15.99403765119192 ], [ 100.769170439085698, 15.998480740867796 ], [ 100.768944025706404, 16.003805258046985 ], [ 100.760286456421696, 16.009519856882569 ], [ 100.744086903212377, 16.012000491473096 ], [ 100.727094293594988, 16.02241395948586 ], [ 100.690148124334513, 16.027018815606233 ], [ 100.668567972310612, 16.030266018772913 ], [ 100.656804141375133, 16.047708602530385 ], [ 100.635327202291307, 16.045653796963144 ], [ 100.642820572130347, 16.051435670664869 ], [ 100.654125879106601, 16.1015851677797 ], [ 100.654633925919839, 16.126002964302181 ], [ 100.644228910634141, 16.139954313873456 ], [ 100.682861181982219, 16.202807819787566 ], [ 100.707194716556884, 16.242139715209294 ], [ 100.719089159046689, 16.251465569420574 ], [ 100.71773727746951, 16.257643003696515 ], [ 100.741127349259912, 16.25666584329597 ], [ 100.754442501257785, 16.263603418584811 ], [ 100.76274037203838, 16.26043721421749 ], [ 100.770791161157973, 16.267703216184529 ], [ 100.780126528560345, 16.267371901067527 ], [ 100.781607961829735, 16.271821213040131 ], [ 100.790981624662152, 16.271313999213071 ], [ 100.805723498627742, 16.279766546575971 ], [ 100.820097829288727, 16.281779332691634 ], [ 100.830666398242286, 16.26936488921335 ], [ 100.838648597833796, 16.267787778829355 ], [ 100.841321170224845, 16.283016605488427 ], [ 100.847198338756527, 16.290324227567197 ], [ 100.842710818826362, 16.30495124016991 ], [ 100.845884600519184, 16.31525642903647 ], [ 100.863726907608154, 16.33000024643604 ], [ 100.884204311939456, 16.330195612746518 ], [ 100.902946916578415, 16.319087124296015 ], [ 100.910690838405017, 16.319899305357399 ], [ 100.921795152222543, 16.303567826531282 ], [ 100.94249340519174, 16.308702869089792 ], [ 100.964094357574538, 16.28227250837276 ], [ 100.961111327810812, 16.273455353561197 ], [ 100.966069717912973, 16.26321594887564 ], [ 100.98124156310368, 16.255569303866693 ], [ 100.982697577173823, 16.226261001870601 ], [ 100.992622449103337, 16.225529880612246 ], [ 100.993295325370539, 16.213106375305721 ], [ 100.981716459787322, 16.185644655249089 ], [ 100.986079120847123, 16.182555543435299 ], [ 100.984527827537548, 16.165907095301812 ], [ 100.982274168847383, 16.152907643436333 ], [ 100.986339829639732, 16.138857666448445 ], [ 100.981507419774914, 16.135986356800927 ], [ 100.979605543156609, 16.133505641779799 ], [ 100.975185503598809, 16.137142857832639 ], [ 100.973068365856989, 16.145894394171368 ], [ 100.95117864032845, 16.133935927230098 ], [ 100.945189350504805, 16.136927309878114 ], [ 100.941306318736835, 16.125657641815707 ], [ 100.924577855536597, 16.13287647838829 ], [ 100.907393787042594, 16.107271270525555 ], [ 100.925117076731397, 16.077991423273811 ], [ 100.933834226931111, 16.074001340591945 ], [ 100.93286784598817, 16.06357123472684 ], [ 100.939295001576681, 16.063707382997414 ], [ 100.945979217718971, 16.07178020430926 ], [ 100.967501554718496, 16.061642840780742 ], [ 100.974599595196139, 16.060710057089185 ], [ 100.981519378557294, 16.066145531438675 ], [ 100.982727767633094, 16.062841931523948 ], [ 100.979706651503122, 16.051160631122894 ], [ 100.988637574769101, 16.04194614770083 ], [ 100.989164882786127, 16.031406683292278 ], [ 100.984146414874516, 16.024145472855921 ], [ 100.986646024052433, 16.005062467380228 ], [ 100.983534962024791, 15.988712667951807 ], [ 100.972848384797231, 15.995660198881957 ], [ 100.960550003950317, 15.987027104319052 ], [ 100.943402025899118, 15.990509175837582 ], [ 100.929324726553276, 15.985441373475659 ], [ 100.942496858405448, 15.980026540288552 ], [ 100.930090002905487, 15.978610007864951 ], [ 100.902230375816345, 15.987217805763564 ] ] ] ] } },
{ "type": "Feature", "properties": { "amp_code": "6703", "amp_th": "หล่มสัก", "amp_en": "Lom Sak", "pro_code": "67", "pro_th": "เพชรบูรณ์", "pro_en": "Phetchabun", "reg_nesdb": "LowwerNorth", "reg_royin": "Central", "perimeter": 198.77281640844001, "area_sqkm": 1413.3154817427601, "adm1_code": 67, "adm2_code": 6703 }, "geometry": { "type": "MultiPolygon", "coordinates": [ [ [ [ 101.438880609415051, 16.608926333449791 ], [ 101.427592261542017, 16.609853439181482 ], [ 101.402447478793974, 16.593722165105316 ], [ 101.370173856563198, 16.593430819430345 ], [ 101.353933766036974, 16.5693128657079 ], [ 101.356947486252722, 16.561367677991285 ], [ 101.343417655765649, 16.561280929670691 ], [ 101.323484796182512, 16.548768948480639 ], [ 101.307889482514014, 16.552445041595167 ], [ 101.293733611511598, 16.549099562677338 ], [ 101.267686584219604, 16.556318133374283 ], [ 101.246617657353596, 16.547925551595199 ], [ 101.234374158707112, 16.546473893069766 ], [ 101.213595536492932, 16.550661587823392 ], [ 101.216442846692757, 16.561244332051196 ], [ 101.206367656254187, 16.576963687934569 ], [ 101.19365834116104, 16.585821817442024 ], [ 101.190444073382352, 16.580677855259264 ], [ 101.183983090254515, 16.584228522367891 ], [ 101.175538454406038, 16.601350300918519 ], [ 101.169808054096308, 16.60157506907218 ], [ 101.15311254160207, 16.615059929790821 ], [ 101.156672838136075, 16.627031001847541 ], [ 101.150077261779686, 16.639247484253261 ], [ 101.14097733103803, 16.632257345835868 ], [ 101.09830205775792, 16.629623601425251 ], [ 101.079849125172856, 16.635618740196868 ], [ 101.062303695111311, 16.635399696895924 ], [ 101.053283805351811, 16.644728562724506 ], [ 101.061122605387084, 16.652139672765585 ], [ 101.048825018267479, 16.659714316171097 ], [ 101.050437519014224, 16.673442865063436 ], [ 101.054840096020101, 16.678537872243652 ], [ 101.063829494018592, 16.679133987362626 ], [ 101.093231684134167, 16.678739430451181 ], [ 101.105027842381389, 16.682922623597559 ], [ 101.102818364321919, 16.690028312575578 ], [ 101.091077549670317, 16.695117557915328 ], [ 101.092430712794751, 16.705903817461124 ], [ 101.100704979250722, 16.742312256819837 ], [ 101.098293906392968, 16.752627322704502 ], [ 101.104491304741103, 16.759313076678222 ], [ 101.101981861699187, 16.768080859486005 ], [ 101.108447576415429, 16.782396821859898 ], [ 101.090769274774814, 16.787849967177547 ], [ 101.080897342075772, 16.808129120612335 ], [ 101.080027455544055, 16.819481046882132 ], [ 101.096778197187675, 16.812445612665471 ], [ 101.111367404258473, 16.819187438316181 ], [ 101.130120990988857, 16.807105638643851 ], [ 101.141265790054021, 16.808826148681401 ], [ 101.166618324977705, 16.816655331501305 ], [ 101.194489288064602, 16.822228476498701 ], [ 101.198283879229479, 16.835112398949164 ], [ 101.212174519367736, 16.845519533199329 ], [ 101.218980841014044, 16.84730367593794 ], [ 101.251226215120639, 16.846758227166426 ], [ 101.255384313300013, 16.848584832482953 ], [ 101.261792306269399, 16.852145887616551 ], [ 101.261879668279761, 16.865997130911165 ], [ 101.268334010490733, 16.871807922834947 ], [ 101.269832375238863, 16.901539439348728 ], [ 101.283580882995764, 16.919870443601869 ], [ 101.291378291351435, 16.925404348606087 ], [ 101.304341184367175, 16.918004666278918 ], [ 101.315596261016353, 16.921014369481171 ], [ 101.325513318669621, 16.925516732551596 ], [ 101.327246858725772, 16.936134960057881 ], [ 101.333571344432187, 16.93928545151914 ], [ 101.344616910389831, 16.934585820818338 ], [ 101.352942534649856, 16.937658501288023 ], [ 101.361260671232188, 16.931792528190861 ], [ 101.377714580579621, 16.935882256982968 ], [ 101.387513589584159, 16.9289682978314 ], [ 101.402858096198997, 16.936358061147192 ], [ 101.409063864761094, 16.930336753248262 ], [ 101.417074597019152, 16.931766438339444 ], [ 101.422926398660024, 16.932323771728889 ], [ 101.425098048273171, 16.927544454735148 ], [ 101.420891368790265, 16.910728784994156 ], [ 101.423943730249903, 16.893928703670262 ], [ 101.407133388405114, 16.885753498106961 ], [ 101.408486322935175, 16.868102914877309 ], [ 101.398813359530763, 16.857485072744026 ], [ 101.433195843234614, 16.851531567626346 ], [ 101.437687641694765, 16.837239063521366 ], [ 101.442532494352918, 16.836671121794986 ], [ 101.440659910115826, 16.825401196335577 ], [ 101.456845300072558, 16.830930508196332 ], [ 101.461381340430435, 16.827761024369948 ], [ 101.468989558632586, 16.833065611343301 ], [ 101.468833981885226, 16.836890569228942 ], [ 101.479514292169682, 16.843748585686232 ], [ 101.482064136465823, 16.858827049919029 ], [ 101.490653568278191, 16.860483117425495 ], [ 101.505403798217714, 16.855030707453952 ], [ 101.516517594674895, 16.827784982622404 ], [ 101.519095373437523, 16.808124815401328 ], [ 101.525321485351924, 16.784645502692726 ], [ 101.516337289492171, 16.761244025084434 ], [ 101.510496245841978, 16.757298049484071 ], [ 101.513395807700689, 16.680958266663158 ], [ 101.510600350999141, 16.676932056848397 ], [ 101.51363863643283, 16.672828284306672 ], [ 101.509007250561652, 16.655413182890516 ], [ 101.52614276089659, 16.619515367892848 ], [ 101.50636866435606, 16.616690663128999 ], [ 101.500079570688953, 16.610583603674481 ], [ 101.49848809449081, 16.579635293835366 ], [ 101.466803164355795, 16.598554414902331 ], [ 101.453433536227507, 16.596373094010719 ], [ 101.449834668733274, 16.598503274772686 ], [ 101.450680259894796, 16.605487078298928 ], [ 101.438880609415051, 16.608926333449791 ] ] ] ] } },
{ "type": "Feature", "properties": { "amp_code": "6701", "amp_th": "เมืองเพชรบูรณ์", "amp_en": "Mueang Phetchabun", "pro_code": "67", "pro_th": "เพชรบูรณ์", "pro_en": "Phetchabun", "reg_nesdb": "LowwerNorth", "reg_royin": "Central", "perimeter": 319.85540133764999, "area_sqkm": 2251.5307910660099, "adm1_code": 67, "adm2_code": 6701 }, "geometry": { "type": "MultiPolygon", "coordinates": [ [ [ [ 101.176077369331495, 16.145498087553435 ], [ 101.165208033207094, 16.141221268843829 ], [ 101.171133742227127, 16.117253758996256 ], [ 101.16896526356031, 16.105528267200214 ], [ 101.153301825857739, 16.10083163333503 ], [ 101.142339879378369, 16.090806862241077 ], [ 101.13198439707314, 16.103357287772869 ], [ 101.108556940992287, 16.100026611035155 ], [ 101.095242936530028, 16.117918553577731 ], [ 101.093743409879082, 16.125154653671345 ], [ 101.093113567946219, 16.139328021012368 ], [ 101.085624160859894, 16.141328188440699 ], [ 101.084203160795326, 16.151193876222816 ], [ 101.040781416330461, 16.168747698004147 ], [ 101.021240009943213, 16.169908885065546 ], [ 101.016552817033116, 16.16061963645496 ], [ 101.007227291948425, 16.15583982683027 ], [ 100.997946140027722, 16.160499122412915 ], [ 100.997037553498359, 16.170684025445087 ], [ 100.984527827537548, 16.165907095301812 ], [ 100.986079120847123, 16.182555543435299 ], [ 100.981716459787322, 16.185644655249089 ], [ 100.993295325370539, 16.213106375305721 ], [ 100.992622449103337, 16.225529880612246 ], [ 100.982697577173823, 16.226261001870601 ], [ 100.98124156310368, 16.255569303866693 ], [ 100.966069717912973, 16.26321594887564 ], [ 100.961111327810812, 16.273455353561197 ], [ 100.964094357574538, 16.28227250837276 ], [ 100.94249340519174, 16.308702869089792 ], [ 100.964095291998603, 16.316693934827867 ], [ 100.972223653027797, 16.321388971559298 ], [ 100.973419050581384, 16.328449300964252 ], [ 100.993463482741092, 16.353942061054202 ], [ 100.994242313770073, 16.365375890320291 ], [ 100.985663214369922, 16.377124096344911 ], [ 100.981921371012703, 16.38316574786483 ], [ 100.974714550620448, 16.38168505354006 ], [ 100.960828895692032, 16.39194726694225 ], [ 100.954125134948541, 16.390954764196835 ], [ 100.931381563341262, 16.400856878356201 ], [ 100.923443259482937, 16.41232832534504 ], [ 100.908626978165429, 16.413485669239748 ], [ 100.884016559489623, 16.442727948051346 ], [ 100.872237186179873, 16.433521867255731 ], [ 100.854678267708934, 16.436347987703648 ], [ 100.842507672209905, 16.435622791352746 ], [ 100.83652976659846, 16.430247876743017 ], [ 100.805222284348176, 16.449897841360361 ], [ 100.793517126596669, 16.472401581830738 ], [ 100.803847866451335, 16.480177754062385 ], [ 100.816788033570077, 16.482964174524518 ], [ 100.814817548174929, 16.496064554450573 ], [ 100.832592243790629, 16.505111673505731 ], [ 100.844640953447254, 16.50344695491836 ], [ 100.851573091735773, 16.509465773614338 ], [ 100.872044534640665, 16.50962672429548 ], [ 100.880678719311206, 16.503521112088791 ], [ 100.880958618601198, 16.490993700847429 ], [ 100.890511793874794, 16.494406704859575 ], [ 100.902862100358661, 16.484463716600402 ], [ 100.928123070913827, 16.509387816741587 ], [ 100.94053679585663, 16.500474441771889 ], [ 100.943302391200547, 16.512931458607074 ], [ 100.962437683518488, 16.512588801675928 ], [ 100.960266281653972, 16.50577493152052 ], [ 100.967465955890745, 16.49300785385137 ], [ 100.982098252792937, 16.491779772508647 ], [ 100.987703115457492, 16.483051431432237 ], [ 100.99958223606474, 16.480952714944767 ], [ 101.003755781743749, 16.471212196316284 ], [ 101.008287111897971, 16.477605332318799 ], [ 101.018875522272609, 16.481424776805213 ], [ 101.031794358003879, 16.473239172232272 ], [ 101.046902711704504, 16.478612469217893 ], [ 101.065422609101631, 16.466469193126279 ], [ 101.071158828717685, 16.467454956219857 ], [ 101.084194379000024, 16.481725120104567 ], [ 101.117504199115558, 16.475879426168532 ], [ 101.102623269617425, 16.488594723398773 ], [ 101.098721115369571, 16.500304746269087 ], [ 101.093525888428871, 16.501444423649829 ], [ 101.092791280157456, 16.513786702213078 ], [ 101.108017142328919, 16.515980390831441 ], [ 101.104685110059648, 16.519204428971818 ], [ 101.109917102476786, 16.522764428017219 ], [ 101.109027324015187, 16.532573943556891 ], [ 101.11309339513771, 16.529388695440801 ], [ 101.110717786639597, 16.542462388242459 ], [ 101.103422869925552, 16.547174352002045 ], [ 101.092017894601796, 16.545398547760787 ], [ 101.092379111303089, 16.548329003719083 ], [ 101.078634577933641, 16.550427077160816 ], [ 101.07483731091385, 16.557600273361658 ], [ 101.052511285503016, 16.557484817358475 ], [ 101.051120058795107, 16.56483386876425 ], [ 101.057796489810414, 16.580958808346239 ], [ 101.057217737574135, 16.586777443048405 ], [ 101.074946720556341, 16.589123270231759 ], [ 101.067377313397628, 16.595465516761809 ], [ 101.071653111943164, 16.599045982614324 ], [ 101.06636914581658, 16.600529476655641 ], [ 101.071173919759573, 16.607665581510634 ], [ 101.051685647891958, 16.62863155194264 ], [ 101.053283805351811, 16.644728562724506 ], [ 101.062303695111311, 16.635399696895924 ], [ 101.079849125172856, 16.635618740196868 ], [ 101.09830205775792, 16.629623601425251 ], [ 101.14097733103803, 16.632257345835868 ], [ 101.150077261779686, 16.639247484253261 ], [ 101.156672838136075, 16.627031001847541 ], [ 101.15311254160207, 16.615059929790821 ], [ 101.169808054096308, 16.60157506907218 ], [ 101.175538454406038, 16.601350300918519 ], [ 101.183983090254515, 16.584228522367891 ], [ 101.190444073382352, 16.580677855259264 ], [ 101.19365834116104, 16.585821817442024 ], [ 101.206367656254187, 16.576963687934569 ], [ 101.216442846692757, 16.561244332051196 ], [ 101.213595536492932, 16.550661587823392 ], [ 101.234374158707112, 16.546473893069766 ], [ 101.246617657353596, 16.547925551595199 ], [ 101.267686584219604, 16.556318133374283 ], [ 101.293733611511598, 16.549099562677338 ], [ 101.307889482514014, 16.552445041595167 ], [ 101.323484796182512, 16.548768948480639 ], [ 101.343417655765649, 16.561280929670691 ], [ 101.356947486252722, 16.561367677991285 ], [ 101.353933766036974, 16.5693128657079 ], [ 101.370173856563198, 16.593430819430345 ], [ 101.402447478793974, 16.593722165105316 ], [ 101.427592261542017, 16.609853439181482 ], [ 101.438880609415051, 16.608926333449791 ], [ 101.450680259894796, 16.605487078298928 ], [ 101.449834668733274, 16.598503274772686 ], [ 101.453433536227507, 16.596373094010719 ], [ 101.466803164355795, 16.598554414902331 ], [ 101.49848809449081, 16.579635293835366 ], [ 101.497162238018589, 16.561213174920759 ], [ 101.508115026602923, 16.555671018942967 ], [ 101.510161543938963, 16.559120557596877 ], [ 101.519526622408634, 16.549544728603937 ], [ 101.515542811976331, 16.542671596877344 ], [ 101.502973454940971, 16.545696390253422 ], [ 101.505052017817277, 16.538682380162957 ], [ 101.496722467549461, 16.538926788845156 ], [ 101.483638249447864, 16.524327904285325 ], [ 101.472314893247258, 16.529066857170761 ], [ 101.465044206127644, 16.512562758883227 ], [ 101.465368134722382, 16.497908625641035 ], [ 101.472153934454866, 16.48990435005047 ], [ 101.473138130516901, 16.479491308754941 ], [ 101.449112664281685, 16.450815045304072 ], [ 101.443140748444861, 16.438487936523362 ], [ 101.428199384026811, 16.43314671988248 ], [ 101.417833337061595, 16.423364876104785 ], [ 101.417330179635073, 16.411243492123109 ], [ 101.41035145193905, 16.411631972881683 ], [ 101.398436726421508, 16.400834599494807 ], [ 101.407750352271066, 16.3920007353777 ], [ 101.408482735369688, 16.383731345372425 ], [ 101.40603055714341, 16.378642008758348 ], [ 101.392100516061021, 16.373151573112839 ], [ 101.391919422144142, 16.366117697265793 ], [ 101.381409116078714, 16.359792569416857 ], [ 101.377025605239055, 16.347239160589588 ], [ 101.378552228322548, 16.317254233809798 ], [ 101.36684120595082, 16.293205075500349 ], [ 101.369559234176364, 16.275560147238057 ], [ 101.357622951790262, 16.269160997984031 ], [ 101.353372072015389, 16.260070677425425 ], [ 101.364304372037168, 16.245979409059242 ], [ 101.371986618173835, 16.243798874726799 ], [ 101.367617565088239, 16.224918765197422 ], [ 101.374318726747518, 16.214966691691298 ], [ 101.372362877159631, 16.204910362210207 ], [ 101.377507074297753, 16.187140085859721 ], [ 101.359834849410163, 16.191905822190613 ], [ 101.35820927510963, 16.183884936157931 ], [ 101.339794964275242, 16.181195273113129 ], [ 101.335592832224762, 16.173094012811458 ], [ 101.324045691690856, 16.187330390490832 ], [ 101.316413725612136, 16.184189677662488 ], [ 101.312098467648013, 16.190890205740661 ], [ 101.298109057877426, 16.187432801427416 ], [ 101.296315950826568, 16.190273078237247 ], [ 101.271506009917587, 16.176820030405239 ], [ 101.268606668687255, 16.181056421981094 ], [ 101.252009123301235, 16.181739881868008 ], [ 101.242078089852583, 16.166196091703256 ], [ 101.226489867188391, 16.171780423922915 ], [ 101.220728661811137, 16.166696599036193 ], [ 101.219011066797307, 16.170270731335574 ], [ 101.207048930885705, 16.17095189144052 ], [ 101.204709672884547, 16.179398649409396 ], [ 101.195921521381536, 16.179080746549804 ], [ 101.192294572798033, 16.148126967629771 ], [ 101.176077369331495, 16.145498087553435 ] ] ] ] } },
{ "type": "Feature", "properties": { "amp_code": "6711", "amp_th": "เขาค้อ", "amp_en": "Khao Kho", "pro_code": "67", "pro_th": "เพชรบูรณ์", "pro_en": "Phetchabun", "reg_nesdb": "LowwerNorth", "reg_royin": "Central", "perimeter": 197.10501117748001, "area_sqkm": 820.15371334516999, "adm1_code": 67, "adm2_code": 6711 }, "geometry": { "type": "MultiPolygon", "coordinates": [ [ [ [ 101.057796489810414, 16.580958808346239 ], [ 101.051120058795107, 16.56483386876425 ], [ 101.052511285503016, 16.557484817358475 ], [ 101.07483731091385, 16.557600273361658 ], [ 101.078634577933641, 16.550427077160816 ], [ 101.092379111303089, 16.548329003719083 ], [ 101.092017894601796, 16.545398547760787 ], [ 101.103422869925552, 16.547174352002045 ], [ 101.110717786639597, 16.542462388242459 ], [ 101.11309339513771, 16.529388695440801 ], [ 101.109027324015187, 16.532573943556891 ], [ 101.109917102476786, 16.522764428017219 ], [ 101.104685110059648, 16.519204428971818 ], [ 101.108017142328919, 16.515980390831441 ], [ 101.092791280157456, 16.513786702213078 ], [ 101.093525888428871, 16.501444423649829 ], [ 101.098721115369571, 16.500304746269087 ], [ 101.102623269617425, 16.488594723398773 ], [ 101.117504199115558, 16.475879426168532 ], [ 101.084194379000024, 16.481725120104567 ], [ 101.071158828717685, 16.467454956219857 ], [ 101.065422609101631, 16.466469193126279 ], [ 101.046902711704504, 16.478612469217893 ], [ 101.031794358003879, 16.473239172232272 ], [ 101.018875522272609, 16.481424776805213 ], [ 101.008287111897971, 16.477605332318799 ], [ 101.003755781743749, 16.471212196316284 ], [ 100.99958223606474, 16.480952714944767 ], [ 100.987703115457492, 16.483051431432237 ], [ 100.982098252792937, 16.491779772508647 ], [ 100.967465955890745, 16.49300785385137 ], [ 100.960266281653972, 16.50577493152052 ], [ 100.962437683518488, 16.512588801675928 ], [ 100.943302391200547, 16.512931458607074 ], [ 100.94053679585663, 16.500474441771889 ], [ 100.928123070913827, 16.509387816741587 ], [ 100.902862100358661, 16.484463716600402 ], [ 100.890511793874794, 16.494406704859575 ], [ 100.880958618601198, 16.490993700847429 ], [ 100.880678719311206, 16.503521112088791 ], [ 100.872044534640665, 16.50962672429548 ], [ 100.851573091735773, 16.509465773614338 ], [ 100.844640953447254, 16.50344695491836 ], [ 100.832592243790629, 16.505111673505731 ], [ 100.833661293117316, 16.519337537273177 ], [ 100.840628514076101, 16.524082299725706 ], [ 100.848461539094103, 16.522567330952036 ], [ 100.845982169225337, 16.539689951636984 ], [ 100.85817101621052, 16.547567269811999 ], [ 100.851558355631866, 16.575296528130334 ], [ 100.845860776836318, 16.578900523355518 ], [ 100.850426729753977, 16.583726985479487 ], [ 100.84716144490838, 16.591846583716997 ], [ 100.855083605907012, 16.609177042115103 ], [ 100.853775003593881, 16.615267641611016 ], [ 100.864631103879262, 16.618992671936546 ], [ 100.861447741532857, 16.638316230017882 ], [ 100.868978572147256, 16.649298244021733 ], [ 100.882292290852519, 16.656698988062171 ], [ 100.887735873467179, 16.667685524339998 ], [ 100.903309473512877, 16.667076573557502 ], [ 100.905481589368463, 16.671189294807171 ], [ 100.924754119353977, 16.665854056241066 ], [ 100.931577642413359, 16.68015368410796 ], [ 100.942228229003604, 16.681435347344735 ], [ 100.937968142276731, 16.687658944218075 ], [ 100.9291274126399, 16.685996551072602 ], [ 100.933613516906334, 16.696334243897287 ], [ 100.924339324743329, 16.701744925676298 ], [ 100.922961903226962, 16.711302674114219 ], [ 100.930913391627911, 16.710317090301345 ], [ 100.931427006348116, 16.717740613554952 ], [ 100.913834696552854, 16.730960721984427 ], [ 100.922561268073622, 16.745924947337091 ], [ 100.919660491728408, 16.756026580749158 ], [ 100.919195541605404, 16.759052164338939 ], [ 100.898897463101861, 16.762514388134957 ], [ 100.895296407438906, 16.773730250364345 ], [ 100.902884238754638, 16.775503567854951 ], [ 100.90642720107769, 16.782492580253411 ], [ 100.903202620044851, 16.802107020663083 ], [ 100.917159013771339, 16.791763912719773 ], [ 100.936888065486954, 16.795586415183699 ], [ 100.949087444391722, 16.791279947110418 ], [ 100.955124179502377, 16.795197116469531 ], [ 100.957119929439145, 16.800588051295652 ], [ 100.953397231634966, 16.803575731555643 ], [ 100.95739190355836, 16.80584176552534 ], [ 100.955354189440172, 16.812554069786657 ], [ 100.959197005227651, 16.820732841454433 ], [ 100.958241805709093, 16.823750702917536 ], [ 100.953562597629499, 16.820580924254166 ], [ 100.954934585884772, 16.825495517427164 ], [ 100.959245584458202, 16.825230829947778 ], [ 100.961679677663525, 16.83066040102408 ], [ 100.964925171828838, 16.827420728526604 ], [ 100.972204152674919, 16.829186262660897 ], [ 100.97192447842356, 16.824257964355379 ], [ 100.974731484584211, 16.82925911173956 ], [ 100.978513954904173, 16.82614735492816 ], [ 100.977188896671095, 16.83090021146624 ], [ 100.980199082029969, 16.829757624773269 ], [ 100.981463316684227, 16.834668485986974 ], [ 100.973439839582028, 16.842112843265266 ], [ 100.979362795578623, 16.84113987506084 ], [ 100.980967535906331, 16.848446286731686 ], [ 100.993386340031762, 16.854932963831953 ], [ 101.012630122850751, 16.857855377059984 ], [ 101.014040117867836, 16.863911942277465 ], [ 101.025811567522581, 16.87170608964718 ], [ 101.031063681983255, 16.893122225625351 ], [ 101.043671872365493, 16.903648848671519 ], [ 101.050549270555535, 16.906471184940173 ], [ 101.066829466587166, 16.902127665100625 ], [ 101.080340923214379, 16.901096316081695 ], [ 101.073776756890737, 16.889970059565258 ], [ 101.060686878484432, 16.88109114475089 ], [ 101.058028820852371, 16.821991722783697 ], [ 101.069510777413157, 16.826137440876479 ], [ 101.080027455544055, 16.819481046882132 ], [ 101.080897342075772, 16.808129120612335 ], [ 101.090769274774814, 16.787849967177547 ], [ 101.108447576415429, 16.782396821859898 ], [ 101.101981861699187, 16.768080859486005 ], [ 101.104491304741103, 16.759313076678222 ], [ 101.098293906392968, 16.752627322704502 ], [ 101.100704979250722, 16.742312256819837 ], [ 101.092430712794751, 16.705903817461124 ], [ 101.091077549670317, 16.695117557915328 ], [ 101.102818364321919, 16.690028312575578 ], [ 101.105027842381389, 16.682922623597559 ], [ 101.093231684134167, 16.678739430451181 ], [ 101.063829494018592, 16.679133987362626 ], [ 101.054840096020101, 16.678537872243652 ], [ 101.050437519014224, 16.673442865063436 ], [ 101.048825018267479, 16.659714316171097 ], [ 101.061122605387084, 16.652139672765585 ], [ 101.053283805351811, 16.644728562724506 ], [ 101.051685647891958, 16.62863155194264 ], [ 101.071173919759573, 16.607665581510634 ], [ 101.06636914581658, 16.600529476655641 ], [ 101.071653111943164, 16.599045982614324 ], [ 101.067377313397628, 16.595465516761809 ], [ 101.074946720556341, 16.589123270231759 ], [ 101.057217737574135, 16.586777443048405 ], [ 101.057796489810414, 16.580958808346239 ] ] ] ] } },
{ "type": "Feature", "properties": { "amp_code": "6710", "amp_th": "วังโป่ง", "amp_en": "Wang Pong", "pro_code": "67", "pro_th": "เพชรบูรณ์", "pro_en": "Phetchabun", "reg_nesdb": "LowwerNorth", "reg_royin": "Central", "perimeter": 108.8992853022, "area_sqkm": 494.21766047704, "adm1_code": 67, "adm2_code": 6710 }, "geometry": { "type": "MultiPolygon", "coordinates": [ [ [ [ 100.842710818826362, 16.30495124016991 ], [ 100.847198338756527, 16.290324227567197 ], [ 100.841321170224845, 16.283016605488427 ], [ 100.838648597833796, 16.267787778829355 ], [ 100.830666398242286, 16.26936488921335 ], [ 100.820097829288727, 16.281779332691634 ], [ 100.805723498627742, 16.279766546575971 ], [ 100.790981624662152, 16.271313999213071 ], [ 100.781607961829735, 16.271821213040131 ], [ 100.780126528560345, 16.267371901067527 ], [ 100.770791161157973, 16.267703216184529 ], [ 100.76274037203838, 16.26043721421749 ], [ 100.754442501257785, 16.263603418584811 ], [ 100.741127349259912, 16.25666584329597 ], [ 100.71773727746951, 16.257643003696515 ], [ 100.714440748199067, 16.253864093003358 ], [ 100.707747330215568, 16.255830567848385 ], [ 100.694124734347483, 16.249294455667595 ], [ 100.677488574774245, 16.248009124568249 ], [ 100.669168451976333, 16.250479780738186 ], [ 100.668575011517447, 16.25477701669282 ], [ 100.67325004986759, 16.256205261175328 ], [ 100.676320833127974, 16.262609635281752 ], [ 100.671608303112009, 16.257252953592626 ], [ 100.662833494145133, 16.267795885420806 ], [ 100.650057233981755, 16.297480799298388 ], [ 100.648978833197503, 16.308177738312089 ], [ 100.653772677973635, 16.319570916024521 ], [ 100.65260201842419, 16.321974883785234 ], [ 100.666987270798685, 16.350918836415843 ], [ 100.706886542674539, 16.385659727983356 ], [ 100.703753367530723, 16.411209345134388 ], [ 100.709430780296344, 16.418003991564916 ], [ 100.723971526826006, 16.422965955999352 ], [ 100.740914825104525, 16.418820676697486 ], [ 100.762290325884891, 16.431681976565592 ], [ 100.772194637886543, 16.426306605183083 ], [ 100.775126465886785, 16.438104834839883 ], [ 100.786594719810722, 16.449215926403635 ], [ 100.805222284348176, 16.449897841360361 ], [ 100.83652976659846, 16.430247876743017 ], [ 100.842507672209905, 16.435622791352746 ], [ 100.854678267708934, 16.436347987703648 ], [ 100.872237186179873, 16.433521867255731 ], [ 100.884016559489623, 16.442727948051346 ], [ 100.908626978165429, 16.413485669239748 ], [ 100.923443259482937, 16.41232832534504 ], [ 100.931381563341262, 16.400856878356201 ], [ 100.954125134948541, 16.390954764196835 ], [ 100.960828895692032, 16.39194726694225 ], [ 100.974714550620448, 16.38168505354006 ], [ 100.981921371012703, 16.38316574786483 ], [ 100.985663214369922, 16.377124096344911 ], [ 100.994242313770073, 16.365375890320291 ], [ 100.993463482741092, 16.353942061054202 ], [ 100.973419050581384, 16.328449300964252 ], [ 100.972223653027797, 16.321388971559298 ], [ 100.964095291998603, 16.316693934827867 ], [ 100.94249340519174, 16.308702869089792 ], [ 100.921795152222543, 16.303567826531282 ], [ 100.910690838405017, 16.319899305357399 ], [ 100.902946916578415, 16.319087124296015 ], [ 100.884204311939456, 16.330195612746518 ], [ 100.863726907608154, 16.33000024643604 ], [ 100.845884600519184, 16.31525642903647 ], [ 100.842710818826362, 16.30495124016991 ] ] ] ] } },
{ "type": "Feature", "properties": { "amp_code": "6708", "amp_th": "บึงสามพัน", "amp_en": "Bueng Sam Phan", "pro_code": "67", "pro_th": "เพชรบูรณ์", "pro_en": "Phetchabun", "reg_nesdb": "LowwerNorth", "reg_royin": "Central", "perimeter": 187.66475232305999, "area_sqkm": 786.97891451828002, "adm1_code": 67, "adm2_code": 6708 }, "geometry": { "type": "MultiPolygon", "coordinates": [ [ [ [ 100.914587905987588, 15.706656867510315 ], [ 100.896497235843782, 15.699837428984708 ], [ 100.859934332868633, 15.698482186403496 ], [ 100.846537677103825, 15.700774756503996 ], [ 100.841774676449717, 15.707767548522257 ], [ 100.818733082117845, 15.712359272497254 ], [ 100.819685801069582, 15.747375533923606 ], [ 100.812013745728535, 15.75977013023943 ], [ 100.808171116756242, 15.779214187389718 ], [ 100.806666337898079, 15.784489479204451 ], [ 100.797586993567123, 15.828711697812325 ], [ 100.789864182820509, 15.844401312382432 ], [ 100.799746986278251, 15.865135616470965 ], [ 100.797758539487276, 15.891600404387701 ], [ 100.779348913445858, 15.896992943010398 ], [ 100.798217114525713, 15.926372111531707 ], [ 100.808518277493278, 15.92494180228797 ], [ 100.821163390613322, 15.910951821486675 ], [ 100.841538972630843, 15.909784990400926 ], [ 100.857244261979133, 15.928917320425844 ], [ 100.880798552083647, 15.922286132296328 ], [ 100.891724458404596, 15.900235796871415 ], [ 100.901868420958948, 15.896993081195642 ], [ 100.907470388859196, 15.897563815478488 ], [ 100.91601680959252, 15.900687018218246 ], [ 100.925427649839364, 15.892266361937468 ], [ 100.924850016941605, 15.907367544999667 ], [ 100.940167394982709, 15.90152757605717 ], [ 100.939546820982642, 15.907164893207932 ], [ 100.949559716329929, 15.911100292047326 ], [ 100.981281577577917, 15.901131826433977 ], [ 101.004141362777062, 15.908622845960714 ], [ 101.022123737156107, 15.900247390899597 ], [ 101.039262133669624, 15.881931446637314 ], [ 101.052422136713105, 15.88156073198062 ], [ 101.060517218237806, 15.886460076193192 ], [ 101.058321588958776, 15.875962482078345 ], [ 101.063353939098477, 15.872509276644916 ], [ 101.073602801294683, 15.872936485767969 ], [ 101.132257479664688, 15.866653901963524 ], [ 101.17662185070597, 15.868379557457487 ], [ 101.20090872780321, 15.866865655242774 ], [ 101.212316409897142, 15.886510664674342 ], [ 101.223115595727165, 15.893574573601303 ], [ 101.232001437296702, 15.892790697584241 ], [ 101.238072103333408, 15.899354813764885 ], [ 101.237492901220733, 15.909446844138593 ], [ 101.242341846825255, 15.912543966116774 ], [ 101.248096385979835, 15.912686262242204 ], [ 101.262024541014469, 15.919681393275164 ], [ 101.26546649439689, 15.927299733245247 ], [ 101.278192384694449, 15.929495435116275 ], [ 101.283378050550795, 15.925276878773854 ], [ 101.277662047547281, 15.915222167901678 ], [ 101.289229700010992, 15.907028726334939 ], [ 101.299347036800938, 15.921099415236657 ], [ 101.301251784018305, 15.938362790279374 ], [ 101.309125188558795, 15.943238373334472 ], [ 101.343365316576381, 15.932340711007422 ], [ 101.352180129228742, 15.934275118192312 ], [ 101.360245854888035, 15.928978899796768 ], [ 101.363685622504306, 15.931658178693962 ], [ 101.360799745864995, 15.922949455194891 ], [ 101.374334656138288, 15.919457252376471 ], [ 101.368997719107753, 15.910177114140524 ], [ 101.362560514953614, 15.907703472661675 ], [ 101.352539836825812, 15.888622395185388 ], [ 101.34052473991693, 15.888355334546779 ], [ 101.332434011347672, 15.88112627524573 ], [ 101.328620285722337, 15.858374191943751 ], [ 101.326658811984387, 15.851939227025136 ], [ 101.318044549763727, 15.843683957174184 ], [ 101.30860403516283, 15.847396193233356 ], [ 101.302680519256214, 15.86518342070354 ], [ 101.28657855779025, 15.871873572933827 ], [ 101.273303712858464, 15.865343770454471 ], [ 101.27590505961841, 15.860723542771696 ], [ 101.272001083566806, 15.857120266737958 ], [ 101.266147851599271, 15.85760396545993 ], [ 101.259980840183829, 15.866212831686981 ], [ 101.246649823659993, 15.864313193011428 ], [ 101.233967675925896, 15.833257853558099 ], [ 101.198015144168849, 15.833637701759457 ], [ 101.190106414979567, 15.808164679113503 ], [ 101.174602163242611, 15.80429878382054 ], [ 101.140438852734178, 15.805632016707115 ], [ 101.123668587346657, 15.800991006092495 ], [ 101.092186252308252, 15.796240023365476 ], [ 101.088429824098498, 15.780152361661965 ], [ 101.076032282676849, 15.760722648930942 ], [ 101.069432683969197, 15.756792873072373 ], [ 101.055277639174847, 15.76067331902053 ], [ 101.045005236807725, 15.771130593855514 ], [ 101.013485111265865, 15.747464817687304 ], [ 100.989887180262286, 15.738904257996712 ], [ 100.966638780723798, 15.737469508451024 ], [ 100.963632342016396, 15.733346772543015 ], [ 100.95126181881173, 15.731813219700985 ], [ 100.914587905987588, 15.706656867510315 ] ] ] ] } },
{ "type": "Feature", "properties": { "amp_code": "6709", "amp_th": "น้ำหนาว", "amp_en": "Nam Nao", "pro_code": "67", "pro_th": "เพชรบูรณ์", "pro_en": "Phetchabun", "reg_nesdb": "LowwerNorth", "reg_royin": "Central", "perimeter": 200.02978160591999, "area_sqkm": 931.47541906242998, "adm1_code": 67, "adm2_code": 6709 }, "geometry": { "type": "MultiPolygon", "coordinates": [ [ [ [ 101.782920539482291, 16.754072495785749 ], [ 101.789729066254779, 16.746920641693553 ], [ 101.785865438425049, 16.742797240725775 ], [ 101.791621300218466, 16.726747323601661 ], [ 101.776435402815537, 16.712635865926316 ], [ 101.772252108279787, 16.687431349261114 ], [ 101.76592569671439, 16.679913056214197 ], [ 101.751648352841229, 16.677490000663777 ], [ 101.750751528466438, 16.668012488660782 ], [ 101.744158111915212, 16.669464793938381 ], [ 101.741286773793661, 16.660323769467336 ], [ 101.736912832349859, 16.661202308038021 ], [ 101.731389640058097, 16.652399751652627 ], [ 101.724617851618063, 16.651446896814758 ], [ 101.706533455797995, 16.670570720097306 ], [ 101.702614927447428, 16.668510808229001 ], [ 101.701318888381707, 16.679261555721428 ], [ 101.698347090289175, 16.677070685969269 ], [ 101.688698121291793, 16.686190473950465 ], [ 101.656519022741108, 16.688502797418213 ], [ 101.634393403414208, 16.680238237382024 ], [ 101.617888956138174, 16.685673749134093 ], [ 101.601680950926465, 16.707711936450707 ], [ 101.591783645135962, 16.709210291628448 ], [ 101.592508493179935, 16.718376637744171 ], [ 101.587477354925412, 16.723868002047642 ], [ 101.567819979974459, 16.725776428578595 ], [ 101.559838893688521, 16.730666001367332 ], [ 101.553952690360219, 16.728101486295234 ], [ 101.554017200450048, 16.711564843063968 ], [ 101.562570307897417, 16.697038980165626 ], [ 101.571171363683376, 16.692227574377995 ], [ 101.577658716105219, 16.67273558200969 ], [ 101.571861466344274, 16.648334884045614 ], [ 101.561255574906696, 16.649463114024165 ], [ 101.547196437736957, 16.668274606756551 ], [ 101.537876196173457, 16.666142210502855 ], [ 101.527004154213216, 16.679395923482502 ], [ 101.513395807700689, 16.680958266663158 ], [ 101.510496245841978, 16.757298049484071 ], [ 101.516337289492171, 16.761244025084434 ], [ 101.525321485351924, 16.784645502692726 ], [ 101.519095373437523, 16.808124815401328 ], [ 101.516517594674895, 16.827784982622404 ], [ 101.505403798217714, 16.855030707453952 ], [ 101.490653568278191, 16.860483117425495 ], [ 101.482064136465823, 16.858827049919029 ], [ 101.479514292169682, 16.843748585686232 ], [ 101.468833981885226, 16.836890569228942 ], [ 101.468989558632586, 16.833065611343301 ], [ 101.461381340430435, 16.827761024369948 ], [ 101.456845300072558, 16.830930508196332 ], [ 101.440659910115826, 16.825401196335577 ], [ 101.442532494352918, 16.836671121794986 ], [ 101.437687641694765, 16.837239063521366 ], [ 101.433195843234614, 16.851531567626346 ], [ 101.398813359530763, 16.857485072744026 ], [ 101.408486322935175, 16.868102914877309 ], [ 101.407133388405114, 16.885753498106961 ], [ 101.423943730249903, 16.893928703670262 ], [ 101.420891368790265, 16.910728784994156 ], [ 101.425098048273171, 16.927544454735148 ], [ 101.422926398660024, 16.932323771728889 ], [ 101.417074597019152, 16.931766438339444 ], [ 101.426278245580917, 16.944389145077047 ], [ 101.422464430927789, 16.956335241079703 ], [ 101.434132645576881, 16.979795659696464 ], [ 101.434187483328813, 16.987455930998529 ], [ 101.429724081707036, 16.989742580939815 ], [ 101.431967148848656, 17.006486296647029 ], [ 101.426290775346018, 17.011028682530561 ], [ 101.443377972336705, 17.012892672349526 ], [ 101.454798759284785, 17.006054079052735 ], [ 101.488386379427268, 17.005442900823606 ], [ 101.504299212079601, 17.010236946370096 ], [ 101.533225937392714, 17.023352587664128 ], [ 101.544423537746553, 17.015311903932236 ], [ 101.551031275662453, 16.994858371110368 ], [ 101.562725394914807, 16.990119852314457 ], [ 101.57523097584253, 16.983593434466243 ], [ 101.582546854307097, 16.986858439156087 ], [ 101.587428922129803, 16.996273188879339 ], [ 101.607558204529496, 16.998987811781419 ], [ 101.628911697412818, 17.045469840587906 ], [ 101.643976974328254, 17.039210708470645 ], [ 101.650080417394477, 17.041532416192332 ], [ 101.645396001751919, 17.028924533382508 ], [ 101.65540385487553, 17.011661340383132 ], [ 101.654253128579541, 17.005066447390906 ], [ 101.675297523619719, 16.975706490915165 ], [ 101.67230711584763, 16.957585850603564 ], [ 101.677995912232319, 16.939847011224341 ], [ 101.691707823095356, 16.936074499658101 ], [ 101.687080851745179, 16.930827275270623 ], [ 101.691890102556826, 16.923286035618872 ], [ 101.684957490261354, 16.922189622081699 ], [ 101.6847083866041, 16.901547216966687 ], [ 101.678166843921218, 16.883778991943679 ], [ 101.68357095556064, 16.868626951961957 ], [ 101.676607285584637, 16.866844002200363 ], [ 101.680875111716873, 16.857586338282651 ], [ 101.688105876356047, 16.858175798356161 ], [ 101.684484621783412, 16.848599159024431 ], [ 101.68716193406344, 16.844969615293611 ], [ 101.690478917561208, 16.848449507988711 ], [ 101.692591194523544, 16.835548727144214 ], [ 101.698563315612503, 16.833990297750816 ], [ 101.699707975247108, 16.828118438295686 ], [ 101.706326558148945, 16.829800323955165 ], [ 101.721472548090318, 16.806750103698587 ], [ 101.719317042520203, 16.799710572441231 ], [ 101.700668784156875, 16.809728196719803 ], [ 101.68696415233866, 16.798608365718017 ], [ 101.704815224392419, 16.783489653411593 ], [ 101.718700834143547, 16.758838834993767 ], [ 101.727740043299775, 16.753321006085642 ], [ 101.738206090512435, 16.755523585070222 ], [ 101.763239835736542, 16.756045219160612 ], [ 101.787928602983712, 16.764270599779909 ], [ 101.782920539482291, 16.754072495785749 ] ] ] ] } },
{ "type": "Feature", "properties": { "amp_code": "6706", "amp_th": "ศรีเทพ", "amp_en": "Si Thep", "pro_code": "67", "pro_th": "เพชรบูรณ์", "pro_en": "Phetchabun", "reg_nesdb": "LowwerNorth", "reg_royin": "Central", "perimeter": 151.97171586965001, "area_sqkm": 813.22185413837997, "adm1_code": 67, "adm2_code": 6706 }, "geometry": { "type": "MultiPolygon", "coordinates": [ [ [ [ 101.302565480799103, 15.501182837450484 ], [ 101.306868150331965, 15.472346000096902 ], [ 101.297624721002109, 15.455909925476044 ], [ 101.302143529519199, 15.438798925282311 ], [ 101.307466025663444, 15.434942317755624 ], [ 101.302863992505095, 15.430809374492057 ], [ 101.305452836600679, 15.392657591768636 ], [ 101.298901362612767, 15.38071270517362 ], [ 101.284879548696082, 15.374170268045061 ], [ 101.278466436010476, 15.363222594095351 ], [ 101.253486000408714, 15.351797910061947 ], [ 101.247708496988565, 15.35369146185413 ], [ 101.2263532082019, 15.341087262838276 ], [ 101.20691742501505, 15.329239874535878 ], [ 101.202092155698111, 15.325601156897953 ], [ 101.189327687295744, 15.330200275245701 ], [ 101.182824321574245, 15.326993178512598 ], [ 101.175590654757372, 15.334167830826891 ], [ 101.152623569218065, 15.333125577518285 ], [ 101.147385724268503, 15.339385677636828 ], [ 101.12756405354385, 15.334634238438198 ], [ 101.123464974001536, 15.341372058179934 ], [ 101.124365103539205, 15.336120575604861 ], [ 101.115380239786461, 15.33920011971739 ], [ 101.110523051124659, 15.336447316137248 ], [ 101.111849253568536, 15.342060605069857 ], [ 101.105454852125746, 15.339978457899841 ], [ 101.106280719502479, 15.344107883759428 ], [ 101.082269775560675, 15.35228823559294 ], [ 101.065662128037644, 15.327788270384323 ], [ 101.053712575078919, 15.319836160510393 ], [ 101.040787732206923, 15.325829172259102 ], [ 101.029198699589173, 15.322522534552462 ], [ 101.022768113987297, 15.338517192578223 ], [ 101.012467049526705, 15.328164530616201 ], [ 100.994429063022949, 15.320495343976949 ], [ 100.985618425538618, 15.324724889636986 ], [ 100.978204980636875, 15.33702587607806 ], [ 100.983921904499908, 15.348011829061583 ], [ 100.978406779951001, 15.367025781087902 ], [ 100.975293664565839, 15.416669475912641 ], [ 100.963629706025898, 15.411017879931203 ], [ 100.953674638705962, 15.411807086363071 ], [ 100.948334546358396, 15.406098912397955 ], [ 100.932267389031892, 15.414531286749584 ], [ 100.930802628315504, 15.427519288216818 ], [ 100.924320251719152, 15.43475960233339 ], [ 100.927530640888691, 15.46264655842503 ], [ 100.932882743525198, 15.468962710315596 ], [ 100.926893221245479, 15.483188604338578 ], [ 100.931205422219819, 15.488030684682494 ], [ 100.967037206373007, 15.500247117947394 ], [ 100.989763385222247, 15.493207853660211 ], [ 101.017233855918093, 15.496638881336926 ], [ 101.03232963983227, 15.492916738618892 ], [ 101.041283130352781, 15.484939135334008 ], [ 101.055972794765495, 15.488354192753119 ], [ 101.076253902095019, 15.482338944085393 ], [ 101.089799731727354, 15.486662619062512 ], [ 101.086201573609713, 15.490345875341658 ], [ 101.083858656188085, 15.488599224145021 ], [ 101.087277495069429, 15.497856802060097 ], [ 101.083567839252424, 15.501884449611902 ], [ 101.090280857252566, 15.501153549617248 ], [ 101.090962530656213, 15.50968579999838 ], [ 101.095873976803546, 15.512903378457063 ], [ 101.09043539305182, 15.514367871533659 ], [ 101.090491631726692, 15.518275259439763 ], [ 101.082135907679813, 15.51718409104541 ], [ 101.089466984094855, 15.528674832002794 ], [ 101.088203959068636, 15.53889142950459 ], [ 101.081844442561049, 15.540721420135037 ], [ 101.078582337245734, 15.55151935076819 ], [ 101.082395152648814, 15.553493790399324 ], [ 101.080401049069792, 15.557549315498953 ], [ 101.083107668634838, 15.554599572581925 ], [ 101.09067500320559, 15.557134675278375 ], [ 101.092626603731404, 15.552238042157928 ], [ 101.093556042565012, 15.56119479856763 ], [ 101.108188741633796, 15.552477107872825 ], [ 101.109149384226583, 15.544413861392981 ], [ 101.143120414851879, 15.569689067403603 ], [ 101.154484284738018, 15.567913387712723 ], [ 101.16220001795773, 15.560128410423554 ], [ 101.183725828419682, 15.557676454313855 ], [ 101.272386395367505, 15.564306718372221 ], [ 101.310969587942395, 15.574205575171346 ], [ 101.306362048211611, 15.550087766435789 ], [ 101.288071063069353, 15.531073118165546 ], [ 101.289308156390476, 15.526960828829386 ], [ 101.297876728628083, 15.529293030391027 ], [ 101.303355935664612, 15.519002022502631 ], [ 101.302565480799103, 15.501182837450484 ] ] ] ] } },
{ "type": "Feature", "properties": { "amp_code": "6707", "amp_th": "หนองไผ่", "amp_en": "Nong Phai", "pro_code": "67", "pro_th": "เพชรบูรณ์", "pro_en": "Phetchabun", "reg_nesdb": "LowwerNorth", "reg_royin": "Central", "perimeter": 225.83065276508, "area_sqkm": 1258.9686599106301, "adm1_code": 67, "adm2_code": 6707 }, "geometry": { "type": "MultiPolygon", "coordinates": [ [ [ [ 101.242341846825255, 15.912543966116774 ], [ 101.237492901220733, 15.909446844138593 ], [ 101.238072103333408, 15.899354813764885 ], [ 101.232001437296702, 15.892790697584241 ], [ 101.223115595727165, 15.893574573601303 ], [ 101.212316409897142, 15.886510664674342 ], [ 101.20090872780321, 15.866865655242774 ], [ 101.17662185070597, 15.868379557457487 ], [ 101.132257479664688, 15.866653901963524 ], [ 101.073602801294683, 15.872936485767969 ], [ 101.063353939098477, 15.872509276644916 ], [ 101.058321588958776, 15.875962482078345 ], [ 101.060517218237806, 15.886460076193192 ], [ 101.052422136713105, 15.88156073198062 ], [ 101.039262133669624, 15.881931446637314 ], [ 101.022123737156107, 15.900247390899597 ], [ 101.004141362777062, 15.908622845960714 ], [ 100.981281577577917, 15.901131826433977 ], [ 100.949559716329929, 15.911100292047326 ], [ 100.939546820982642, 15.907164893207932 ], [ 100.940167394982709, 15.90152757605717 ], [ 100.924850016941605, 15.907367544999667 ], [ 100.925427649839364, 15.892266361937468 ], [ 100.91601680959252, 15.900687018218246 ], [ 100.907470388859196, 15.897563815478488 ], [ 100.901868420958948, 15.896993081195642 ], [ 100.896819963324631, 15.90149234567828 ], [ 100.897687094995334, 15.915910018432008 ], [ 100.879767471598072, 15.956154262215534 ], [ 100.887804327355752, 15.962157479738842 ], [ 100.887805290233388, 15.966995269670482 ], [ 100.893388495693969, 15.96492549643083 ], [ 100.89581427698063, 15.969593956795674 ], [ 100.902230375816345, 15.987217805763564 ], [ 100.930090002905487, 15.978610007864951 ], [ 100.942496858405448, 15.980026540288552 ], [ 100.929324726553276, 15.985441373475659 ], [ 100.943402025899118, 15.990509175837582 ], [ 100.960550003950317, 15.987027104319052 ], [ 100.972848384797231, 15.995660198881957 ], [ 100.983534962024791, 15.988712667951807 ], [ 100.986646024052433, 16.005062467380228 ], [ 100.984146414874516, 16.024145472855921 ], [ 100.989164882786127, 16.031406683292278 ], [ 100.988637574769101, 16.04194614770083 ], [ 100.979706651503122, 16.051160631122894 ], [ 100.982727767633094, 16.062841931523948 ], [ 100.981519378557294, 16.066145531438675 ], [ 100.974599595196139, 16.060710057089185 ], [ 100.967501554718496, 16.061642840780742 ], [ 100.945979217718971, 16.07178020430926 ], [ 100.939295001576681, 16.063707382997414 ], [ 100.93286784598817, 16.06357123472684 ], [ 100.933834226931111, 16.074001340591945 ], [ 100.925117076731397, 16.077991423273811 ], [ 100.907393787042594, 16.107271270525555 ], [ 100.924577855536597, 16.13287647838829 ], [ 100.941306318736835, 16.125657641815707 ], [ 100.945189350504805, 16.136927309878114 ], [ 100.95117864032845, 16.133935927230098 ], [ 100.973068365856989, 16.145894394171368 ], [ 100.975185503598809, 16.137142857832639 ], [ 100.979605543156609, 16.133505641779799 ], [ 100.981507419774914, 16.135986356800927 ], [ 100.986339829639732, 16.138857666448445 ], [ 100.982274168847383, 16.152907643436333 ], [ 100.984527827537548, 16.165907095301812 ], [ 100.997037553498359, 16.170684025445087 ], [ 100.997946140027722, 16.160499122412915 ], [ 101.007227291948425, 16.15583982683027 ], [ 101.016552817033116, 16.16061963645496 ], [ 101.021240009943213, 16.169908885065546 ], [ 101.040781416330461, 16.168747698004147 ], [ 101.084203160795326, 16.151193876222816 ], [ 101.085624160859894, 16.141328188440699 ], [ 101.093113567946219, 16.139328021012368 ], [ 101.093743409879082, 16.125154653671345 ], [ 101.095242936530028, 16.117918553577731 ], [ 101.108556940992287, 16.100026611035155 ], [ 101.13198439707314, 16.103357287772869 ], [ 101.142339879378369, 16.090806862241077 ], [ 101.153301825857739, 16.10083163333503 ], [ 101.16896526356031, 16.105528267200214 ], [ 101.171133742227127, 16.117253758996256 ], [ 101.165208033207094, 16.141221268843829 ], [ 101.176077369331495, 16.145498087553435 ], [ 101.192294572798033, 16.148126967629771 ], [ 101.195921521381536, 16.179080746549804 ], [ 101.204709672884547, 16.179398649409396 ], [ 101.207048930885705, 16.17095189144052 ], [ 101.219011066797307, 16.170270731335574 ], [ 101.220728661811137, 16.166696599036193 ], [ 101.226489867188391, 16.171780423922915 ], [ 101.242078089852583, 16.166196091703256 ], [ 101.252009123301235, 16.181739881868008 ], [ 101.268606668687255, 16.181056421981094 ], [ 101.271506009917587, 16.176820030405239 ], [ 101.296315950826568, 16.190273078237247 ], [ 101.298109057877426, 16.187432801427416 ], [ 101.312098467648013, 16.190890205740661 ], [ 101.316413725612136, 16.184189677662488 ], [ 101.324045691690856, 16.187330390490832 ], [ 101.335592832224762, 16.173094012811458 ], [ 101.339794964275242, 16.181195273113129 ], [ 101.35820927510963, 16.183884936157931 ], [ 101.359834849410163, 16.191905822190613 ], [ 101.377507074297753, 16.187140085859721 ], [ 101.363247512989602, 16.185605258115022 ], [ 101.362513767971791, 16.176725327618485 ], [ 101.356081100815629, 16.17416219765423 ], [ 101.35422666893335, 16.165035996488339 ], [ 101.340795781737583, 16.153658015306856 ], [ 101.344558263641872, 16.143318010573743 ], [ 101.335351411642293, 16.118363475102612 ], [ 101.33771832071622, 16.111899749948595 ], [ 101.330947389084287, 16.076190157287446 ], [ 101.32532250317891, 16.061312470198832 ], [ 101.329913471027197, 16.054098573055096 ], [ 101.322917425180833, 16.040983706331954 ], [ 101.330086112716486, 16.03419811578236 ], [ 101.33054311543026, 16.02318065602012 ], [ 101.341438122120081, 16.012460637333742 ], [ 101.343435238452031, 16.001853274388846 ], [ 101.337249333830997, 15.99172013702246 ], [ 101.347292577361685, 15.9826975267591 ], [ 101.358075020823179, 15.963159990711009 ], [ 101.373943403201451, 15.968469104424893 ], [ 101.372281662264058, 15.95572146612486 ], [ 101.36996972294537, 15.939310914258858 ], [ 101.363685622504306, 15.931658178693962 ], [ 101.360245854888035, 15.928978899796768 ], [ 101.352180129228742, 15.934275118192312 ], [ 101.343365316576381, 15.932340711007422 ], [ 101.309125188558795, 15.943238373334472 ], [ 101.301251784018305, 15.938362790279374 ], [ 101.299347036800938, 15.921099415236657 ], [ 101.289229700010992, 15.907028726334939 ], [ 101.277662047547281, 15.915222167901678 ], [ 101.283378050550795, 15.925276878773854 ], [ 101.278192384694449, 15.929495435116275 ], [ 101.26546649439689, 15.927299733245247 ], [ 101.262024541014469, 15.919681393275164 ], [ 101.248096385979835, 15.912686262242204 ], [ 101.242341846825255, 15.912543966116774 ] ] ] ] } }
]
}
