{
"type": "FeatureCollection",
"name": "adm2_27",
"crs": { "type": "name", "properties": { "name": "urn:ogc:def:crs:OGC:1.3:CRS84" } },
"features": [
{ "type": "Feature", "properties": { "amp_code": "2708", "amp_th": "โคกสูง", "amp_en": "Khok Sung", "pro_code": "27", "pro_th": "สระแก้ว", "pro_en": "Sa Kaeo", "reg_nesdb": "East", "reg_royin": "East", "perimeter": 88.1132087684, "area_sqkm": 340.69767216201001, "adm1_code": 27, "adm2_code": 2708 }, "geometry": { "type": "MultiPolygon", "coordinates": [ [ [ [ 102.73505568018652, 13.813051240845597 ], [ 102.723036523892546, 13.793021031408601 ], [ 102.732448618157719, 13.785143662941531 ], [ 102.732262672758708, 13.773409364946875 ], [ 102.716138899832174, 13.773988636083596 ], [ 102.689000361017037, 13.751838095780423 ], [ 102.656446369691636, 13.737810157242201 ], [ 102.640545325564403, 13.746160962414729 ], [ 102.635339077282978, 13.756821925838844 ], [ 102.625862789146169, 13.761985807987278 ], [ 102.626471894974742, 13.768809549917021 ], [ 102.59322487150483, 13.792734334378007 ], [ 102.593222632244547, 13.79273888028893 ], [ 102.571052600900515, 13.82215696418772 ], [ 102.534980250393104, 13.855600640436991 ], [ 102.5350302826172, 13.863060574260686 ], [ 102.541635940673331, 13.862098396535483 ], [ 102.544002989641669, 13.866291987963725 ], [ 102.539308882252882, 13.874998624779478 ], [ 102.539709462014656, 13.888483308376431 ], [ 102.534694607227451, 13.894654723085745 ], [ 102.545392438607507, 13.905422917944763 ], [ 102.544469287778526, 13.911659125935286 ], [ 102.536420255421177, 13.917336565078388 ], [ 102.538120323779239, 13.925472061539446 ], [ 102.530352051054223, 13.930318272517889 ], [ 102.532241331771132, 13.939423722269598 ], [ 102.553422192775443, 13.94082574921743 ], [ 102.572997598554977, 13.936257028432513 ], [ 102.583335542845404, 13.945730446959915 ], [ 102.595764382150719, 13.94624083306091 ], [ 102.605526320868464, 13.936456318269819 ], [ 102.635226781862585, 13.931780028933614 ], [ 102.643992567410891, 13.926650870283909 ], [ 102.64677312246819, 13.90436627371985 ], [ 102.680584454490315, 13.927754249531162 ], [ 102.6853220925518, 13.921804736482784 ], [ 102.677826121451901, 13.922822886830097 ], [ 102.670360843221886, 13.911934479524199 ], [ 102.676592646779397, 13.8962026521135 ], [ 102.70524467867962, 13.900520871453438 ], [ 102.719612958459535, 13.892763845465339 ], [ 102.731938798146643, 13.874243475142958 ], [ 102.765902406548534, 13.855889280807409 ], [ 102.754595281987534, 13.844410944063002 ], [ 102.73505568018652, 13.813051240845597 ] ] ] ] } },
{ "type": "Feature", "properties": { "amp_code": "2709", "amp_th": "วังสมบูรณ์", "amp_en": "Wang Sombun", "pro_code": "27", "pro_th": "สระแก้ว", "pro_en": "Sa Kaeo", "reg_nesdb": "East", "reg_royin": "East", "perimeter": 122.12956165406, "area_sqkm": 498.14890463988002, "adm1_code": 27, "adm2_code": 2709 }, "geometry": { "type": "MultiPolygon", "coordinates": [ [ [ [ 102.165137821939041, 13.32448889602248 ], [ 102.150319181347086, 13.318780350585561 ], [ 102.136216227303805, 13.333203143770643 ], [ 102.127616009299786, 13.334377355189586 ], [ 102.128206346911966, 13.31942151624383 ], [ 102.118901119003638, 13.303259138795012 ], [ 102.118210153040124, 13.277237904008601 ], [ 102.108533408327375, 13.263857571069897 ], [ 102.070928442826968, 13.25561625448506 ], [ 102.056346537400728, 13.239766912236323 ], [ 102.043663996006885, 13.241662280308208 ], [ 102.02833002537497, 13.236565587833942 ], [ 102.029119991859147, 13.266213134160479 ], [ 102.034544105390893, 13.284153286561969 ], [ 102.014179276490722, 13.292513420290367 ], [ 102.011923617855757, 13.289436771206036 ], [ 102.001634083468844, 13.31652162406407 ], [ 101.992387915626111, 13.324313174839958 ], [ 101.989122731593838, 13.334031136620842 ], [ 101.985567896729663, 13.340177180795164 ], [ 101.990125357546958, 13.353342084761241 ], [ 101.981857958270751, 13.359753745875556 ], [ 101.982018260454694, 13.380798613561845 ], [ 101.973178823809874, 13.394047064670319 ], [ 101.977076072342683, 13.408720237212076 ], [ 102.000876588548792, 13.405934215362839 ], [ 102.022651473971919, 13.436568689052274 ], [ 102.038493671317866, 13.441955732747292 ], [ 102.054877159017764, 13.434953681995935 ], [ 102.063518519147436, 13.436536302378515 ], [ 102.074179193282305, 13.444530618302768 ], [ 102.073825860413464, 13.450012092449127 ], [ 102.076437491247987, 13.452850801017437 ], [ 102.078282894423808, 13.44829817391464 ], [ 102.143349899106568, 13.44993260968878 ], [ 102.16228770433986, 13.472032170206695 ], [ 102.165713424351608, 13.4660077235303 ], [ 102.188518778506861, 13.464047595859203 ], [ 102.222531891995018, 13.48340190502134 ], [ 102.227835765542139, 13.478312158650304 ], [ 102.237789433036568, 13.472923136126333 ], [ 102.234112863979576, 13.466968167049778 ], [ 102.2365026388198, 13.429477402554653 ], [ 102.233201969058413, 13.415229445522851 ], [ 102.226131248228256, 13.413465600486607 ], [ 102.224085623278185, 13.407445320503156 ], [ 102.225334231642293, 13.384298687701977 ], [ 102.225370217456089, 13.35801287208122 ], [ 102.229722383598613, 13.350532691726984 ], [ 102.24217412246648, 13.343713846093429 ], [ 102.245002044162291, 13.339171563633938 ], [ 102.256183569900543, 13.339734104756285 ], [ 102.273427712123862, 13.329192153346559 ], [ 102.274984744986014, 13.325296923113624 ], [ 102.270511383317356, 13.322957127488422 ], [ 102.279541345002812, 13.316412354370113 ], [ 102.284575215448484, 13.303902674483084 ], [ 102.276199321951864, 13.289435851545944 ], [ 102.244394161817482, 13.285169500039121 ], [ 102.216312239413426, 13.311093910097885 ], [ 102.212736309052389, 13.304251411518079 ], [ 102.18950924434418, 13.292012376635858 ], [ 102.190495218968039, 13.298530421361106 ], [ 102.183743078886437, 13.304763262912976 ], [ 102.182392467580215, 13.314107164541772 ], [ 102.165137821939041, 13.32448889602248 ] ] ] ] } },
{ "type": "Feature", "properties": { "amp_code": "2706", "amp_th": "อรัญประเทศ", "amp_en": "Aranyaprathet", "pro_code": "27", "pro_th": "สระแก้ว", "pro_en": "Sa Kaeo", "reg_nesdb": "East", "reg_royin": "East", "perimeter": 167.1010271111, "area_sqkm": 733.47192967874003, "adm1_code": 27, "adm2_code": 2706 }, "geometry": { "type": "MultiPolygon", "coordinates": [ [ [ [ 102.355471736037629, 13.56317265649936 ], [ 102.339895633567181, 13.559731863287913 ], [ 102.334322644113655, 13.5418314814362 ], [ 102.363349099183253, 13.506682986820778 ], [ 102.359175731865648, 13.483313505317563 ], [ 102.317539507811034, 13.474136830105552 ], [ 102.309764552226795, 13.490832303674903 ], [ 102.311720660755228, 13.499117539425294 ], [ 102.308066257283016, 13.503418418505451 ], [ 102.309815497048277, 13.519262420835775 ], [ 102.313599199503614, 13.528175716903664 ], [ 102.320828923008349, 13.530783932051495 ], [ 102.322107291589262, 13.562021102578907 ], [ 102.326418219778461, 13.569048941902805 ], [ 102.320229769920147, 13.582208432551024 ], [ 102.327696410668821, 13.588805848078469 ], [ 102.326715679463646, 13.596651341053436 ], [ 102.336482697204247, 13.621604328544306 ], [ 102.334629116989191, 13.642121892086504 ], [ 102.345843280043212, 13.656540691141876 ], [ 102.344791883442952, 13.661280176401142 ], [ 102.355309419188885, 13.666325956202625 ], [ 102.359467973657402, 13.664114070217046 ], [ 102.358509283852541, 13.659741523513867 ], [ 102.364859223153772, 13.660416032284282 ], [ 102.383544737876122, 13.670424421211305 ], [ 102.386342784895987, 13.685184456853676 ], [ 102.396673455553525, 13.69694860615178 ], [ 102.430856754358473, 13.710694186445961 ], [ 102.435946947152104, 13.722470054517657 ], [ 102.448857294071303, 13.720995633627499 ], [ 102.459455044275032, 13.728153962458098 ], [ 102.458250238634946, 13.735449299223651 ], [ 102.433560410966479, 13.750191330062577 ], [ 102.426936710097806, 13.74890908909601 ], [ 102.420826460665992, 13.756541281450593 ], [ 102.422718467974974, 13.759426458218588 ], [ 102.413876531828933, 13.768388663198804 ], [ 102.404889625606131, 13.792915759429782 ], [ 102.395980571554517, 13.803984440405889 ], [ 102.406295937244636, 13.826790488142379 ], [ 102.423037631681581, 13.840698105777241 ], [ 102.433533174206758, 13.859010497578339 ], [ 102.44692924121594, 13.866463873360615 ], [ 102.45856518089218, 13.862772021389455 ], [ 102.461933575470951, 13.856735771668484 ], [ 102.468519454612149, 13.872042037965345 ], [ 102.472949289599498, 13.874749374337311 ], [ 102.484661658991385, 13.87082160767517 ], [ 102.485679074127091, 13.869462038390603 ], [ 102.515814272777746, 13.855202133239166 ], [ 102.534980250393104, 13.855600640436991 ], [ 102.571052600900515, 13.82215696418772 ], [ 102.593222632244547, 13.79273888028893 ], [ 102.59322487150483, 13.792734334378007 ], [ 102.626471894974742, 13.768809549917021 ], [ 102.625862789146169, 13.761985807987278 ], [ 102.635339077282978, 13.756821925838844 ], [ 102.640545325564403, 13.746160962414729 ], [ 102.656446369691636, 13.737810157242201 ], [ 102.582640767023932, 13.701191577749162 ], [ 102.577023787160627, 13.693085900255188 ], [ 102.567967850461756, 13.689528258033253 ], [ 102.550865570319047, 13.664015436189832 ], [ 102.548518009080482, 13.660085187631712 ], [ 102.558786246419984, 13.648221286131323 ], [ 102.569534877715455, 13.64427676562765 ], [ 102.575404782058584, 13.63004423241019 ], [ 102.586791395077157, 13.629465921390768 ], [ 102.624651072264228, 13.609963550561066 ], [ 102.574395753187886, 13.603485653357728 ], [ 102.568365788341779, 13.583867078999111 ], [ 102.552986757501742, 13.57485704415703 ], [ 102.545420863435396, 13.575287493928734 ], [ 102.536975210983343, 13.566720209292928 ], [ 102.526739877101974, 13.564148036980091 ], [ 102.480006455498554, 13.572151639950206 ], [ 102.471847005415029, 13.56500505020402 ], [ 102.459177499136729, 13.56263755977254 ], [ 102.443873648936503, 13.563955198686655 ], [ 102.437695889091756, 13.560176524310743 ], [ 102.419865237817561, 13.571574434456817 ], [ 102.409878529599808, 13.566911705120186 ], [ 102.392638646186384, 13.567319483718775 ], [ 102.376049507692855, 13.57782782892499 ], [ 102.370862545436466, 13.575242581569366 ], [ 102.367118353593483, 13.578178879204795 ], [ 102.359890504499461, 13.570832490873432 ], [ 102.355471736037629, 13.56317265649936 ] ] ] ] } },
{ "type": "Feature", "properties": { "amp_code": "2707", "amp_th": "เขาฉกรรจ์", "amp_en": "Khao Chakan", "pro_code": "27", "pro_th": "สระแก้ว", "pro_en": "Sa Kaeo", "reg_nesdb": "East", "reg_royin": "East", "perimeter": 147.78616620603, "area_sqkm": 462.74218862892002, "adm1_code": 27, "adm2_code": 2707 }, "geometry": { "type": "MultiPolygon", "coordinates": [ [ [ [ 102.084203900132835, 13.641437140172284 ], [ 102.082939741780947, 13.63212649996972 ], [ 102.090664903836952, 13.626590711068216 ], [ 102.094390223696934, 13.617034078556308 ], [ 102.077969838134749, 13.600429631405417 ], [ 102.095898815944338, 13.586115134131999 ], [ 102.096741739930181, 13.579492061253111 ], [ 102.090605342889702, 13.575990996978213 ], [ 102.073814008207108, 13.57066390964558 ], [ 102.051549996764578, 13.570100842367196 ], [ 102.039680893530317, 13.574107645312429 ], [ 102.036238744080777, 13.559054295905192 ], [ 102.03400444088436, 13.557162377150272 ], [ 102.027164260885328, 13.564086444302722 ], [ 102.022061186017496, 13.558626921359151 ], [ 102.000256106896188, 13.557554476095753 ], [ 101.997401424525776, 13.542056095592953 ], [ 101.988477993815579, 13.538349483717676 ], [ 101.979124766735779, 13.524795461470132 ], [ 101.966416303319647, 13.52147836058289 ], [ 101.960672025814418, 13.507075554915902 ], [ 101.955258174801244, 13.505572499182726 ], [ 101.955461303684842, 13.494243328440273 ], [ 101.94390400648463, 13.492176694234402 ], [ 101.937199205116144, 13.478089011911381 ], [ 101.89484777796936, 13.471758448986581 ], [ 101.881149078969244, 13.4904116058906 ], [ 101.886794443454477, 13.501423445360725 ], [ 101.897367869555993, 13.510683445845048 ], [ 101.895609493755643, 13.516987824420756 ], [ 101.885265815873439, 13.52381924364707 ], [ 101.873750648496753, 13.524141437112965 ], [ 101.899027391896198, 13.5507878041089 ], [ 101.907073043618198, 13.570523894687362 ], [ 101.914765698651138, 13.585395114727589 ], [ 101.909557085366757, 13.604969051575209 ], [ 101.942053240283656, 13.616239411584646 ], [ 101.935730522768409, 13.628610359609226 ], [ 101.938775624248322, 13.646830624635323 ], [ 101.943712817986594, 13.650521969855628 ], [ 101.948612393018351, 13.667698636628595 ], [ 101.943634438916547, 13.692628953123119 ], [ 101.98537701164534, 13.680081466567284 ], [ 101.988658554251927, 13.697839122230757 ], [ 101.999609555077726, 13.714399528499088 ], [ 102.009723915858316, 13.70982189417963 ], [ 102.012611448027755, 13.702106891396136 ], [ 102.016315515205775, 13.705324191524916 ], [ 102.031151381195585, 13.703676274826234 ], [ 102.036762956644068, 13.714380132318116 ], [ 102.035490330301428, 13.724642470700628 ], [ 102.048518643260309, 13.74789199338103 ], [ 102.060263398818662, 13.748507257567503 ], [ 102.067274999492227, 13.742146032119354 ], [ 102.075860475096746, 13.743819214614591 ], [ 102.079766745381022, 13.745786511825672 ], [ 102.078307568221064, 13.755623229306895 ], [ 102.0832346941026, 13.760701097865116 ], [ 102.089742305667087, 13.759086595621769 ], [ 102.088463201815728, 13.762550030726564 ], [ 102.106577566569683, 13.755929749799991 ], [ 102.11987737065499, 13.740739802261242 ], [ 102.129244125837999, 13.736558633019211 ], [ 102.143575374105808, 13.728477298481675 ], [ 102.141558143409128, 13.718671468913259 ], [ 102.147358265849618, 13.712709999643957 ], [ 102.148589499835481, 13.701359331713704 ], [ 102.146064610591168, 13.695935055184945 ], [ 102.15391964358804, 13.684912050192169 ], [ 102.168898545761181, 13.693846534865001 ], [ 102.180221843952737, 13.673897656982325 ], [ 102.174783823538917, 13.671998922692111 ], [ 102.171625072156758, 13.664585215385694 ], [ 102.174535778460495, 13.660982270937916 ], [ 102.165765049440068, 13.659676751126227 ], [ 102.17215826762417, 13.655782143124194 ], [ 102.177533682432028, 13.658250701310847 ], [ 102.18177567750925, 13.636576628932529 ], [ 102.192428800504317, 13.627648275791147 ], [ 102.191720013831144, 13.623939380578339 ], [ 102.199849073994343, 13.628863237691384 ], [ 102.209698470516258, 13.624466277349539 ], [ 102.192957442542706, 13.614034773842819 ], [ 102.181530561780662, 13.61529418144208 ], [ 102.173958858429259, 13.603863155153675 ], [ 102.153858114994321, 13.612476081846982 ], [ 102.142456547182519, 13.61529786475236 ], [ 102.13103301597684, 13.625287202139681 ], [ 102.142029950401209, 13.629211943169551 ], [ 102.143105846650599, 13.637995939555898 ], [ 102.156573436698935, 13.653978640047477 ], [ 102.127943097274311, 13.66165028924004 ], [ 102.113377584277842, 13.658714826729598 ], [ 102.09487447181462, 13.641674562727966 ], [ 102.084203900132835, 13.641437140172284 ] ] ] ] } },
{ "type": "Feature", "properties": { "amp_code": "2704", "amp_th": "วังน้ำเย็น", "amp_en": "Wang Nam Yen", "pro_code": "27", "pro_th": "สระแก้ว", "pro_en": "Sa Kaeo", "reg_nesdb": "East", "reg_royin": "East", "perimeter": 111.01257815772, "area_sqkm": 430.20733688797998, "adm1_code": 27, "adm2_code": 2704 }, "geometry": { "type": "MultiPolygon", "coordinates": [ [ [ [ 102.03400444088436, 13.557162377150272 ], [ 102.036238744080777, 13.559054295905192 ], [ 102.039680893530317, 13.574107645312429 ], [ 102.051549996764578, 13.570100842367196 ], [ 102.073814008207108, 13.57066390964558 ], [ 102.090605342889702, 13.575990996978213 ], [ 102.096741739930181, 13.579492061253111 ], [ 102.095898815944338, 13.586115134131999 ], [ 102.077969838134749, 13.600429631405417 ], [ 102.094390223696934, 13.617034078556308 ], [ 102.090664903836952, 13.626590711068216 ], [ 102.082939741780947, 13.63212649996972 ], [ 102.084203900132835, 13.641437140172284 ], [ 102.09487447181462, 13.641674562727966 ], [ 102.113377584277842, 13.658714826729598 ], [ 102.127943097274311, 13.66165028924004 ], [ 102.156573436698935, 13.653978640047477 ], [ 102.143105846650599, 13.637995939555898 ], [ 102.142029950401209, 13.629211943169551 ], [ 102.13103301597684, 13.625287202139681 ], [ 102.142456547182519, 13.61529786475236 ], [ 102.153858114994321, 13.612476081846982 ], [ 102.162498159447722, 13.59535044588317 ], [ 102.170042654833892, 13.593879685377757 ], [ 102.179480643270907, 13.584066901252154 ], [ 102.179967201884878, 13.575385238878802 ], [ 102.182508207409199, 13.566494521055418 ], [ 102.187092337774473, 13.565037498519297 ], [ 102.197746959504798, 13.544145149126001 ], [ 102.185057732953709, 13.527108759255409 ], [ 102.192763693271985, 13.52460068135195 ], [ 102.193763056550964, 13.514503898937555 ], [ 102.222531891995018, 13.48340190502134 ], [ 102.188518778506861, 13.464047595859203 ], [ 102.165713424351608, 13.4660077235303 ], [ 102.16228770433986, 13.472032170206695 ], [ 102.143349899106568, 13.44993260968878 ], [ 102.078282894423808, 13.44829817391464 ], [ 102.076437491247987, 13.452850801017437 ], [ 102.073825860413464, 13.450012092449127 ], [ 102.074179193282305, 13.444530618302768 ], [ 102.063518519147436, 13.436536302378515 ], [ 102.054877159017764, 13.434953681995935 ], [ 102.038493671317866, 13.441955732747292 ], [ 102.022651473971919, 13.436568689052274 ], [ 102.000876588548792, 13.405934215362839 ], [ 101.977076072342683, 13.408720237212076 ], [ 101.963522991020639, 13.416259815678659 ], [ 101.94351740796381, 13.438746183987778 ], [ 101.938155947032811, 13.450771414119354 ], [ 101.94307384745089, 13.460881374773257 ], [ 101.936105644514569, 13.471857466494187 ], [ 101.937199205116144, 13.478089011911381 ], [ 101.94390400648463, 13.492176694234402 ], [ 101.955461303684842, 13.494243328440273 ], [ 101.955258174801244, 13.505572499182726 ], [ 101.960672025814418, 13.507075554915902 ], [ 101.966416303319647, 13.52147836058289 ], [ 101.979124766735779, 13.524795461470132 ], [ 101.988477993815579, 13.538349483717676 ], [ 101.997401424525776, 13.542056095592953 ], [ 102.000256106896188, 13.557554476095753 ], [ 102.022061186017496, 13.558626921359151 ], [ 102.027164260885328, 13.564086444302722 ], [ 102.03400444088436, 13.557162377150272 ] ] ] ] } },
{ "type": "Feature", "properties": { "amp_code": "2705", "amp_th": "วัฒนานคร", "amp_en": "Watthana Nakhon", "pro_code": "27", "pro_th": "สระแก้ว", "pro_en": "Sa Kaeo", "reg_nesdb": "East", "reg_royin": "East", "perimeter": 222.83373277199999, "area_sqkm": 1507.69612488547, "adm1_code": 27, "adm2_code": 2705 }, "geometry": { "type": "MultiPolygon", "coordinates": [ [ [ [ 102.334629116989191, 13.642121892086504 ], [ 102.321625649851697, 13.639099005109978 ], [ 102.3122635622301, 13.644454047180089 ], [ 102.295430108562698, 13.644531486298414 ], [ 102.263958530346656, 13.620830561024411 ], [ 102.258547485026611, 13.616655574693338 ], [ 102.250537431069134, 13.622445515993894 ], [ 102.225655735980311, 13.625311559282078 ], [ 102.221051954656915, 13.629158047276736 ], [ 102.209698470516258, 13.624466277349539 ], [ 102.199849073994343, 13.628863237691384 ], [ 102.191720013831144, 13.623939380578339 ], [ 102.192428800504317, 13.627648275791147 ], [ 102.18177567750925, 13.636576628932529 ], [ 102.177533682432028, 13.658250701310847 ], [ 102.17215826762417, 13.655782143124194 ], [ 102.165765049440068, 13.659676751126227 ], [ 102.174535778460495, 13.660982270937916 ], [ 102.171625072156758, 13.664585215385694 ], [ 102.174783823538917, 13.671998922692111 ], [ 102.180221843952737, 13.673897656982325 ], [ 102.168898545761181, 13.693846534865001 ], [ 102.207658970343459, 13.710666725169892 ], [ 102.22844384584613, 13.727975105964253 ], [ 102.23270068942054, 13.739390069108151 ], [ 102.229910253979526, 13.745970698778656 ], [ 102.233804916777345, 13.752581035593849 ], [ 102.226268666612285, 13.759326642291324 ], [ 102.225623595962574, 13.766890463576205 ], [ 102.199658060865161, 13.771032044080664 ], [ 102.188017707414602, 13.788626301828394 ], [ 102.179934645473011, 13.792239098730429 ], [ 102.179079004203444, 13.822820445626514 ], [ 102.163858400080883, 13.842215967993713 ], [ 102.166037224604281, 13.84768924039202 ], [ 102.158497681509715, 13.8559598373316 ], [ 102.187111258235078, 13.867600466309268 ], [ 102.195521152179964, 13.891469906113095 ], [ 102.207243967128804, 13.908278047980119 ], [ 102.2055967356617, 13.916356289098017 ], [ 102.194588419251033, 13.922242557561145 ], [ 102.210791741917731, 13.939761086653979 ], [ 102.242806089953618, 13.947341965533942 ], [ 102.262779571551633, 13.967760273968757 ], [ 102.263315107451703, 13.979761668463262 ], [ 102.276504047021561, 13.997072908491083 ], [ 102.275279558478871, 14.002379271690513 ], [ 102.285928140433725, 14.008502206048417 ], [ 102.311366367821449, 14.02672416744009 ], [ 102.311677065884723, 14.056693714989272 ], [ 102.30613475111744, 14.067143576955273 ], [ 102.311437064763425, 14.086612079316128 ], [ 102.324638201612842, 14.094948633460572 ], [ 102.32148355353273, 14.110287546886747 ], [ 102.325970397776857, 14.127860352315768 ], [ 102.331785130388781, 14.120051493865599 ], [ 102.339124792366732, 14.125651051776238 ], [ 102.349222552162047, 14.125225016048899 ], [ 102.357283349580754, 14.132019099325982 ], [ 102.359176783581603, 14.165712780555605 ], [ 102.362917271902191, 14.166230229298472 ], [ 102.380863058444476, 14.146964856978503 ], [ 102.394030114148237, 14.145149465568448 ], [ 102.400270696656875, 14.145995511534233 ], [ 102.407044930342082, 14.15482450267476 ], [ 102.418339470041147, 14.154004780619813 ], [ 102.423758247894227, 14.157913186395252 ], [ 102.431293732288808, 14.152289645854276 ], [ 102.436583103452904, 14.14336019693776 ], [ 102.453383345174387, 14.142850504412479 ], [ 102.454722390631588, 14.136497412018743 ], [ 102.4690639624705, 14.131940648298054 ], [ 102.475459046650002, 14.131955399434421 ], [ 102.482689511888452, 14.14172634877913 ], [ 102.500269012570328, 14.132812649533253 ], [ 102.503109243938042, 14.127518679312852 ], [ 102.497876058496161, 14.12108419811489 ], [ 102.498265306559546, 14.108000658564345 ], [ 102.508659593233503, 14.093235821067196 ], [ 102.532856820662843, 14.09654800011926 ], [ 102.533926355860217, 14.077154206647677 ], [ 102.538731371813554, 14.074250464510078 ], [ 102.535180086906024, 14.045736399810684 ], [ 102.546865352289558, 14.03878158339735 ], [ 102.549546257933812, 14.020633722729414 ], [ 102.558370883476215, 14.017462148028429 ], [ 102.559093355640499, 13.993449974356423 ], [ 102.56962094174088, 13.981397159517645 ], [ 102.589247272004286, 13.98016540788616 ], [ 102.585692923367532, 13.963585862280118 ], [ 102.591471580594217, 13.956157595207978 ], [ 102.583335542845404, 13.945730446959915 ], [ 102.572997598554977, 13.936257028432513 ], [ 102.553422192775443, 13.94082574921743 ], [ 102.532241331771132, 13.939423722269598 ], [ 102.530352051054223, 13.930318272517889 ], [ 102.538120323779239, 13.925472061539446 ], [ 102.536420255421177, 13.917336565078388 ], [ 102.544469287778526, 13.911659125935286 ], [ 102.545392438607507, 13.905422917944763 ], [ 102.534694607227451, 13.894654723085745 ], [ 102.539709462014656, 13.888483308376431 ], [ 102.539308882252882, 13.874998624779478 ], [ 102.544002989641669, 13.866291987963725 ], [ 102.541635940673331, 13.862098396535483 ], [ 102.5350302826172, 13.863060574260686 ], [ 102.534980250393104, 13.855600640436991 ], [ 102.515814272777746, 13.855202133239166 ], [ 102.485679074127091, 13.869462038390603 ], [ 102.484661658991385, 13.87082160767517 ], [ 102.472949289599498, 13.874749374337311 ], [ 102.468519454612149, 13.872042037965345 ], [ 102.461933575470951, 13.856735771668484 ], [ 102.45856518089218, 13.862772021389455 ], [ 102.44692924121594, 13.866463873360615 ], [ 102.433533174206758, 13.859010497578339 ], [ 102.423037631681581, 13.840698105777241 ], [ 102.406295937244636, 13.826790488142379 ], [ 102.395980571554517, 13.803984440405889 ], [ 102.404889625606131, 13.792915759429782 ], [ 102.413876531828933, 13.768388663198804 ], [ 102.422718467974974, 13.759426458218588 ], [ 102.420826460665992, 13.756541281450593 ], [ 102.426936710097806, 13.74890908909601 ], [ 102.433560410966479, 13.750191330062577 ], [ 102.458250238634946, 13.735449299223651 ], [ 102.459455044275032, 13.728153962458098 ], [ 102.448857294071303, 13.720995633627499 ], [ 102.435946947152104, 13.722470054517657 ], [ 102.430856754358473, 13.710694186445961 ], [ 102.396673455553525, 13.69694860615178 ], [ 102.386342784895987, 13.685184456853676 ], [ 102.383544737876122, 13.670424421211305 ], [ 102.364859223153772, 13.660416032284282 ], [ 102.358509283852541, 13.659741523513867 ], [ 102.359467973657402, 13.664114070217046 ], [ 102.355309419188885, 13.666325956202625 ], [ 102.344791883442952, 13.661280176401142 ], [ 102.345843280043212, 13.656540691141876 ], [ 102.334629116989191, 13.642121892086504 ] ] ] ] } },
{ "type": "Feature", "properties": { "amp_code": "2702", "amp_th": "คลองหาด", "amp_en": "Khlong Hat", "pro_code": "27", "pro_th": "สระแก้ว", "pro_en": "Sa Kaeo", "reg_nesdb": "East", "reg_royin": "East", "perimeter": 125.02502982351, "area_sqkm": 485.3085075944, "adm1_code": 27, "adm2_code": 2702 }, "geometry": { "type": "MultiPolygon", "coordinates": [ [ [ [ 102.356065937339508, 13.394022411294243 ], [ 102.356734274448485, 13.381370179947575 ], [ 102.345328203313485, 13.348293814541416 ], [ 102.352051856173418, 13.340877048160404 ], [ 102.351518618163723, 13.331546264578682 ], [ 102.359660496958526, 13.314584439510728 ], [ 102.353353241377732, 13.298666910614399 ], [ 102.347963619824171, 13.297812554914229 ], [ 102.332707617518452, 13.316946474702357 ], [ 102.322334350548573, 13.295895150521968 ], [ 102.311255278099438, 13.287037884076893 ], [ 102.296655321507785, 13.290183489431667 ], [ 102.298092643133813, 13.295917492010222 ], [ 102.290875003868578, 13.300238047961637 ], [ 102.284575215448484, 13.303902674483084 ], [ 102.279541345002812, 13.316412354370113 ], [ 102.270511383317356, 13.322957127488422 ], [ 102.274984744986014, 13.325296923113624 ], [ 102.273427712123862, 13.329192153346559 ], [ 102.256183569900543, 13.339734104756285 ], [ 102.245002044162291, 13.339171563633938 ], [ 102.24217412246648, 13.343713846093429 ], [ 102.229722383598613, 13.350532691726984 ], [ 102.225370217456089, 13.35801287208122 ], [ 102.225334231642293, 13.384298687701977 ], [ 102.224085623278185, 13.407445320503156 ], [ 102.226131248228256, 13.413465600486607 ], [ 102.233201969058413, 13.415229445522851 ], [ 102.2365026388198, 13.429477402554653 ], [ 102.234112863979576, 13.466968167049778 ], [ 102.237789433036568, 13.472923136126333 ], [ 102.227835765542139, 13.478312158650304 ], [ 102.222531891995018, 13.48340190502134 ], [ 102.193763056550964, 13.514503898937555 ], [ 102.192763693271985, 13.52460068135195 ], [ 102.185057732953709, 13.527108759255409 ], [ 102.197746959504798, 13.544145149126001 ], [ 102.187092337774473, 13.565037498519297 ], [ 102.182508207409199, 13.566494521055418 ], [ 102.179967201884878, 13.575385238878802 ], [ 102.179480643270907, 13.584066901252154 ], [ 102.170042654833892, 13.593879685377757 ], [ 102.162498159447722, 13.59535044588317 ], [ 102.153858114994321, 13.612476081846982 ], [ 102.173958858429259, 13.603863155153675 ], [ 102.181530561780662, 13.61529418144208 ], [ 102.192957442542706, 13.614034773842819 ], [ 102.209698470516258, 13.624466277349539 ], [ 102.221051954656915, 13.629158047276736 ], [ 102.225655735980311, 13.625311559282078 ], [ 102.250537431069134, 13.622445515993894 ], [ 102.258547485026611, 13.616655574693338 ], [ 102.263958530346656, 13.620830561024411 ], [ 102.295430108562698, 13.644531486298414 ], [ 102.3122635622301, 13.644454047180089 ], [ 102.321625649851697, 13.639099005109978 ], [ 102.334629116989191, 13.642121892086504 ], [ 102.336482697204247, 13.621604328544306 ], [ 102.326715679463646, 13.596651341053436 ], [ 102.327696410668821, 13.588805848078469 ], [ 102.320229769920147, 13.582208432551024 ], [ 102.326418219778461, 13.569048941902805 ], [ 102.322107291589262, 13.562021102578907 ], [ 102.320828923008349, 13.530783932051495 ], [ 102.313599199503614, 13.528175716903664 ], [ 102.309815497048277, 13.519262420835775 ], [ 102.308066257283016, 13.503418418505451 ], [ 102.311720660755228, 13.499117539425294 ], [ 102.309764552226795, 13.490832303674903 ], [ 102.317539507811034, 13.474136830105552 ], [ 102.359175731865648, 13.483313505317563 ], [ 102.355404270700134, 13.447397763029619 ], [ 102.360503885758604, 13.443042261639517 ], [ 102.35806273226153, 13.435989743604294 ], [ 102.36249692639413, 13.425436062780456 ], [ 102.360646891155767, 13.40160182680099 ], [ 102.356065937339508, 13.394022411294243 ] ] ] ] } },
{ "type": "Feature", "properties": { "amp_code": "2703", "amp_th": "ตาพระยา", "amp_en": "Ta Phraya", "pro_code": "27", "pro_th": "สระแก้ว", "pro_en": "Sa Kaeo", "reg_nesdb": "East", "reg_royin": "East", "perimeter": 168.48250274912999, "area_sqkm": 965.68978506319002, "adm1_code": 27, "adm2_code": 2703 }, "geometry": { "type": "MultiPolygon", "coordinates": [ [ [ [ 102.858264366780887, 13.995956969524862 ], [ 102.815432280257554, 13.965490445048777 ], [ 102.802696560708853, 13.943004164231827 ], [ 102.782846643682547, 13.932732543347285 ], [ 102.765902406548534, 13.855889280807409 ], [ 102.731938798146643, 13.874243475142958 ], [ 102.719612958459535, 13.892763845465339 ], [ 102.70524467867962, 13.900520871453438 ], [ 102.676592646779397, 13.8962026521135 ], [ 102.670360843221886, 13.911934479524199 ], [ 102.677826121451901, 13.922822886830097 ], [ 102.6853220925518, 13.921804736482784 ], [ 102.680584454490315, 13.927754249531162 ], [ 102.64677312246819, 13.90436627371985 ], [ 102.643992567410891, 13.926650870283909 ], [ 102.635226781862585, 13.931780028933614 ], [ 102.605526320868464, 13.936456318269819 ], [ 102.595764382150719, 13.94624083306091 ], [ 102.583335542845404, 13.945730446959915 ], [ 102.591471580594217, 13.956157595207978 ], [ 102.585692923367532, 13.963585862280118 ], [ 102.589247272004286, 13.98016540788616 ], [ 102.56962094174088, 13.981397159517645 ], [ 102.559093355640499, 13.993449974356423 ], [ 102.558370883476215, 14.017462148028429 ], [ 102.549546257933812, 14.020633722729414 ], [ 102.546865352289558, 14.03878158339735 ], [ 102.535180086906024, 14.045736399810684 ], [ 102.538731371813554, 14.074250464510078 ], [ 102.533926355860217, 14.077154206647677 ], [ 102.532856820662843, 14.09654800011926 ], [ 102.508659593233503, 14.093235821067196 ], [ 102.498265306559546, 14.108000658564345 ], [ 102.497876058496161, 14.12108419811489 ], [ 102.503109243938042, 14.127518679312852 ], [ 102.500269012570328, 14.132812649533253 ], [ 102.507445713555725, 14.132610911567147 ], [ 102.522279865446166, 14.143124419844849 ], [ 102.55015852938115, 14.135248717114751 ], [ 102.586027116563884, 14.156893202920983 ], [ 102.592444033470557, 14.166118928233066 ], [ 102.608024353000062, 14.171055647101685 ], [ 102.634306279957499, 14.148861071239249 ], [ 102.655347786550209, 14.16562123895733 ], [ 102.682490415620023, 14.151278406652233 ], [ 102.690711387920757, 14.142916461627959 ], [ 102.688678195842172, 14.134343202042052 ], [ 102.695737448255471, 14.130574910981293 ], [ 102.734498362067129, 14.141503547100816 ], [ 102.747689809529334, 14.139736631691644 ], [ 102.765725097210975, 14.140778719773788 ], [ 102.776959405526057, 14.162467461669854 ], [ 102.781824640336097, 14.163431937478782 ], [ 102.783798725478434, 14.155938685909062 ], [ 102.792327290697585, 14.173034845669388 ], [ 102.800221420612687, 14.158916421397441 ], [ 102.80420332801647, 14.159707183408754 ], [ 102.806397664443338, 14.171564036833185 ], [ 102.815707767327496, 14.17132114844437 ], [ 102.828866052537123, 14.157799599107188 ], [ 102.831316087134326, 14.168083918234869 ], [ 102.862369052622043, 14.148982899908606 ], [ 102.869814951799071, 14.150995851609578 ], [ 102.872209275214971, 14.170502371769318 ], [ 102.876885963042938, 14.174071117682423 ], [ 102.890768669258549, 14.170849048897908 ], [ 102.897770886225828, 14.164373718959908 ], [ 102.904651992335673, 14.166650607735793 ], [ 102.929764676231329, 14.176386447975682 ], [ 102.937293751387315, 14.165216343192974 ], [ 102.940371767541521, 14.148901829766382 ], [ 102.925457952571733, 14.133428099674301 ], [ 102.922925549265543, 14.105034138608813 ], [ 102.908889715232689, 14.09530994462625 ], [ 102.901120110515052, 14.083458595523345 ], [ 102.90271506870161, 14.067635097635037 ], [ 102.897595463773342, 14.052419820850197 ], [ 102.911519880551509, 14.017980466284085 ], [ 102.902092418826754, 14.016422787189093 ], [ 102.894028324050979, 14.007449157727971 ], [ 102.886042311511659, 14.010931995558936 ], [ 102.879580631968494, 14.004263437204216 ], [ 102.868252362502062, 14.005471131117776 ], [ 102.858264366780887, 13.995956969524862 ] ] ] ] } },
{ "type": "Feature", "properties": { "amp_code": "2701", "amp_th": "เมืองสระแก้ว", "amp_en": "Mueang Sa Kaeo", "pro_code": "27", "pro_th": "สระแก้ว", "pro_en": "Sa Kaeo", "reg_nesdb": "East", "reg_royin": "East", "perimeter": 220.60663368830001, "area_sqkm": 1391.1525854419499, "adm1_code": 27, "adm2_code": 2701 }, "geometry": { "type": "MultiPolygon", "coordinates": [ [ [ [ 102.163858400080883, 13.842215967993713 ], [ 102.179079004203444, 13.822820445626514 ], [ 102.179934645473011, 13.792239098730429 ], [ 102.188017707414602, 13.788626301828394 ], [ 102.199658060865161, 13.771032044080664 ], [ 102.225623595962574, 13.766890463576205 ], [ 102.226268666612285, 13.759326642291324 ], [ 102.233804916777345, 13.752581035593849 ], [ 102.229910253979526, 13.745970698778656 ], [ 102.23270068942054, 13.739390069108151 ], [ 102.22844384584613, 13.727975105964253 ], [ 102.207658970343459, 13.710666725169892 ], [ 102.168898545761181, 13.693846534865001 ], [ 102.15391964358804, 13.684912050192169 ], [ 102.146064610591168, 13.695935055184945 ], [ 102.148589499835481, 13.701359331713704 ], [ 102.147358265849618, 13.712709999643957 ], [ 102.141558143409128, 13.718671468913259 ], [ 102.143575374105808, 13.728477298481675 ], [ 102.129244125837999, 13.736558633019211 ], [ 102.11987737065499, 13.740739802261242 ], [ 102.106577566569683, 13.755929749799991 ], [ 102.088463201815728, 13.762550030726564 ], [ 102.089742305667087, 13.759086595621769 ], [ 102.0832346941026, 13.760701097865116 ], [ 102.078307568221064, 13.755623229306895 ], [ 102.079766745381022, 13.745786511825672 ], [ 102.075860475096746, 13.743819214614591 ], [ 102.067274999492227, 13.742146032119354 ], [ 102.060263398818662, 13.748507257567503 ], [ 102.048518643260309, 13.74789199338103 ], [ 102.035490330301428, 13.724642470700628 ], [ 102.036762956644068, 13.714380132318116 ], [ 102.031151381195585, 13.703676274826234 ], [ 102.016315515205775, 13.705324191524916 ], [ 102.012611448027755, 13.702106891396136 ], [ 102.009723915858316, 13.70982189417963 ], [ 101.999609555077726, 13.714399528499088 ], [ 101.988658554251927, 13.697839122230757 ], [ 101.98537701164534, 13.680081466567284 ], [ 101.943634438916547, 13.692628953123119 ], [ 101.93763014682149, 13.710722011583664 ], [ 101.941605973695275, 13.739053991697407 ], [ 101.936118327384463, 13.740508528166787 ], [ 101.941808636499232, 13.754997083595379 ], [ 101.947694074779591, 13.802179548694905 ], [ 101.942081427226199, 13.811076630563148 ], [ 101.92392158384952, 13.816201270131538 ], [ 101.926811877188598, 13.822958911696324 ], [ 101.920315519918688, 13.831823980272496 ], [ 101.928642097469705, 13.854690519763439 ], [ 101.904611919444548, 13.882855542954648 ], [ 101.915428955058701, 13.899743681525758 ], [ 101.909833044159143, 13.903146998356377 ], [ 101.909638615536807, 13.908893853520944 ], [ 101.904561216447092, 13.906676390480403 ], [ 101.905763914521089, 13.914512018212854 ], [ 101.911649604435297, 13.933869304468411 ], [ 101.922123987171474, 13.937171975779693 ], [ 101.925506651489542, 13.939524901574698 ], [ 101.930870609370999, 13.933350784359739 ], [ 101.939036793970018, 13.935572131617361 ], [ 101.942083964537815, 13.930881382006579 ], [ 101.951909345191169, 13.935157186294788 ], [ 101.937605563191212, 13.959200548762555 ], [ 101.941404968469882, 13.966448775248255 ], [ 101.939492603245242, 13.983019229046741 ], [ 101.934739516731767, 13.990805379308595 ], [ 101.924865718909004, 13.993469608120462 ], [ 101.93633241571969, 14.001991907420617 ], [ 101.939777488199041, 14.016443749889829 ], [ 101.955262225199021, 14.023271592049495 ], [ 101.994167644364069, 14.032626699681622 ], [ 102.075248044087758, 14.035066776545836 ], [ 102.085412661179475, 14.061803725834586 ], [ 102.087656346825582, 14.087823014943984 ], [ 102.098823819506364, 14.10388891775245 ], [ 102.098229390646196, 14.126425856507026 ], [ 102.10672819594744, 14.151359012845395 ], [ 102.119837061010756, 14.148979957175056 ], [ 102.132153214995583, 14.137781541770273 ], [ 102.163710126404453, 14.14061634690319 ], [ 102.171611044302367, 14.158938237801751 ], [ 102.166281043763249, 14.164879088756321 ], [ 102.166670785981964, 14.172499501299532 ], [ 102.180655238941299, 14.194828357268628 ], [ 102.192001297551855, 14.195012481162262 ], [ 102.20667196322016, 14.174545407126907 ], [ 102.211331252557244, 14.17276291244613 ], [ 102.210622371806267, 14.153699068256463 ], [ 102.216022616937749, 14.144641452049763 ], [ 102.238179655390582, 14.144385333674967 ], [ 102.246130186600396, 14.139871763519993 ], [ 102.268775607781421, 14.146305738077343 ], [ 102.27165139670366, 14.128760709873127 ], [ 102.288886631338201, 14.135054317982179 ], [ 102.307261090393467, 14.120060580652549 ], [ 102.325970397776857, 14.127860352315768 ], [ 102.32148355353273, 14.110287546886747 ], [ 102.324638201612842, 14.094948633460572 ], [ 102.311437064763425, 14.086612079316128 ], [ 102.30613475111744, 14.067143576955273 ], [ 102.311677065884723, 14.056693714989272 ], [ 102.311366367821449, 14.02672416744009 ], [ 102.285928140433725, 14.008502206048417 ], [ 102.275279558478871, 14.002379271690513 ], [ 102.276504047021561, 13.997072908491083 ], [ 102.263315107451703, 13.979761668463262 ], [ 102.262779571551633, 13.967760273968757 ], [ 102.242806089953618, 13.947341965533942 ], [ 102.210791741917731, 13.939761086653979 ], [ 102.194588419251033, 13.922242557561145 ], [ 102.2055967356617, 13.916356289098017 ], [ 102.207243967128804, 13.908278047980119 ], [ 102.195521152179964, 13.891469906113095 ], [ 102.187111258235078, 13.867600466309268 ], [ 102.158497681509715, 13.8559598373316 ], [ 102.166037224604281, 13.84768924039202 ], [ 102.163858400080883, 13.842215967993713 ] ] ] ] } }
]
}
