{
"type": "FeatureCollection",
"name": "adm2_19",
"crs": { "type": "name", "properties": { "name": "urn:ogc:def:crs:OGC:1.3:CRS84" } },
"features": [
{ "type": "Feature", "properties": { "amp_code": "1905", "amp_th": "หนองแซง", "amp_en": "Nong Saeng", "pro_code": "19", "pro_th": "สระบุรี", "pro_en": "Saraburi", "reg_nesdb": "Central", "reg_royin": "Central", "perimeter": 44.212430591939999, "area_sqkm": 85.950482225960002 }, "geometry": { "type": "MultiPolygon", "coordinates": [ [ [ [ 100.824136039522259, 14.437408743768145 ], [ 100.792034813828536, 14.44285732619217 ], [ 100.785475825143749, 14.440914266601551 ], [ 100.776164697132032, 14.431057639080715 ], [ 100.767384109559273, 14.431044519129689 ], [ 100.771368071380095, 14.43577421418596 ], [ 100.76022029462942, 14.451116000240978 ], [ 100.766164569948216, 14.454178285888974 ], [ 100.770355393098342, 14.466085864484917 ], [ 100.766120424814801, 14.478735713507692 ], [ 100.772170779726807, 14.479353345540208 ], [ 100.772977414648338, 14.483322792524639 ], [ 100.765327437575081, 14.484097747386466 ], [ 100.772365904897072, 14.492751627560894 ], [ 100.767872141942277, 14.498312142906578 ], [ 100.762999262472931, 14.493939411830107 ], [ 100.74992655879737, 14.509309016562915 ], [ 100.748946499311216, 14.517187236480678 ], [ 100.766504168919568, 14.525033842586554 ], [ 100.777584561333214, 14.530982832252842 ], [ 100.792804671533617, 14.533119557797177 ], [ 100.807992907271981, 14.524892687121076 ], [ 100.819186934962445, 14.513211950250128 ], [ 100.840586503832824, 14.521009383041152 ], [ 100.850342873867547, 14.521672551890537 ], [ 100.851631107485815, 14.506596888983145 ], [ 100.853963189890777, 14.48877462654259 ], [ 100.845494434287346, 14.474616202964341 ], [ 100.845356008491535, 14.459471485129205 ], [ 100.829492620010996, 14.43369908418096 ], [ 100.824136039522259, 14.437408743768145 ] ] ] ] } },
{ "type": "Feature", "properties": { "amp_code": "1906", "amp_th": "บ้านหมอ", "amp_en": "Ban Mo", "pro_code": "19", "pro_th": "สระบุรี", "pro_en": "Saraburi", "reg_nesdb": "Central", "reg_royin": "Central", "perimeter": 73.095264053470004, "area_sqkm": 154.72530421732 }, "geometry": { "type": "MultiPolygon", "coordinates": [ [ [ [ 100.677056473913083, 14.56231807617181 ], [ 100.675099087024591, 14.55709671734966 ], [ 100.670186423381026, 14.556583891389291 ], [ 100.657953377578593, 14.549532898259105 ], [ 100.644396589370785, 14.548761962628015 ], [ 100.632969837783236, 14.551049568201236 ], [ 100.61939001660096, 14.560341643901797 ], [ 100.634776110709694, 14.567939848277224 ], [ 100.635399008891582, 14.578946475029532 ], [ 100.635980735090101, 14.589231436231975 ], [ 100.643691978896271, 14.598371512189257 ], [ 100.646445686876362, 14.609529084547374 ], [ 100.659929932665392, 14.621386569464459 ], [ 100.64118671973911, 14.6366697582176 ], [ 100.676134714229832, 14.6377358543331 ], [ 100.680263528480552, 14.642652211511516 ], [ 100.673863925313825, 14.657155976831 ], [ 100.678564149968267, 14.660408585785897 ], [ 100.677472165973128, 14.671153760574521 ], [ 100.67987142205132, 14.675776366386161 ], [ 100.704351735546183, 14.668491889416968 ], [ 100.713919676102506, 14.663231458177259 ], [ 100.716657231923421, 14.656010255277792 ], [ 100.725596238114832, 14.654491249592148 ], [ 100.748185302994074, 14.657353618720276 ], [ 100.782441273647521, 14.653085341175494 ], [ 100.783089653729036, 14.646307748508592 ], [ 100.789513100620866, 14.646431282141261 ], [ 100.803805053538611, 14.637016707928646 ], [ 100.792710012616396, 14.616159861400655 ], [ 100.804519041646884, 14.607804969803015 ], [ 100.8040840048467, 14.599056513409815 ], [ 100.797533455014133, 14.592248597989641 ], [ 100.795890521834949, 14.588133279867987 ], [ 100.782197333594553, 14.581830418946202 ], [ 100.780668496548927, 14.567537563710895 ], [ 100.762708144768808, 14.568554832661784 ], [ 100.756646290339702, 14.569505369063693 ], [ 100.731562105261602, 14.56888471670093 ], [ 100.724195124901385, 14.568500814334438 ], [ 100.72268733747768, 14.576509433229241 ], [ 100.712617544896034, 14.575484189772357 ], [ 100.701983784318358, 14.575256830729584 ], [ 100.682674351488586, 14.584972578522388 ], [ 100.677653986379937, 14.594598198115875 ], [ 100.655969534277105, 14.606075703482551 ], [ 100.677056473913083, 14.56231807617181 ] ] ] ] } },
{ "type": "Feature", "properties": { "amp_code": "1903", "amp_th": "หนองแค", "amp_en": "Nong Khae", "pro_code": "19", "pro_th": "สระบุรี", "pro_en": "Saraburi", "reg_nesdb": "Central", "reg_royin": "Central", "perimeter": 88.872563858890004, "area_sqkm": 307.56247517529999 }, "geometry": { "type": "MultiPolygon", "coordinates": [ [ [ [ 100.906293201885433, 14.299699579301993 ], [ 100.906444965474165, 14.282512632974665 ], [ 100.891652152592144, 14.275469563388548 ], [ 100.845967068003731, 14.253707135849986 ], [ 100.823063471059442, 14.243899907913509 ], [ 100.823601799535254, 14.276283841792033 ], [ 100.82358564334784, 14.285786056039441 ], [ 100.823541732155491, 14.329525745369889 ], [ 100.815460661006, 14.326866186420286 ], [ 100.788526071901501, 14.322874776072785 ], [ 100.784529928316047, 14.322806551302534 ], [ 100.77280722298093, 14.329737220492007 ], [ 100.782151267859234, 14.339830392723885 ], [ 100.784708664110639, 14.349790139365103 ], [ 100.793015972468211, 14.364413973166814 ], [ 100.787950626971721, 14.364637541039299 ], [ 100.7868694826265, 14.370120393745294 ], [ 100.788012055217422, 14.380604730538185 ], [ 100.797088111546117, 14.390651549013185 ], [ 100.781089719856624, 14.398596014371211 ], [ 100.782028354969171, 14.405872334991869 ], [ 100.779037205710424, 14.411994320601206 ], [ 100.770428022437812, 14.407239555125875 ], [ 100.759701167850267, 14.413520883458887 ], [ 100.76821021521819, 14.420707988743668 ], [ 100.767384109559273, 14.431044519129689 ], [ 100.776164697132032, 14.431057639080715 ], [ 100.785475825143749, 14.440914266601551 ], [ 100.792034813828536, 14.44285732619217 ], [ 100.824136039522259, 14.437408743768145 ], [ 100.829492620010996, 14.43369908418096 ], [ 100.845356008491535, 14.459471485129205 ], [ 100.849137000064516, 14.45770322145596 ], [ 100.865206376203403, 14.452379925864649 ], [ 100.872920270333395, 14.444291206572279 ], [ 100.875081448372157, 14.44516646584397 ], [ 100.891349938338834, 14.457288836121153 ], [ 100.917476918586743, 14.461655996239484 ], [ 100.92895671660348, 14.459635023895247 ], [ 100.939188632254712, 14.433575983564809 ], [ 100.939680106192952, 14.433643108890594 ], [ 100.948576079388403, 14.421208137978759 ], [ 100.944274713491851, 14.413914504420683 ], [ 100.962044997474379, 14.394974942781351 ], [ 100.94157809315135, 14.365151845924288 ], [ 100.932920508335826, 14.360928856788252 ], [ 100.932236970615193, 14.353313791576007 ], [ 100.930707533447404, 14.345885219804449 ], [ 100.920414846560547, 14.345741741754681 ], [ 100.9313322846196, 14.336239655106684 ], [ 100.933017297502801, 14.328641429980385 ], [ 100.938755008060795, 14.31438134957615 ], [ 100.906293201885433, 14.299699579301993 ] ] ] ] } },
{ "type": "Feature", "properties": { "amp_code": "1904", "amp_th": "วิหารแดง", "amp_en": "Wihan Daeng", "pro_code": "19", "pro_th": "สระบุรี", "pro_en": "Saraburi", "reg_nesdb": "Central", "reg_royin": "Central", "perimeter": 73.725834915709996, "area_sqkm": 183.1304564573 }, "geometry": { "type": "MultiPolygon", "coordinates": [ [ [ [ 100.978415070739203, 14.290327658746595 ], [ 100.951718178463892, 14.272146155923732 ], [ 100.892328249354122, 14.24370197582846 ], [ 100.891652152592144, 14.275469563388548 ], [ 100.906444965474165, 14.282512632974665 ], [ 100.906293201885433, 14.299699579301993 ], [ 100.938755008060795, 14.31438134957615 ], [ 100.933017297502801, 14.328641429980385 ], [ 100.9313322846196, 14.336239655106684 ], [ 100.920414846560547, 14.345741741754681 ], [ 100.930707533447404, 14.345885219804449 ], [ 100.932236970615193, 14.353313791576007 ], [ 100.932920508335826, 14.360928856788252 ], [ 100.94157809315135, 14.365151845924288 ], [ 100.962044997474379, 14.394974942781351 ], [ 100.944274713491851, 14.413914504420683 ], [ 100.948576079388403, 14.421208137978759 ], [ 100.939680106192952, 14.433643108890594 ], [ 100.946171644819998, 14.436290585350315 ], [ 100.955086948535865, 14.426039953655495 ], [ 100.963146277531195, 14.427257413788885 ], [ 100.96947326823468, 14.421469565329913 ], [ 100.971416066919446, 14.428478476565267 ], [ 100.98219189893419, 14.429769688880455 ], [ 100.990870514665531, 14.419460040998084 ], [ 100.994489862488322, 14.423009218192067 ], [ 101.000275217885402, 14.416838902760999 ], [ 101.025193979313812, 14.408715884288377 ], [ 101.033635726839691, 14.413506217352436 ], [ 101.04030947978886, 14.41316963010448 ], [ 101.053420016415089, 14.412514899800939 ], [ 101.057978715769465, 14.398547572663453 ], [ 101.054276479679316, 14.391621596458503 ], [ 101.063040727765269, 14.377096929747125 ], [ 101.051522913019937, 14.3580054966906 ], [ 101.049268206504749, 14.347569590771563 ], [ 101.017758470830969, 14.316001969155398 ], [ 101.013784435344874, 14.301000601212403 ], [ 100.989350321189548, 14.297867103556555 ], [ 100.986431568330644, 14.286897974487195 ], [ 100.983792860740891, 14.291127847637783 ], [ 100.978415070739203, 14.290327658746595 ] ] ] ] } },
{ "type": "Feature", "properties": { "amp_code": "1901", "amp_th": "เมืองสระบุรี", "amp_en": "Mueang Saraburi", "pro_code": "19", "pro_th": "สระบุรี", "pro_en": "Saraburi", "reg_nesdb": "Central", "reg_royin": "Central", "perimeter": 81.568333366019999, "area_sqkm": 180.46763108022 }, "geometry": { "type": "MultiPolygon", "coordinates": [ [ [ [ 100.997192149366555, 14.456979639196575 ], [ 101.00157631182833, 14.445516465980955 ], [ 101.000275217885402, 14.416838902760999 ], [ 100.994489862488322, 14.423009218192067 ], [ 100.990870514665531, 14.419460040998084 ], [ 100.98219189893419, 14.429769688880455 ], [ 100.971416066919446, 14.428478476565267 ], [ 100.96947326823468, 14.421469565329913 ], [ 100.963146277531195, 14.427257413788885 ], [ 100.955086948535865, 14.426039953655495 ], [ 100.946171644819998, 14.436290585350315 ], [ 100.939680106192952, 14.433643108890594 ], [ 100.939188632254712, 14.433575983564809 ], [ 100.92895671660348, 14.459635023895247 ], [ 100.917476918586743, 14.461655996239484 ], [ 100.891349938338834, 14.457288836121153 ], [ 100.875081448372157, 14.44516646584397 ], [ 100.872920270333395, 14.444291206572279 ], [ 100.865206376203403, 14.452379925864649 ], [ 100.849137000064516, 14.45770322145596 ], [ 100.845356008491535, 14.459471485129205 ], [ 100.845494434287346, 14.474616202964341 ], [ 100.853963189890777, 14.48877462654259 ], [ 100.851631107485815, 14.506596888983145 ], [ 100.850342873867547, 14.521672551890537 ], [ 100.859072971696179, 14.522474488754062 ], [ 100.861502527069305, 14.52262579589399 ], [ 100.879360649065333, 14.523896564132389 ], [ 100.87679226099722, 14.549471400022799 ], [ 100.884284153182833, 14.555936156802989 ], [ 100.886968037848803, 14.565496322555056 ], [ 100.899236048362354, 14.576974836062158 ], [ 100.907723867035187, 14.577541691414277 ], [ 100.913717366317684, 14.579120502867781 ], [ 100.912871734656932, 14.554164495421359 ], [ 100.92370259945244, 14.555205355340643 ], [ 100.928222165913638, 14.572612026613935 ], [ 100.942923638761471, 14.55602029407852 ], [ 100.949005863458126, 14.556331191428537 ], [ 100.956113465911059, 14.566657622166128 ], [ 100.950826898700655, 14.553846654711894 ], [ 100.958343793319685, 14.553778223712943 ], [ 100.964453257010859, 14.561566561625014 ], [ 100.96201673647046, 14.565981226192767 ], [ 100.970626697892143, 14.567498192470538 ], [ 100.995395402981956, 14.541232801979717 ], [ 100.98883064273906, 14.532233733268466 ], [ 100.981017242318956, 14.533091773005342 ], [ 100.975905313580085, 14.530709656567275 ], [ 100.975307053987947, 14.522689926244741 ], [ 100.98820527992099, 14.497528488636673 ], [ 100.988063581087502, 14.482932883363393 ], [ 100.978768367346348, 14.482798947578239 ], [ 100.967286825036737, 14.491505293250556 ], [ 100.961090061098986, 14.489169074061893 ], [ 100.997192149366555, 14.456979639196575 ] ] ] ] } },
{ "type": "Feature", "properties": { "amp_code": "1902", "amp_th": "แก่งคอย", "amp_en": "Kaeng Khoi", "pro_code": "19", "pro_th": "สระบุรี", "pro_en": "Saraburi", "reg_nesdb": "Central", "reg_royin": "Central", "perimeter": 164.34355242723001, "area_sqkm": 768.50003342741002 }, "geometry": { "type": "MultiPolygon", "coordinates": [ [ [ [ 101.195206472391789, 14.457326591935294 ], [ 101.188260945821568, 14.44539724967872 ], [ 101.176347234722257, 14.436581213286379 ], [ 101.175198757752582, 14.430266639317379 ], [ 101.210561355735607, 14.416175189444704 ], [ 101.202248296279691, 14.402551184855065 ], [ 101.211871197652272, 14.379157965738814 ], [ 101.210210629058835, 14.372006954704922 ], [ 101.186103102303846, 14.367223793583161 ], [ 101.185014212353764, 14.353817705128987 ], [ 101.17685268501522, 14.347461439497032 ], [ 101.167260497781328, 14.348417915290575 ], [ 101.165125707785876, 14.342973986924834 ], [ 101.164293294185242, 14.342934532120532 ], [ 101.164018493690804, 14.343113340700308 ], [ 101.157296958819984, 14.34823545438088 ], [ 101.158222245841046, 14.357746568806599 ], [ 101.146565462783002, 14.374441726496155 ], [ 101.116715222282451, 14.383828217291464 ], [ 101.085390916671585, 14.382542031797309 ], [ 101.075807120135408, 14.390119850706398 ], [ 101.071340409796605, 14.405630679043965 ], [ 101.06170593048337, 14.414784289401299 ], [ 101.056080201902631, 14.414390561681637 ], [ 101.053420016415089, 14.412514899800939 ], [ 101.04030947978886, 14.41316963010448 ], [ 101.033635726839691, 14.413506217352436 ], [ 101.025193979313812, 14.408715884288377 ], [ 101.000275217885402, 14.416838902760999 ], [ 101.00157631182833, 14.445516465980955 ], [ 100.997192149366555, 14.456979639196575 ], [ 100.961090061098986, 14.489169074061893 ], [ 100.967286825036737, 14.491505293250556 ], [ 100.978768367346348, 14.482798947578239 ], [ 100.988063581087502, 14.482932883363393 ], [ 100.98820527992099, 14.497528488636673 ], [ 100.975307053987947, 14.522689926244741 ], [ 100.975905313580085, 14.530709656567275 ], [ 100.981017242318956, 14.533091773005342 ], [ 100.98883064273906, 14.532233733268466 ], [ 100.995395402981956, 14.541232801979717 ], [ 100.970626697892143, 14.567498192470538 ], [ 100.96201673647046, 14.565981226192767 ], [ 100.961788630274995, 14.56936747531523 ], [ 100.943234317771939, 14.624738566420634 ], [ 100.940600664773669, 14.626107030743595 ], [ 100.949789202792331, 14.65587483505729 ], [ 100.951862948058093, 14.677708715682195 ], [ 100.934544860955413, 14.695170762540943 ], [ 100.960539376236966, 14.69067582854095 ], [ 100.963143295812415, 14.699427462333082 ], [ 100.954090468811017, 14.732247915470692 ], [ 100.962003716509344, 14.745239178030021 ], [ 100.966349625850484, 14.751448950846617 ], [ 100.991936392106865, 14.740384743917367 ], [ 100.990322151075446, 14.76339811897321 ], [ 101.000316984926272, 14.771845741758654 ], [ 101.023815999916764, 14.809123181268138 ], [ 101.054137757825899, 14.790182312272352 ], [ 101.058799771713666, 14.778143888711401 ], [ 101.05420824571766, 14.774285619149659 ], [ 101.061656725695443, 14.767319984241167 ], [ 101.060756208640754, 14.759587277144378 ], [ 101.063176562394943, 14.755541125860617 ], [ 101.054847397988837, 14.749088822434192 ], [ 101.060185857929284, 14.73493218743142 ], [ 101.053069350073486, 14.720921261783021 ], [ 101.062740721217338, 14.71972724014328 ], [ 101.061756202223833, 14.725553157865363 ], [ 101.067107372827124, 14.732292848667425 ], [ 101.075163030041352, 14.729514389309609 ], [ 101.074253548345908, 14.716366835385445 ], [ 101.078118859928978, 14.713626957878112 ], [ 101.072337050096422, 14.706360465621946 ], [ 101.072394775859209, 14.693349918192197 ], [ 101.109806171387376, 14.658752166209922 ], [ 101.122657602456172, 14.649044500707733 ], [ 101.125203365921337, 14.654983938394762 ], [ 101.132736797296332, 14.648254274851784 ], [ 101.124757431150314, 14.622229931939865 ], [ 101.135029081805229, 14.602699487470508 ], [ 101.136378095554903, 14.589728301187579 ], [ 101.16412252369949, 14.567338156493314 ], [ 101.167075153239878, 14.55986633924096 ], [ 101.163100752439846, 14.553053880753795 ], [ 101.141617906830547, 14.538107029371561 ], [ 101.147399555007624, 14.523654029777171 ], [ 101.169288884928648, 14.506684066601162 ], [ 101.171036780073933, 14.498549113080113 ], [ 101.162724267170418, 14.486461120773692 ], [ 101.168033175224195, 14.479368664459065 ], [ 101.195206472391789, 14.457326591935294 ] ] ] ] } },
{ "type": "Feature", "properties": { "amp_code": "1909", "amp_th": "พระพุทธบาท", "amp_en": "Phra Phutthabat", "pro_code": "19", "pro_th": "สระบุรี", "pro_en": "Saraburi", "reg_nesdb": "Central", "reg_royin": "Central", "perimeter": 91.406102479029997, "area_sqkm": 222.90969699805001 }, "geometry": { "type": "MultiPolygon", "coordinates": [ [ [ [ 100.846251371656706, 14.650932610029068 ], [ 100.845158333198938, 14.634907755243502 ], [ 100.839224009437103, 14.624149287225865 ], [ 100.82362787240956, 14.619618670655619 ], [ 100.822123382192984, 14.606910083942685 ], [ 100.814078378842154, 14.600231875312183 ], [ 100.8040840048467, 14.599056513409815 ], [ 100.804519041646884, 14.607804969803015 ], [ 100.792710012616396, 14.616159861400655 ], [ 100.803805053538611, 14.637016707928646 ], [ 100.789513100620866, 14.646431282141261 ], [ 100.783089653729036, 14.646307748508592 ], [ 100.782441273647521, 14.653085341175494 ], [ 100.748185302994074, 14.657353618720276 ], [ 100.752135560830865, 14.669053845511119 ], [ 100.764559086905322, 14.680434397186863 ], [ 100.769977430969448, 14.687124005553526 ], [ 100.770567333561246, 14.703663047554297 ], [ 100.781613372277036, 14.709626890113434 ], [ 100.773732300480006, 14.711840565897402 ], [ 100.777232906197128, 14.719363593718105 ], [ 100.758338740048771, 14.727423726778857 ], [ 100.763796300352737, 14.742231185683588 ], [ 100.746676545130853, 14.743103321199611 ], [ 100.718377829744085, 14.755001292273645 ], [ 100.725665342765538, 14.760262390541783 ], [ 100.736945426332468, 14.774750205845713 ], [ 100.758135812384609, 14.782441307361825 ], [ 100.774068342122447, 14.789707627976682 ], [ 100.777428416536964, 14.795964032146923 ], [ 100.801783740784813, 14.79190466128124 ], [ 100.828310422812137, 14.804915320701673 ], [ 100.846908927633194, 14.80448796795925 ], [ 100.851663269229064, 14.797245962466871 ], [ 100.858677361383428, 14.78851035449275 ], [ 100.874949519758985, 14.782039057567218 ], [ 100.881936838575683, 14.764221872360741 ], [ 100.892471487014703, 14.764631715592325 ], [ 100.899479894268822, 14.772056902796319 ], [ 100.910293158423656, 14.769639517409749 ], [ 100.926452954919867, 14.754802105862217 ], [ 100.941001716324593, 14.750829524251095 ], [ 100.942510929963134, 14.741493014812047 ], [ 100.931630581316398, 14.745039640403354 ], [ 100.930045460104992, 14.75102179282343 ], [ 100.91347027400181, 14.738865810966697 ], [ 100.907980493384628, 14.74073099316227 ], [ 100.905989890549307, 14.734537795410148 ], [ 100.880871637951159, 14.739894522271603 ], [ 100.8723503063556, 14.729491743657475 ], [ 100.860111767066059, 14.724859383146647 ], [ 100.852572223722419, 14.727725920093938 ], [ 100.847363293340578, 14.713094254284369 ], [ 100.844411097019886, 14.703965158931474 ], [ 100.853584049048351, 14.68712319598467 ], [ 100.850841487955719, 14.682401590816129 ], [ 100.858214412154467, 14.674611246950034 ], [ 100.85855837737202, 14.664081112119996 ], [ 100.846251371656706, 14.650932610029068 ] ] ] ] } },
{ "type": "Feature", "properties": { "amp_code": "1907", "amp_th": "ดอนพุด", "amp_en": "Don Phut", "pro_code": "19", "pro_th": "สระบุรี", "pro_en": "Saraburi", "reg_nesdb": "Central", "reg_royin": "Central", "perimeter": 32.395433893049997, "area_sqkm": 56.710548708700003 }, "geometry": { "type": "MultiPolygon", "coordinates": [ [ [ [ 100.643691978896271, 14.598371512189257 ], [ 100.635980735090101, 14.589231436231975 ], [ 100.635399008891582, 14.578946475029532 ], [ 100.634776110709694, 14.567939848277224 ], [ 100.61939001660096, 14.560341643901797 ], [ 100.604278766248825, 14.556050785928067 ], [ 100.6032457303358, 14.555957312439471 ], [ 100.60260317321972, 14.556527749800944 ], [ 100.602042425440857, 14.557183490983938 ], [ 100.603167273286275, 14.578487419158742 ], [ 100.575285464017057, 14.59685927374273 ], [ 100.578912936353888, 14.599809581981324 ], [ 100.576711975009061, 14.604603605354765 ], [ 100.582181693078411, 14.624281888241919 ], [ 100.584069445623157, 14.628152238801501 ], [ 100.584319451027469, 14.629035183799889 ], [ 100.593057160943957, 14.641861080490346 ], [ 100.602397856340872, 14.653838423311983 ], [ 100.611651440025199, 14.646298603062572 ], [ 100.626723426391649, 14.654930414966074 ], [ 100.64118671973911, 14.6366697582176 ], [ 100.659929932665392, 14.621386569464459 ], [ 100.646445686876362, 14.609529084547374 ], [ 100.643691978896271, 14.598371512189257 ] ] ] ] } },
{ "type": "Feature", "properties": { "amp_code": "1908", "amp_th": "หนองโดน", "amp_en": "Nong Don", "pro_code": "19", "pro_th": "สระบุรี", "pro_en": "Saraburi", "reg_nesdb": "Central", "reg_royin": "Central", "perimeter": 58.662115031390002, "area_sqkm": 133.65804411264 }, "geometry": { "type": "MultiPolygon", "coordinates": [ [ [ [ 100.677472165973128, 14.671153760574521 ], [ 100.678564149968267, 14.660408585785897 ], [ 100.673863925313825, 14.657155976831 ], [ 100.680263528480552, 14.642652211511516 ], [ 100.676134714229832, 14.6377358543331 ], [ 100.64118671973911, 14.6366697582176 ], [ 100.626723426391649, 14.654930414966074 ], [ 100.617098733863457, 14.663024738114903 ], [ 100.639450012328467, 14.674164894514057 ], [ 100.656054827247772, 14.703396394508507 ], [ 100.653231524016505, 14.71166050294703 ], [ 100.664289280805363, 14.736892663576368 ], [ 100.667714402376845, 14.733301337698977 ], [ 100.67019236553972, 14.739257656578973 ], [ 100.694296754035392, 14.762268243886892 ], [ 100.712233667534193, 14.761771100378338 ], [ 100.725665342765538, 14.760262390541783 ], [ 100.718377829744085, 14.755001292273645 ], [ 100.746676545130853, 14.743103321199611 ], [ 100.763796300352737, 14.742231185683588 ], [ 100.758338740048771, 14.727423726778857 ], [ 100.777232906197128, 14.719363593718105 ], [ 100.773732300480006, 14.711840565897402 ], [ 100.781613372277036, 14.709626890113434 ], [ 100.770567333561246, 14.703663047554297 ], [ 100.769977430969448, 14.687124005553526 ], [ 100.764559086905322, 14.680434397186863 ], [ 100.752135560830865, 14.669053845511119 ], [ 100.748185302994074, 14.657353618720276 ], [ 100.725596238114832, 14.654491249592148 ], [ 100.716657231923421, 14.656010255277792 ], [ 100.713919676102506, 14.663231458177259 ], [ 100.704351735546183, 14.668491889416968 ], [ 100.67987142205132, 14.675776366386161 ], [ 100.677472165973128, 14.671153760574521 ] ] ] ] } },
{ "type": "Feature", "properties": { "amp_code": "1912", "amp_th": "วังม่วง", "amp_en": "Wang Muang", "pro_code": "19", "pro_th": "สระบุรี", "pro_en": "Saraburi", "reg_nesdb": "Central", "reg_royin": "Central", "perimeter": 84.840606405100004, "area_sqkm": 276.28956741585 }, "geometry": { "type": "MultiPolygon", "coordinates": [ [ [ [ 101.179291468400336, 14.79023076611157 ], [ 101.177670265470539, 14.777767757457717 ], [ 101.159994227710726, 14.769484265384254 ], [ 101.15381635044659, 14.745929020024096 ], [ 101.13168141027306, 14.72764312766712 ], [ 101.115334159873001, 14.700108776678533 ], [ 101.09289573405502, 14.70420360140643 ], [ 101.086080398474209, 14.710863743271503 ], [ 101.087782992391539, 14.716918494899907 ], [ 101.082708207443517, 14.714554887223413 ], [ 101.075163030041352, 14.729514389309609 ], [ 101.067107372827124, 14.732292848667425 ], [ 101.061756202223833, 14.725553157865363 ], [ 101.062740721217338, 14.71972724014328 ], [ 101.053069350073486, 14.720921261783021 ], [ 101.060185857929284, 14.73493218743142 ], [ 101.054847397988837, 14.749088822434192 ], [ 101.063176562394943, 14.755541125860617 ], [ 101.060756208640754, 14.759587277144378 ], [ 101.073324908453017, 14.76343836132529 ], [ 101.061862766398747, 14.789338507699341 ], [ 101.072555001523867, 14.791125593330053 ], [ 101.068232168171747, 14.81241883028132 ], [ 101.072048624017199, 14.815726800711889 ], [ 101.081426989786223, 14.810977276308057 ], [ 101.077886768722507, 14.818136552904967 ], [ 101.088579592644649, 14.829878271800538 ], [ 101.084833695624667, 14.834413388210457 ], [ 101.091830449018403, 14.850676989289873 ], [ 101.084389038792111, 14.857012321322905 ], [ 101.084669581938286, 14.864100886786877 ], [ 101.078505743585438, 14.86596401357331 ], [ 101.0826947893393, 14.871305937454967 ], [ 101.073360146388239, 14.87857198509287 ], [ 101.086827841157373, 14.887885807311017 ], [ 101.084934000375753, 14.890651151146841 ], [ 101.090679206240722, 14.892225311055499 ], [ 101.090594394569678, 14.899986954743058 ], [ 101.099524326331263, 14.908468051631012 ], [ 101.151405722526619, 14.896916432924034 ], [ 101.181537596666658, 14.917627990025238 ], [ 101.197821712776445, 14.922091556493665 ], [ 101.205630779109725, 14.918446247711879 ], [ 101.226476736854167, 14.919427964871463 ], [ 101.229156058790224, 14.902823121500983 ], [ 101.221160065665799, 14.891536529716101 ], [ 101.224397088738002, 14.872146780888276 ], [ 101.219919217713468, 14.868282325348002 ], [ 101.228881220868018, 14.835403735467896 ], [ 101.225300076397218, 14.824629783342161 ], [ 101.196398515324674, 14.805068694130268 ], [ 101.179291468400336, 14.79023076611157 ] ] ] ] } },
{ "type": "Feature", "properties": { "amp_code": "1913", "amp_th": "เฉลิมพระเกียรติ", "amp_en": "Chaloem Phra Kiat", "pro_code": "19", "pro_th": "สระบุรี", "pro_en": "Saraburi", "reg_nesdb": "Central", "reg_royin": "Central", "perimeter": 81.109286432260006, "area_sqkm": 176.13935779665999 }, "geometry": { "type": "MultiPolygon", "coordinates": [ [ [ [ 100.928222165913638, 14.572612026613935 ], [ 100.92370259945244, 14.555205355340643 ], [ 100.912871734656932, 14.554164495421359 ], [ 100.913717366317684, 14.579120502867781 ], [ 100.907723867035187, 14.577541691414277 ], [ 100.899236048362354, 14.576974836062158 ], [ 100.886968037848803, 14.565496322555056 ], [ 100.893436674926122, 14.585545155870376 ], [ 100.888625991784821, 14.590808777517701 ], [ 100.883355046760443, 14.588083683021587 ], [ 100.88411123982236, 14.594887179993314 ], [ 100.890342592467718, 14.601179823821473 ], [ 100.885333770802006, 14.602226874606142 ], [ 100.88337085097001, 14.615153612037799 ], [ 100.865543425663759, 14.61736763423708 ], [ 100.86653633960826, 14.62263636714848 ], [ 100.873915869317756, 14.634228491197021 ], [ 100.870374272008576, 14.64202905912148 ], [ 100.868113610070381, 14.666824149845576 ], [ 100.85855837737202, 14.664081112119996 ], [ 100.858214412154467, 14.674611246950034 ], [ 100.850841487955719, 14.682401590816129 ], [ 100.853584049048351, 14.68712319598467 ], [ 100.844411097019886, 14.703965158931474 ], [ 100.847363293340578, 14.713094254284369 ], [ 100.852572223722419, 14.727725920093938 ], [ 100.860111767066059, 14.724859383146647 ], [ 100.8723503063556, 14.729491743657475 ], [ 100.880871637951159, 14.739894522271603 ], [ 100.905989890549307, 14.734537795410148 ], [ 100.907980493384628, 14.74073099316227 ], [ 100.91347027400181, 14.738865810966697 ], [ 100.930045460104992, 14.75102179282343 ], [ 100.931630581316398, 14.745039640403354 ], [ 100.942510929963134, 14.741493014812047 ], [ 100.954158430454868, 14.746635153913228 ], [ 100.962003716509344, 14.745239178030021 ], [ 100.954090468811017, 14.732247915470692 ], [ 100.963143295812415, 14.699427462333082 ], [ 100.960539376236966, 14.69067582854095 ], [ 100.934544860955413, 14.695170762540943 ], [ 100.951862948058093, 14.677708715682195 ], [ 100.949789202792331, 14.65587483505729 ], [ 100.940600664773669, 14.626107030743595 ], [ 100.943234317771939, 14.624738566420634 ], [ 100.961788630274995, 14.56936747531523 ], [ 100.96201673647046, 14.565981226192767 ], [ 100.964453257010859, 14.561566561625014 ], [ 100.958343793319685, 14.553778223712943 ], [ 100.950826898700655, 14.553846654711894 ], [ 100.956113465911059, 14.566657622166128 ], [ 100.949005863458126, 14.556331191428537 ], [ 100.942923638761471, 14.55602029407852 ], [ 100.928222165913638, 14.572612026613935 ] ] ] ] } },
{ "type": "Feature", "properties": { "amp_code": "1910", "amp_th": "เสาไห้", "amp_en": "Sao Hai", "pro_code": "19", "pro_th": "สระบุรี", "pro_en": "Saraburi", "reg_nesdb": "Central", "reg_royin": "Central", "perimeter": 52.680680877059999, "area_sqkm": 120.32650780797999 }, "geometry": { "type": "MultiPolygon", "coordinates": [ [ [ [ 100.87679226099722, 14.549471400022799 ], [ 100.879360649065333, 14.523896564132389 ], [ 100.861502527069305, 14.52262579589399 ], [ 100.859072971696179, 14.522474488754062 ], [ 100.850342873867547, 14.521672551890537 ], [ 100.840586503832824, 14.521009383041152 ], [ 100.819186934962445, 14.513211950250128 ], [ 100.807992907271981, 14.524892687121076 ], [ 100.792804671533617, 14.533119557797177 ], [ 100.777584561333214, 14.530982832252842 ], [ 100.774250007074045, 14.550700358076371 ], [ 100.780668496548927, 14.567537563710895 ], [ 100.782197333594553, 14.581830418946202 ], [ 100.795890521834949, 14.588133279867987 ], [ 100.797533455014133, 14.592248597989641 ], [ 100.8040840048467, 14.599056513409815 ], [ 100.814078378842154, 14.600231875312183 ], [ 100.822123382192984, 14.606910083942685 ], [ 100.82362787240956, 14.619618670655619 ], [ 100.839224009437103, 14.624149287225865 ], [ 100.845158333198938, 14.634907755243502 ], [ 100.846251371656706, 14.650932610029068 ], [ 100.85855837737202, 14.664081112119996 ], [ 100.868113610070381, 14.666824149845576 ], [ 100.870374272008576, 14.64202905912148 ], [ 100.873915869317756, 14.634228491197021 ], [ 100.86653633960826, 14.62263636714848 ], [ 100.865543425663759, 14.61736763423708 ], [ 100.88337085097001, 14.615153612037799 ], [ 100.885333770802006, 14.602226874606142 ], [ 100.890342592467718, 14.601179823821473 ], [ 100.88411123982236, 14.594887179993314 ], [ 100.883355046760443, 14.588083683021587 ], [ 100.888625991784821, 14.590808777517701 ], [ 100.893436674926122, 14.585545155870376 ], [ 100.886968037848803, 14.565496322555056 ], [ 100.884284153182833, 14.555936156802989 ], [ 100.87679226099722, 14.549471400022799 ] ] ] ] } },
{ "type": "Feature", "properties": { "amp_code": "1911", "amp_th": "มวกเหล็ก", "amp_en": "Muak Lek", "pro_code": "19", "pro_th": "สระบุรี", "pro_en": "Saraburi", "reg_nesdb": "Central", "reg_royin": "Central", "perimeter": 230.21124612893999, "area_sqkm": 821.28034606161998 }, "geometry": { "type": "MultiPolygon", "coordinates": [ [ [ [ 101.204357331440875, 14.649885082036857 ], [ 101.208382046025321, 14.630624688540751 ], [ 101.204074822256771, 14.623517141151586 ], [ 101.207443329145605, 14.613880332545683 ], [ 101.204295009337358, 14.608029018221913 ], [ 101.215410176045964, 14.587131551295208 ], [ 101.20551945168917, 14.580286891069557 ], [ 101.200845732675688, 14.565741646126266 ], [ 101.193284057990653, 14.558865311560204 ], [ 101.19474383319573, 14.554214006866021 ], [ 101.184772502941485, 14.551393265444915 ], [ 101.181059711831594, 14.543622045276825 ], [ 101.187575757783307, 14.530010903078866 ], [ 101.195451218273547, 14.530924415248249 ], [ 101.223092041631702, 14.50414418114808 ], [ 101.242782448911271, 14.471530481968289 ], [ 101.22487482364869, 14.472567982470954 ], [ 101.225488327080996, 14.463466645126369 ], [ 101.233863776900691, 14.458866085335947 ], [ 101.231830701676969, 14.45224191199366 ], [ 101.222127864896393, 14.446126141246536 ], [ 101.229318185618851, 14.434354758730294 ], [ 101.22740127418146, 14.430741661827556 ], [ 101.213782324513474, 14.437393724370732 ], [ 101.209168866705966, 14.428625990230369 ], [ 101.210561355735607, 14.416175189444704 ], [ 101.175198757752582, 14.430266639317379 ], [ 101.176347234722257, 14.436581213286379 ], [ 101.188260945821568, 14.44539724967872 ], [ 101.195206472391789, 14.457326591935294 ], [ 101.168033175224195, 14.479368664459065 ], [ 101.162724267170418, 14.486461120773692 ], [ 101.171036780073933, 14.498549113080113 ], [ 101.169288884928648, 14.506684066601162 ], [ 101.147399555007624, 14.523654029777171 ], [ 101.141617906830547, 14.538107029371561 ], [ 101.163100752439846, 14.553053880753795 ], [ 101.167075153239878, 14.55986633924096 ], [ 101.16412252369949, 14.567338156493314 ], [ 101.136378095554903, 14.589728301187579 ], [ 101.135029081805229, 14.602699487470508 ], [ 101.124757431150314, 14.622229931939865 ], [ 101.132736797296332, 14.648254274851784 ], [ 101.125203365921337, 14.654983938394762 ], [ 101.122657602456172, 14.649044500707733 ], [ 101.109806171387376, 14.658752166209922 ], [ 101.072394775859209, 14.693349918192197 ], [ 101.072337050096422, 14.706360465621946 ], [ 101.078118859928978, 14.713626957878112 ], [ 101.074253548345908, 14.716366835385445 ], [ 101.075163030041352, 14.729514389309609 ], [ 101.082708207443517, 14.714554887223413 ], [ 101.087782992391539, 14.716918494899907 ], [ 101.086080398474209, 14.710863743271503 ], [ 101.09289573405502, 14.70420360140643 ], [ 101.115334159873001, 14.700108776678533 ], [ 101.13168141027306, 14.72764312766712 ], [ 101.15381635044659, 14.745929020024096 ], [ 101.159994227710726, 14.769484265384254 ], [ 101.177670265470539, 14.777767757457717 ], [ 101.179291468400336, 14.79023076611157 ], [ 101.196398515324674, 14.805068694130268 ], [ 101.225300076397218, 14.824629783342161 ], [ 101.228881220868018, 14.835403735467896 ], [ 101.219919217713468, 14.868282325348002 ], [ 101.224397088738002, 14.872146780888276 ], [ 101.221160065665799, 14.891536529716101 ], [ 101.229156058790224, 14.902823121500983 ], [ 101.226476736854167, 14.919427964871463 ], [ 101.258533760897237, 14.912986739046184 ], [ 101.26643819805885, 14.91909993448567 ], [ 101.276091648176333, 14.938550385480912 ], [ 101.294591345604204, 14.949522432719293 ], [ 101.298333703212293, 14.959244804016011 ], [ 101.328750490593379, 14.966099897244407 ], [ 101.331841281191799, 14.982587239283291 ], [ 101.336547001332818, 14.990181282292308 ], [ 101.347981882168213, 14.993563495550223 ], [ 101.350045975170787, 15.015843059649233 ], [ 101.362792701006768, 15.040247677400648 ], [ 101.363041787912834, 15.046136728546658 ], [ 101.371077102381648, 15.043192400317471 ], [ 101.381171860619801, 15.067432260076 ], [ 101.399143410088186, 15.072451073946931 ], [ 101.410672538963126, 15.053143390812222 ], [ 101.413810856730933, 15.034207009585153 ], [ 101.424576211144554, 15.012807811618867 ], [ 101.420330119478848, 14.996965214373347 ], [ 101.429055824306033, 14.983127902101247 ], [ 101.430858797343149, 14.970362570156617 ], [ 101.431633863517632, 14.949934776398596 ], [ 101.449223259306081, 14.912980219174123 ], [ 101.448620433247953, 14.902089256161767 ], [ 101.454158775615269, 14.876221788113709 ], [ 101.450857354633484, 14.873928543298309 ], [ 101.454377586034028, 14.864306835105602 ], [ 101.450841934913427, 14.857701134928831 ], [ 101.423277548299822, 14.843664155174469 ], [ 101.415403451797147, 14.844359129132888 ], [ 101.3957171533131, 14.818460066225521 ], [ 101.369281334441425, 14.804301986445152 ], [ 101.345879444598722, 14.786966550005014 ], [ 101.337103446206626, 14.786228964720756 ], [ 101.339717661457286, 14.772708929713612 ], [ 101.330422336422544, 14.760762833650871 ], [ 101.307196888768431, 14.758662684358551 ], [ 101.297641107560921, 14.738761000284544 ], [ 101.29049387196423, 14.737345603868178 ], [ 101.283719131190821, 14.746496322197684 ], [ 101.281492494169299, 14.732834513515051 ], [ 101.266975839962342, 14.729957147434693 ], [ 101.254089144706541, 14.732592582753032 ], [ 101.231736017111487, 14.732299870634677 ], [ 101.216312967867637, 14.747003225936957 ], [ 101.214492375509792, 14.753982557548701 ], [ 101.20692373572345, 14.752130379385186 ], [ 101.197324814006421, 14.756708026575478 ], [ 101.197786009662508, 14.74906288432804 ], [ 101.188411214320965, 14.749311075567645 ], [ 101.193855109699385, 14.731287547486335 ], [ 101.185302695970748, 14.722102337551178 ], [ 101.189251398714973, 14.715139175988213 ], [ 101.186876090544729, 14.711309007431467 ], [ 101.195018930187317, 14.705692015477183 ], [ 101.203776336829236, 14.683699756181104 ], [ 101.199010178005565, 14.663982803443073 ], [ 101.204357331440875, 14.649885082036857 ] ] ] ] } }
]
}
