{
"type": "FeatureCollection",
"name": "adm2_66",
"crs": { "type": "name", "properties": { "name": "urn:ogc:def:crs:OGC:1.3:CRS84" } },
"features": [
{ "type": "Feature", "properties": { "amp_code": "6612", "amp_th": "วชิรบารมี", "amp_en": "Wachirabarami", "pro_code": "66", "pro_th": "พิจิตร", "pro_en": "Phichit", "reg_nesdb": "LowwerNorth", "reg_royin": "Central", "perimeter": 77.907718669600001, "area_sqkm": 275.71143802812998, "adm1_code": 66, "adm2_code": 6612 }, "geometry": { "type": "MultiPolygon", "coordinates": [ [ [ [ 100.187622293196867, 16.532657267358896 ], [ 100.188471026226765, 16.512765797811234 ], [ 100.16861609554249, 16.498643400864548 ], [ 100.163922269758729, 16.471956434551267 ], [ 100.169082365000804, 16.462372915186233 ], [ 100.173312435588457, 16.447636929385965 ], [ 100.161367083954701, 16.450471468543395 ], [ 100.117167174589753, 16.447830602242078 ], [ 100.104307687758322, 16.44116041267289 ], [ 100.091120557851497, 16.438978792967326 ], [ 100.055226145093201, 16.449451922029372 ], [ 100.0365301866956, 16.442411301188358 ], [ 100.002951125402518, 16.437948899670502 ], [ 99.999962392178986, 16.449993943136636 ], [ 100.003375598962919, 16.45824256461048 ], [ 100.034739814321682, 16.502213185984392 ], [ 100.025044276956265, 16.52007037170387 ], [ 100.010570496526199, 16.52188216683307 ], [ 100.01230158788384, 16.539632810554547 ], [ 100.011384842669187, 16.554270392739777 ], [ 100.012632185659143, 16.575077501034489 ], [ 100.034287211604564, 16.583311237963187 ], [ 100.047063491463916, 16.57120090255842 ], [ 100.073823924919921, 16.578115367244198 ], [ 100.089949389450481, 16.588443085988214 ], [ 100.086082258681827, 16.596821653575855 ], [ 100.097617390806505, 16.606714787248993 ], [ 100.103507416455017, 16.605223888634214 ], [ 100.105810735945738, 16.609779485161869 ], [ 100.118718567567257, 16.614094075322786 ], [ 100.1293935754383, 16.610506826826164 ], [ 100.146183995440111, 16.595555787234112 ], [ 100.166944032315527, 16.58887174332455 ], [ 100.160978627635544, 16.571554807250383 ], [ 100.179183232108514, 16.56703731340226 ], [ 100.176643653479999, 16.562724560203879 ], [ 100.18591227599056, 16.543015899154927 ], [ 100.191922928273726, 16.544446981422769 ], [ 100.195593364439532, 16.540655867660345 ], [ 100.19696695301316, 16.537654048977373 ], [ 100.187622293196867, 16.532657267358896 ] ] ] ] } },
{ "type": "Feature", "properties": { "amp_code": "6610", "amp_th": "บึงนาราง", "amp_en": "Bueng Na Rang", "pro_code": "66", "pro_th": "พิจิตร", "pro_en": "Phichit", "reg_nesdb": "LowwerNorth", "reg_royin": "Central", "perimeter": 96.257313937890004, "area_sqkm": 292.83439002492997, "adm1_code": 66, "adm2_code": 6610 }, "geometry": { "type": "MultiPolygon", "coordinates": [ [ [ [ 100.171023330333298, 16.147594592599987 ], [ 100.162037212973715, 16.106347974485434 ], [ 100.134581062551703, 16.096044392016012 ], [ 100.128862024242636, 16.070571480835344 ], [ 100.114369309953744, 16.079087513669169 ], [ 100.096269952692282, 16.094617300693169 ], [ 100.094938284063687, 16.111039988004233 ], [ 100.077391262527172, 16.124893335973351 ], [ 100.085552329752588, 16.143456393847096 ], [ 100.076789400378672, 16.147301716699726 ], [ 100.075637068298008, 16.163148304380886 ], [ 100.063098602157282, 16.159564035942449 ], [ 100.055536164995729, 16.167342418520544 ], [ 100.04430715908596, 16.168439537833478 ], [ 100.038572658553051, 16.177416231485537 ], [ 100.037611997386335, 16.182533619628494 ], [ 100.025274349225398, 16.191825701008934 ], [ 100.046091844877552, 16.207505253341974 ], [ 100.027970563274749, 16.239942091370335 ], [ 100.021204625980076, 16.251613641475902 ], [ 100.028546513132056, 16.270397303364586 ], [ 100.035649386413496, 16.268758261446276 ], [ 100.040338344469674, 16.275324667650832 ], [ 100.059782291119305, 16.262142132934951 ], [ 100.086124323525567, 16.26366393135509 ], [ 100.103100074095366, 16.255089891320992 ], [ 100.115941938697759, 16.255178565924442 ], [ 100.125093114305415, 16.247266459903781 ], [ 100.151972533226413, 16.243197043674577 ], [ 100.188844412447978, 16.24949676460033 ], [ 100.2137118120705, 16.24522748239567 ], [ 100.213817059215444, 16.245225749955544 ], [ 100.244623547312528, 16.243912803778255 ], [ 100.245827607597292, 16.237231986384504 ], [ 100.251986515307721, 16.236194715449962 ], [ 100.260570752808761, 16.241025726307353 ], [ 100.264151120091555, 16.234612022892506 ], [ 100.260742195628978, 16.22598370414406 ], [ 100.254126396951293, 16.226462396768387 ], [ 100.252895860889495, 16.220864717294802 ], [ 100.259125356906139, 16.20129133822239 ], [ 100.253114439173757, 16.193552682424041 ], [ 100.258146234145514, 16.189322355280868 ], [ 100.260844032401693, 16.178715601504148 ], [ 100.25031972638935, 16.178370975270774 ], [ 100.254679896698974, 16.157978277458561 ], [ 100.245330242973722, 16.15742756432536 ], [ 100.230074517492369, 16.16997017031353 ], [ 100.223222500946648, 16.190193838931588 ], [ 100.197355692444731, 16.189553577666445 ], [ 100.183168877812349, 16.180597729537364 ], [ 100.181980806263937, 16.161096641715375 ], [ 100.17592823504738, 16.146982331905146 ], [ 100.174013812301737, 16.151799214813966 ], [ 100.171023330333298, 16.147594592599987 ] ] ] ] } },
{ "type": "Feature", "properties": { "amp_code": "6611", "amp_th": "ดงเจริญ", "amp_en": "Dong Charoen", "pro_code": "66", "pro_th": "พิจิตร", "pro_en": "Phichit", "reg_nesdb": "LowwerNorth", "reg_royin": "Central", "perimeter": 101.37924651877999, "area_sqkm": 231.35815664389, "adm1_code": 66, "adm2_code": 6611 }, "geometry": { "type": "MultiPolygon", "coordinates": [ [ [ [ 100.575453805926287, 15.954161289136621 ], [ 100.546948958986988, 15.926674172093893 ], [ 100.5362966857668, 15.923950848723027 ], [ 100.528667732501461, 15.93662850627401 ], [ 100.521193362840606, 15.940271617672114 ], [ 100.503823192661073, 15.937609827308043 ], [ 100.499738905353496, 15.977953782223862 ], [ 100.492011646804059, 16.001079971105504 ], [ 100.494455812440236, 16.007304725124431 ], [ 100.510805056690089, 15.99921000753563 ], [ 100.530852194892546, 16.011195566406656 ], [ 100.532470287555242, 16.015760476671225 ], [ 100.521114369573752, 16.0165235846972 ], [ 100.540484688313185, 16.049883424190455 ], [ 100.543640603266269, 16.079034056131857 ], [ 100.554421407936502, 16.078861100132904 ], [ 100.571883211967574, 16.069856444102758 ], [ 100.579013868644566, 16.071364048643328 ], [ 100.588382219542041, 16.064358501127199 ], [ 100.604689384252822, 16.0629637609306 ], [ 100.611093408192417, 16.066667295806781 ], [ 100.61747132168594, 16.061545876694122 ], [ 100.631031173031786, 16.060498626937338 ], [ 100.642820572130347, 16.051435670664869 ], [ 100.635327202291307, 16.045653796963144 ], [ 100.656804141375133, 16.047708602530385 ], [ 100.668567972310612, 16.030266018772913 ], [ 100.690148124334513, 16.027018815606233 ], [ 100.727094293594988, 16.02241395948586 ], [ 100.744086903212377, 16.012000491473096 ], [ 100.760286456421696, 16.009519856882569 ], [ 100.768944025706404, 16.003805258046985 ], [ 100.769170439085698, 15.998480740867796 ], [ 100.782070057226207, 15.99403765119192 ], [ 100.784131348124632, 15.981081110766141 ], [ 100.778019848680998, 15.966116035903173 ], [ 100.791103858496001, 15.958302650159538 ], [ 100.799018022549276, 15.936338551636227 ], [ 100.780899656877878, 15.935091651805111 ], [ 100.77286189290578, 15.929200374407783 ], [ 100.766406661741243, 15.931413134268251 ], [ 100.767670478108855, 15.935552939222339 ], [ 100.756130368506149, 15.942506212690997 ], [ 100.750354122211505, 15.969274105218474 ], [ 100.737819312124259, 15.989251231957109 ], [ 100.702254255654822, 15.989315499183194 ], [ 100.682369034882683, 15.999840993839051 ], [ 100.655869935232147, 16.006346916415012 ], [ 100.654440290569454, 16.006691180633606 ], [ 100.625986702985827, 16.002724185198758 ], [ 100.61684481578196, 15.983420439165256 ], [ 100.575453805926287, 15.954161289136621 ] ] ] ] } },
{ "type": "Feature", "properties": { "amp_code": "6609", "amp_th": "สากเหล็ก", "amp_en": "Sak Lek", "pro_code": "66", "pro_th": "พิจิตร", "pro_en": "Phichit", "reg_nesdb": "LowwerNorth", "reg_royin": "Central", "perimeter": 64.929583252070003, "area_sqkm": 176.08106994252, "adm1_code": 66, "adm2_code": 6609 }, "geometry": { "type": "MultiPolygon", "coordinates": [ [ [ [ 100.530390823530325, 16.4627147244612 ], [ 100.526904178995224, 16.458712903978533 ], [ 100.519112240192968, 16.462785518405624 ], [ 100.49391279665582, 16.461960189571055 ], [ 100.474840641634358, 16.467145032913713 ], [ 100.461416505879882, 16.459844147371815 ], [ 100.450295364527747, 16.460642168890889 ], [ 100.447804245021473, 16.455144194779148 ], [ 100.435411587773174, 16.453197095069271 ], [ 100.426649880039875, 16.43520976867454 ], [ 100.421487785666969, 16.433061067414432 ], [ 100.415130638870963, 16.453450232893701 ], [ 100.408561327497267, 16.47186029836687 ], [ 100.409674488986496, 16.48671195084728 ], [ 100.41267236787786, 16.497254544905616 ], [ 100.430518765727442, 16.51586483852445 ], [ 100.4355558268458, 16.520030511417854 ], [ 100.471212162135345, 16.519783511870678 ], [ 100.474595425209174, 16.531129913742397 ], [ 100.484140537835316, 16.541824705110123 ], [ 100.483317563972918, 16.54256371954342 ], [ 100.504633126081757, 16.553406116145023 ], [ 100.504744211169267, 16.568244616546593 ], [ 100.5096128024243, 16.573866746023864 ], [ 100.526198806745313, 16.565751272503842 ], [ 100.537920358777058, 16.567909692265474 ], [ 100.559476170147633, 16.572044330847366 ], [ 100.575794191525787, 16.585579897055407 ], [ 100.580316685758149, 16.575922278990173 ], [ 100.578424281950376, 16.53404301527042 ], [ 100.577615246890943, 16.523109724592256 ], [ 100.587432277989009, 16.520340017809453 ], [ 100.582923957433138, 16.488839283119329 ], [ 100.585093381200295, 16.471554068543156 ], [ 100.568308640480751, 16.459839489437041 ], [ 100.563892052744563, 16.458420901324903 ], [ 100.554814901513964, 16.465710333275581 ], [ 100.547538758047409, 16.460448050973156 ], [ 100.530390823530325, 16.4627147244612 ] ] ] ] } },
{ "type": "Feature", "properties": { "amp_code": "6607", "amp_th": "สามง่าม", "amp_en": "Sam Ngam", "pro_code": "66", "pro_th": "พิจิตร", "pro_en": "Phichit", "reg_nesdb": "LowwerNorth", "reg_royin": "Central", "perimeter": 125.59118390438, "area_sqkm": 365.28508491513998, "adm1_code": 66, "adm2_code": 6607 }, "geometry": { "type": "MultiPolygon", "coordinates": [ [ [ [ 100.091120557851497, 16.438978792967326 ], [ 100.104307687758322, 16.44116041267289 ], [ 100.117167174589753, 16.447830602242078 ], [ 100.161367083954701, 16.450471468543395 ], [ 100.173312435588457, 16.447636929385965 ], [ 100.169082365000804, 16.462372915186233 ], [ 100.163922269758729, 16.471956434551267 ], [ 100.16861609554249, 16.498643400864548 ], [ 100.188471026226765, 16.512765797811234 ], [ 100.187622293196867, 16.532657267358896 ], [ 100.19696695301316, 16.537654048977373 ], [ 100.195593364439532, 16.540655867660345 ], [ 100.191922928273726, 16.544446981422769 ], [ 100.18591227599056, 16.543015899154927 ], [ 100.176643653479999, 16.562724560203879 ], [ 100.179183232108514, 16.56703731340226 ], [ 100.160978627635544, 16.571554807250383 ], [ 100.166944032315527, 16.58887174332455 ], [ 100.185755077881666, 16.585962402657021 ], [ 100.175831584248144, 16.598755969569016 ], [ 100.197494591247931, 16.60918454496997 ], [ 100.194856397504324, 16.619973331242466 ], [ 100.200870661745967, 16.617723156190884 ], [ 100.203960248502241, 16.624523490724719 ], [ 100.191856481845321, 16.627828994940796 ], [ 100.190688947155309, 16.632799955411105 ], [ 100.195722061603263, 16.636290293969257 ], [ 100.191516984534715, 16.645908574057003 ], [ 100.202632437846418, 16.642550009289977 ], [ 100.215883946644894, 16.647665216419139 ], [ 100.215806074118845, 16.632802385931839 ], [ 100.22557541772585, 16.625446629444433 ], [ 100.225915437495686, 16.617448104764819 ], [ 100.231693815291436, 16.616412955405561 ], [ 100.233261105066845, 16.597417877941336 ], [ 100.233564524030655, 16.55455814493935 ], [ 100.237741465946783, 16.540666538022091 ], [ 100.24358558890242, 16.531975461370916 ], [ 100.250017635337628, 16.530096642818677 ], [ 100.249694483691627, 16.495855140064865 ], [ 100.253193695432287, 16.491067682879748 ], [ 100.249437945899714, 16.486899809025822 ], [ 100.247478501018307, 16.474122417455714 ], [ 100.254503346977557, 16.460762639644987 ], [ 100.25271615046023, 16.448546869531729 ], [ 100.240910226785104, 16.438834275410407 ], [ 100.242048691025175, 16.427409935425171 ], [ 100.23527113815328, 16.41744565599247 ], [ 100.216818481432298, 16.39917498307625 ], [ 100.218255609370701, 16.389074182258305 ], [ 100.197968988401442, 16.382239008578487 ], [ 100.168483299871028, 16.373950395655399 ], [ 100.142341973920864, 16.3722624232255 ], [ 100.115102279124827, 16.378453070068268 ], [ 100.072143792708417, 16.360114007160696 ], [ 100.055851945754725, 16.350324742616529 ], [ 100.0531492801734, 16.332071860106524 ], [ 100.027278321357002, 16.331540688424571 ], [ 100.021810847077617, 16.337935167765941 ], [ 100.006692653275493, 16.335910819198197 ], [ 99.995399628217797, 16.355559811852483 ], [ 99.983400558769588, 16.375115537317896 ], [ 99.993967641884765, 16.387413136636965 ], [ 99.997083796987923, 16.419450472284488 ], [ 100.002951125402518, 16.437948899670502 ], [ 100.0365301866956, 16.442411301188358 ], [ 100.055226145093201, 16.449451922029372 ], [ 100.091120557851497, 16.438978792967326 ] ] ] ] } },
{ "type": "Feature", "properties": { "amp_code": "6608", "amp_th": "ทับคล้อ", "amp_en": "Thap Khlo", "pro_code": "66", "pro_th": "พิจิตร", "pro_en": "Phichit", "reg_nesdb": "LowwerNorth", "reg_royin": "Central", "perimeter": 115.7279667034, "area_sqkm": 407.99193119635999, "adm1_code": 66, "adm2_code": 6608 }, "geometry": { "type": "MultiPolygon", "coordinates": [ [ [ [ 100.573960593735293, 16.231127360756506 ], [ 100.580722658119029, 16.235303160010421 ], [ 100.581014227410549, 16.240623967297594 ], [ 100.576348077994098, 16.249301785455149 ], [ 100.527440838177611, 16.242806102082231 ], [ 100.512773499770447, 16.236658403814275 ], [ 100.486826683240125, 16.2380936119791 ], [ 100.475797925971705, 16.253884928345638 ], [ 100.520312731705815, 16.299237852733615 ], [ 100.522531037941889, 16.303088795637059 ], [ 100.542061844750847, 16.294360499558344 ], [ 100.561777634149493, 16.293865572103634 ], [ 100.584385196571262, 16.307272442735417 ], [ 100.60524484769779, 16.308810569912769 ], [ 100.611644241860759, 16.316925773017246 ], [ 100.624923320614258, 16.317593279865015 ], [ 100.634366703646592, 16.327349313675057 ], [ 100.65260201842419, 16.321974883785234 ], [ 100.653772677973635, 16.319570916024521 ], [ 100.648978833197503, 16.308177738312089 ], [ 100.650057233981755, 16.297480799298388 ], [ 100.662833494145133, 16.267795885420806 ], [ 100.671608303112009, 16.257252953592626 ], [ 100.676320833127974, 16.262609635281752 ], [ 100.67325004986759, 16.256205261175328 ], [ 100.668575011517447, 16.25477701669282 ], [ 100.669168451976333, 16.250479780738186 ], [ 100.677488574774245, 16.248009124568249 ], [ 100.694124734347483, 16.249294455667595 ], [ 100.707747330215568, 16.255830567848385 ], [ 100.714440748199067, 16.253864093003358 ], [ 100.71773727746951, 16.257643003696515 ], [ 100.719089159046689, 16.251465569420574 ], [ 100.707194716556884, 16.242139715209294 ], [ 100.682861181982219, 16.202807819787566 ], [ 100.644228910634141, 16.139954313873456 ], [ 100.654633925919839, 16.126002964302181 ], [ 100.654125879106601, 16.1015851677797 ], [ 100.642820572130347, 16.051435670664869 ], [ 100.631031173031786, 16.060498626937338 ], [ 100.61747132168594, 16.061545876694122 ], [ 100.611093408192417, 16.066667295806781 ], [ 100.604689384252822, 16.0629637609306 ], [ 100.588382219542041, 16.064358501127199 ], [ 100.579013868644566, 16.071364048643328 ], [ 100.571883211967574, 16.069856444102758 ], [ 100.554421407936502, 16.078861100132904 ], [ 100.543640603266269, 16.079034056131857 ], [ 100.529204986974221, 16.094568348048302 ], [ 100.522630877603703, 16.095408333135559 ], [ 100.514701971152007, 16.100664719545183 ], [ 100.510576197475643, 16.111375330543435 ], [ 100.515119858294796, 16.147438355498313 ], [ 100.521317133670308, 16.172292785099806 ], [ 100.523085581238476, 16.183855012038169 ], [ 100.532187781888965, 16.180601644646092 ], [ 100.533086330008771, 16.190313908867392 ], [ 100.542848401328072, 16.200953851582394 ], [ 100.532097062236289, 16.197554453567115 ], [ 100.531520903651895, 16.203640862340375 ], [ 100.540452203957031, 16.212762901451644 ], [ 100.566705541000601, 16.222168539518584 ], [ 100.573960593735293, 16.231127360756506 ] ] ] ] } },
{ "type": "Feature", "properties": { "amp_code": "6605", "amp_th": "บางมูลนาก", "amp_en": "Bang Mun Nak", "pro_code": "66", "pro_th": "พิจิตร", "pro_en": "Phichit", "reg_nesdb": "LowwerNorth", "reg_royin": "Central", "perimeter": 105.65944316076001, "area_sqkm": 392.49751042723, "adm1_code": 66, "adm2_code": 6605 }, "geometry": { "type": "MultiPolygon", "coordinates": [ [ [ [ 100.474318921829692, 15.936459018352972 ], [ 100.461066045498953, 15.938347778516574 ], [ 100.458971077121447, 15.941628066165878 ], [ 100.448975871603551, 15.934303505618303 ], [ 100.416306909846469, 15.945131285540388 ], [ 100.410218657475738, 15.936710365357031 ], [ 100.39878281222181, 15.932687156697545 ], [ 100.3877460444305, 15.938591496602367 ], [ 100.36576062338564, 15.940600542995327 ], [ 100.331478050807419, 15.941117775988284 ], [ 100.34273208790492, 15.965184921337331 ], [ 100.338917134672982, 15.978508623329892 ], [ 100.322208364981691, 15.987779157960599 ], [ 100.323451173910797, 15.97411223151861 ], [ 100.313203249631229, 15.97794177966632 ], [ 100.30621543464423, 15.973518189969782 ], [ 100.300820711005599, 15.981267461853054 ], [ 100.302587030883828, 15.986828984555485 ], [ 100.318735470602604, 16.000888091913787 ], [ 100.322636614556274, 15.998197789896469 ], [ 100.328879838014544, 16.001295589352701 ], [ 100.324125892886244, 16.006978443410102 ], [ 100.327848468269337, 16.012347976243877 ], [ 100.325362132634979, 16.022085226900032 ], [ 100.33295836295666, 16.023337443342317 ], [ 100.342168578088888, 16.037432889143993 ], [ 100.342172939512764, 16.055181800159051 ], [ 100.354267638225792, 16.064909912212428 ], [ 100.368679150519185, 16.091243645712563 ], [ 100.365471755515671, 16.098557962288133 ], [ 100.372129628545608, 16.107189680602026 ], [ 100.366767492240342, 16.107399172765923 ], [ 100.365500394120673, 16.114192676882094 ], [ 100.358016996412374, 16.117943797741138 ], [ 100.360394233374194, 16.123690496209598 ], [ 100.366672222801014, 16.122666356148738 ], [ 100.371795986857876, 16.12291479596448 ], [ 100.3890575239502, 16.15153967537243 ], [ 100.396177270216199, 16.155191957000568 ], [ 100.427483263323211, 16.156718640475379 ], [ 100.437240490130449, 16.153187000851467 ], [ 100.4318736128197, 16.140285359842895 ], [ 100.436471400036879, 16.14071875545612 ], [ 100.44903287166656, 16.126426223507703 ], [ 100.445562358527582, 16.122807494743856 ], [ 100.43266623062442, 16.122583776665874 ], [ 100.434532508326939, 16.11719706268785 ], [ 100.463472912687294, 16.11961934451412 ], [ 100.471645811121391, 16.115295049711836 ], [ 100.47416304011486, 16.095977452644387 ], [ 100.481136539290802, 16.094978013593035 ], [ 100.496718358743905, 16.093645988094021 ], [ 100.516541796335972, 16.091266056035593 ], [ 100.522630877603703, 16.095408333135559 ], [ 100.529204986974221, 16.094568348048302 ], [ 100.543640603266269, 16.079034056131857 ], [ 100.540484688313185, 16.049883424190455 ], [ 100.521114369573752, 16.0165235846972 ], [ 100.532470287555242, 16.015760476671225 ], [ 100.530852194892546, 16.011195566406656 ], [ 100.510805056690089, 15.99921000753563 ], [ 100.494455812440236, 16.007304725124431 ], [ 100.492011646804059, 16.001079971105504 ], [ 100.499738905353496, 15.977953782223862 ], [ 100.503823192661073, 15.937609827308043 ], [ 100.474318921829692, 15.936459018352972 ] ] ] ] } },
{ "type": "Feature", "properties": { "amp_code": "6606", "amp_th": "โพทะเล", "amp_en": "Pho Thale", "pro_code": "66", "pro_th": "พิจิตร", "pro_en": "Phichit", "reg_nesdb": "LowwerNorth", "reg_royin": "Central", "perimeter": 112.23824247409, "area_sqkm": 526.13968399420003, "adm1_code": 66, "adm2_code": 6606 }, "geometry": { "type": "MultiPolygon", "coordinates": [ [ [ [ 100.302587030883828, 15.986828984555485 ], [ 100.300820711005599, 15.981267461853054 ], [ 100.30621543464423, 15.973518189969782 ], [ 100.309339020680511, 15.961211430913536 ], [ 100.276271884643066, 15.943633339844052 ], [ 100.26714448602236, 15.939868376250743 ], [ 100.257526885090968, 15.954545791931919 ], [ 100.241968599313239, 15.953215845654064 ], [ 100.239286125905792, 15.94969942903094 ], [ 100.244279820791519, 15.941306496760136 ], [ 100.240225542602374, 15.934295500868506 ], [ 100.216786846155017, 15.927635249648009 ], [ 100.202228374577388, 15.93432874202986 ], [ 100.18658240642641, 15.935182557227547 ], [ 100.18128647935697, 15.92874884640328 ], [ 100.175073475847185, 15.934120230255399 ], [ 100.168219516100294, 15.956413450658571 ], [ 100.160516490921196, 15.961010688687091 ], [ 100.16035745163029, 15.967972619704804 ], [ 100.161275915686744, 15.97970126194012 ], [ 100.148821395952766, 15.989089497999169 ], [ 100.137508501155935, 16.012683602396869 ], [ 100.128374117699025, 16.025946709984549 ], [ 100.130786319782501, 16.035534469331193 ], [ 100.115826178330352, 16.047152167763763 ], [ 100.119332654683916, 16.055012441008266 ], [ 100.112337161485328, 16.069425305663785 ], [ 100.109124707481826, 16.076250553988253 ], [ 100.114369309953744, 16.079087513669169 ], [ 100.128862024242636, 16.070571480835344 ], [ 100.134581062551703, 16.096044392016012 ], [ 100.162037212973715, 16.106347974485434 ], [ 100.171023330333298, 16.147594592599987 ], [ 100.174013812301737, 16.151799214813966 ], [ 100.17592823504738, 16.146982331905146 ], [ 100.181980806263937, 16.161096641715375 ], [ 100.183168877812349, 16.180597729537364 ], [ 100.197355692444731, 16.189553577666445 ], [ 100.223222500946648, 16.190193838931588 ], [ 100.230074517492369, 16.16997017031353 ], [ 100.245330242973722, 16.15742756432536 ], [ 100.254679896698974, 16.157978277458561 ], [ 100.25031972638935, 16.178370975270774 ], [ 100.260844032401693, 16.178715601504148 ], [ 100.258146234145514, 16.189322355280868 ], [ 100.273610050618672, 16.184700938820587 ], [ 100.28827684658539, 16.187641585759213 ], [ 100.317040210411434, 16.168718915984829 ], [ 100.331699858754035, 16.168526037954749 ], [ 100.330269842178083, 16.159395066853644 ], [ 100.33610056539041, 16.152233065099512 ], [ 100.333255336125802, 16.145770473076247 ], [ 100.343981947524497, 16.145280573269218 ], [ 100.345007423209879, 16.139967551534742 ], [ 100.350386288017575, 16.128634683516669 ], [ 100.369085205609778, 16.127871546299627 ], [ 100.366672222801014, 16.122666356148738 ], [ 100.360394233374194, 16.123690496209598 ], [ 100.358016996412374, 16.117943797741138 ], [ 100.365500394120673, 16.114192676882094 ], [ 100.366767492240342, 16.107399172765923 ], [ 100.372129628545608, 16.107189680602026 ], [ 100.365471755515671, 16.098557962288133 ], [ 100.368679150519185, 16.091243645712563 ], [ 100.354267638225792, 16.064909912212428 ], [ 100.342172939512764, 16.055181800159051 ], [ 100.342168578088888, 16.037432889143993 ], [ 100.33295836295666, 16.023337443342317 ], [ 100.325362132634979, 16.022085226900032 ], [ 100.327848468269337, 16.012347976243877 ], [ 100.324125892886244, 16.006978443410102 ], [ 100.328879838014544, 16.001295589352701 ], [ 100.322636614556274, 15.998197789896469 ], [ 100.318735470602604, 16.000888091913787 ], [ 100.302587030883828, 15.986828984555485 ] ] ] ] } },
{ "type": "Feature", "properties": { "amp_code": "6603", "amp_th": "โพธิ์ประทับช้าง", "amp_en": "Pho Prathap Chang", "pro_code": "66", "pro_th": "พิจิตร", "pro_en": "Phichit", "reg_nesdb": "LowwerNorth", "reg_royin": "Central", "perimeter": 97.622958158360007, "area_sqkm": 405.10115866868, "adm1_code": 66, "adm2_code": 6603 }, "geometry": { "type": "MultiPolygon", "coordinates": [ [ [ [ 100.2137118120705, 16.24522748239567 ], [ 100.188844412447978, 16.24949676460033 ], [ 100.151972533226413, 16.243197043674577 ], [ 100.125093114305415, 16.247266459903781 ], [ 100.115941938697759, 16.255178565924442 ], [ 100.103100074095366, 16.255089891320992 ], [ 100.086124323525567, 16.26366393135509 ], [ 100.059782291119305, 16.262142132934951 ], [ 100.040338344469674, 16.275324667650832 ], [ 100.035649386413496, 16.268758261446276 ], [ 100.028546513132056, 16.270397303364586 ], [ 100.033132575734513, 16.283824946704083 ], [ 100.018867919403149, 16.300965372463214 ], [ 100.021987888812887, 16.307688856923427 ], [ 100.019213256083731, 16.322488871500397 ], [ 100.027278321357002, 16.331540688424571 ], [ 100.0531492801734, 16.332071860106524 ], [ 100.055851945754725, 16.350324742616529 ], [ 100.072143792708417, 16.360114007160696 ], [ 100.115102279124827, 16.378453070068268 ], [ 100.142341973920864, 16.3722624232255 ], [ 100.168483299871028, 16.373950395655399 ], [ 100.197968988401442, 16.382239008578487 ], [ 100.218255609370701, 16.389074182258305 ], [ 100.216818481432298, 16.39917498307625 ], [ 100.23527113815328, 16.41744565599247 ], [ 100.241777130461784, 16.398820028341902 ], [ 100.265587543369662, 16.394244783231688 ], [ 100.270091947533203, 16.391193208290634 ], [ 100.279501921080254, 16.363852067509107 ], [ 100.315536004501155, 16.361389766273572 ], [ 100.331984918461146, 16.332075333941397 ], [ 100.334142264990746, 16.314361733930411 ], [ 100.322529877617342, 16.288651207594192 ], [ 100.311806792929616, 16.276161682786991 ], [ 100.304771380594801, 16.281327584538761 ], [ 100.287113016383444, 16.281548724206552 ], [ 100.28967710971574, 16.293637593223387 ], [ 100.282482687163011, 16.292349339061261 ], [ 100.271953169273203, 16.293309992214496 ], [ 100.264865311086879, 16.282811560895375 ], [ 100.26821413195411, 16.261387612885425 ], [ 100.260776876287792, 16.255108546354812 ], [ 100.260570752808761, 16.241025726307353 ], [ 100.251986515307721, 16.236194715449962 ], [ 100.245827607597292, 16.237231986384504 ], [ 100.244623547312528, 16.243912803778255 ], [ 100.213817059215444, 16.245225749955544 ], [ 100.2137118120705, 16.24522748239567 ] ] ] ] } },
{ "type": "Feature", "properties": { "amp_code": "6604", "amp_th": "ตะพานหิน", "amp_en": "Taphan Hin", "pro_code": "66", "pro_th": "พิจิตร", "pro_en": "Phichit", "reg_nesdb": "LowwerNorth", "reg_royin": "Central", "perimeter": 139.80622131997001, "area_sqkm": 442.73573775947, "adm1_code": 66, "adm2_code": 6604 }, "geometry": { "type": "MultiPolygon", "coordinates": [ [ [ [ 100.510576197475643, 16.111375330543435 ], [ 100.514701971152007, 16.100664719545183 ], [ 100.522630877603703, 16.095408333135559 ], [ 100.516541796335972, 16.091266056035593 ], [ 100.496718358743905, 16.093645988094021 ], [ 100.481136539290802, 16.094978013593035 ], [ 100.47416304011486, 16.095977452644387 ], [ 100.471645811121391, 16.115295049711836 ], [ 100.463472912687294, 16.11961934451412 ], [ 100.434532508326939, 16.11719706268785 ], [ 100.43266623062442, 16.122583776665874 ], [ 100.445562358527582, 16.122807494743856 ], [ 100.44903287166656, 16.126426223507703 ], [ 100.436471400036879, 16.14071875545612 ], [ 100.4318736128197, 16.140285359842895 ], [ 100.437240490130449, 16.153187000851467 ], [ 100.427483263323211, 16.156718640475379 ], [ 100.396177270216199, 16.155191957000568 ], [ 100.3890575239502, 16.15153967537243 ], [ 100.371795986857876, 16.12291479596448 ], [ 100.366672222801014, 16.122666356148738 ], [ 100.369085205609778, 16.127871546299627 ], [ 100.350386288017575, 16.128634683516669 ], [ 100.345007423209879, 16.139967551534742 ], [ 100.343981947524497, 16.145280573269218 ], [ 100.333255336125802, 16.145770473076247 ], [ 100.33610056539041, 16.152233065099512 ], [ 100.330269842178083, 16.159395066853644 ], [ 100.331699858754035, 16.168526037954749 ], [ 100.317040210411434, 16.168718915984829 ], [ 100.28827684658539, 16.187641585759213 ], [ 100.273610050618672, 16.184700938820587 ], [ 100.258146234145514, 16.189322355280868 ], [ 100.253114439173757, 16.193552682424041 ], [ 100.259125356906139, 16.20129133822239 ], [ 100.252895860889495, 16.220864717294802 ], [ 100.254126396951293, 16.226462396768387 ], [ 100.260742195628978, 16.22598370414406 ], [ 100.264151120091555, 16.234612022892506 ], [ 100.260570752808761, 16.241025726307353 ], [ 100.260776876287792, 16.255108546354812 ], [ 100.26821413195411, 16.261387612885425 ], [ 100.264865311086879, 16.282811560895375 ], [ 100.271953169273203, 16.293309992214496 ], [ 100.282482687163011, 16.292349339061261 ], [ 100.28967710971574, 16.293637593223387 ], [ 100.287113016383444, 16.281548724206552 ], [ 100.304771380594801, 16.281327584538761 ], [ 100.311806792929616, 16.276161682786991 ], [ 100.322529877617342, 16.288651207594192 ], [ 100.319003575610637, 16.280500465482987 ], [ 100.323118764646281, 16.274680180762555 ], [ 100.348761355243596, 16.272296085265683 ], [ 100.346275868496207, 16.259852889483284 ], [ 100.356210576125392, 16.253006439472557 ], [ 100.362706240338753, 16.25353416359097 ], [ 100.361400467161545, 16.260497342356434 ], [ 100.368095631858253, 16.263113645517631 ], [ 100.369568231465237, 16.270466727303713 ], [ 100.398065758580856, 16.270934565023012 ], [ 100.396974119204202, 16.275674258437864 ], [ 100.408496522748507, 16.289480077763905 ], [ 100.405440506717412, 16.294387647743999 ], [ 100.409602439706632, 16.299864001706752 ], [ 100.415277627150274, 16.30980046642172 ], [ 100.457466114653016, 16.290154828855041 ], [ 100.481309805665532, 16.295138338386657 ], [ 100.481317433890467, 16.295141674030901 ], [ 100.520312731705815, 16.299237852733615 ], [ 100.475797925971705, 16.253884928345638 ], [ 100.486826683240125, 16.2380936119791 ], [ 100.512773499770447, 16.236658403814275 ], [ 100.527440838177611, 16.242806102082231 ], [ 100.576348077994098, 16.249301785455149 ], [ 100.581014227410549, 16.240623967297594 ], [ 100.580722658119029, 16.235303160010421 ], [ 100.573960593735293, 16.231127360756506 ], [ 100.566705541000601, 16.222168539518584 ], [ 100.540452203957031, 16.212762901451644 ], [ 100.531520903651895, 16.203640862340375 ], [ 100.532097062236289, 16.197554453567115 ], [ 100.542848401328072, 16.200953851582394 ], [ 100.533086330008771, 16.190313908867392 ], [ 100.532187781888965, 16.180601644646092 ], [ 100.523085581238476, 16.183855012038169 ], [ 100.521317133670308, 16.172292785099806 ], [ 100.515119858294796, 16.147438355498313 ], [ 100.510576197475643, 16.111375330543435 ] ] ] ] } },
{ "type": "Feature", "properties": { "amp_code": "6601", "amp_th": "เมืองพิจิตร", "amp_en": "Mueang Phichit", "pro_code": "66", "pro_th": "พิจิตร", "pro_en": "Phichit", "reg_nesdb": "LowwerNorth", "reg_royin": "Central", "perimeter": 131.57351490964001, "area_sqkm": 545.39797645611998, "adm1_code": 66, "adm2_code": 6601 }, "geometry": { "type": "MultiPolygon", "coordinates": [ [ [ [ 100.409602439706632, 16.299864001706752 ], [ 100.405440506717412, 16.294387647743999 ], [ 100.408496522748507, 16.289480077763905 ], [ 100.396974119204202, 16.275674258437864 ], [ 100.398065758580856, 16.270934565023012 ], [ 100.369568231465237, 16.270466727303713 ], [ 100.368095631858253, 16.263113645517631 ], [ 100.361400467161545, 16.260497342356434 ], [ 100.362706240338753, 16.25353416359097 ], [ 100.356210576125392, 16.253006439472557 ], [ 100.346275868496207, 16.259852889483284 ], [ 100.348761355243596, 16.272296085265683 ], [ 100.323118764646281, 16.274680180762555 ], [ 100.319003575610637, 16.280500465482987 ], [ 100.322529877617342, 16.288651207594192 ], [ 100.334142264990746, 16.314361733930411 ], [ 100.331984918461146, 16.332075333941397 ], [ 100.315536004501155, 16.361389766273572 ], [ 100.279501921080254, 16.363852067509107 ], [ 100.270091947533203, 16.391193208290634 ], [ 100.265587543369662, 16.394244783231688 ], [ 100.241777130461784, 16.398820028341902 ], [ 100.23527113815328, 16.41744565599247 ], [ 100.242048691025175, 16.427409935425171 ], [ 100.240910226785104, 16.438834275410407 ], [ 100.25271615046023, 16.448546869531729 ], [ 100.254503346977557, 16.460762639644987 ], [ 100.247478501018307, 16.474122417455714 ], [ 100.249437945899714, 16.486899809025822 ], [ 100.253193695432287, 16.491067682879748 ], [ 100.249694483691627, 16.495855140064865 ], [ 100.250017635337628, 16.530096642818677 ], [ 100.264650600993306, 16.537429938961999 ], [ 100.285683443565091, 16.531323856896702 ], [ 100.323620883458815, 16.525682039735564 ], [ 100.360284370153352, 16.535256973708787 ], [ 100.376873392138592, 16.546406993192477 ], [ 100.369427465210137, 16.550451852504377 ], [ 100.38604757342037, 16.553567380597116 ], [ 100.425411279666122, 16.535833378349242 ], [ 100.430518765727442, 16.51586483852445 ], [ 100.41267236787786, 16.497254544905616 ], [ 100.409674488986496, 16.48671195084728 ], [ 100.408561327497267, 16.47186029836687 ], [ 100.415130638870963, 16.453450232893701 ], [ 100.409948398918672, 16.448647704711153 ], [ 100.412830253186797, 16.444152364499491 ], [ 100.411445705354083, 16.43617683777714 ], [ 100.402884917448858, 16.42701232959109 ], [ 100.412830619805163, 16.420560446966793 ], [ 100.429622341468587, 16.426616151397102 ], [ 100.442900100617976, 16.43492805484042 ], [ 100.477603841047909, 16.43415443675935 ], [ 100.479288845265529, 16.426574764671845 ], [ 100.494994757962687, 16.423986090419707 ], [ 100.514261583926867, 16.412211198213313 ], [ 100.516473688953553, 16.402245045766112 ], [ 100.522040675376402, 16.40212685675635 ], [ 100.521340111232362, 16.394653475337439 ], [ 100.528430182879376, 16.39283298829584 ], [ 100.528317682966346, 16.379679883172205 ], [ 100.519229568539401, 16.376695559253772 ], [ 100.509925316140084, 16.376308382656113 ], [ 100.493970383907197, 16.38461587687604 ], [ 100.484191131757058, 16.382986037107891 ], [ 100.476042217886487, 16.376078779147438 ], [ 100.467005048316011, 16.364307200923836 ], [ 100.469885782436748, 16.358035344619523 ], [ 100.467093722387901, 16.351664072122361 ], [ 100.468605541769065, 16.339854914153349 ], [ 100.47788073460795, 16.339088574924116 ], [ 100.473012566649345, 16.324107743511924 ], [ 100.481309805665532, 16.295138338386657 ], [ 100.457466114653016, 16.290154828855041 ], [ 100.415277627150274, 16.30980046642172 ], [ 100.409602439706632, 16.299864001706752 ] ] ] ] } },
{ "type": "Feature", "properties": { "amp_code": "6602", "amp_th": "วังทรายพูน", "amp_en": "Wang Sai Phun", "pro_code": "66", "pro_th": "พิจิตร", "pro_en": "Phichit", "reg_nesdb": "LowwerNorth", "reg_royin": "Central", "perimeter": 98.200704375629996, "area_sqkm": 257.51712375275002, "adm1_code": 66, "adm2_code": 6602 }, "geometry": { "type": "MultiPolygon", "coordinates": [ [ [ [ 100.509925316140084, 16.376308382656113 ], [ 100.519229568539401, 16.376695559253772 ], [ 100.528317682966346, 16.379679883172205 ], [ 100.528430182879376, 16.39283298829584 ], [ 100.521340111232362, 16.394653475337439 ], [ 100.522040675376402, 16.40212685675635 ], [ 100.516473688953553, 16.402245045766112 ], [ 100.514261583926867, 16.412211198213313 ], [ 100.494994757962687, 16.423986090419707 ], [ 100.479288845265529, 16.426574764671845 ], [ 100.477603841047909, 16.43415443675935 ], [ 100.442900100617976, 16.43492805484042 ], [ 100.429622341468587, 16.426616151397102 ], [ 100.412830619805163, 16.420560446966793 ], [ 100.402884917448858, 16.42701232959109 ], [ 100.411445705354083, 16.43617683777714 ], [ 100.412830253186797, 16.444152364499491 ], [ 100.409948398918672, 16.448647704711153 ], [ 100.415130638870963, 16.453450232893701 ], [ 100.421487785666969, 16.433061067414432 ], [ 100.426649880039875, 16.43520976867454 ], [ 100.435411587773174, 16.453197095069271 ], [ 100.447804245021473, 16.455144194779148 ], [ 100.450295364527747, 16.460642168890889 ], [ 100.461416505879882, 16.459844147371815 ], [ 100.474840641634358, 16.467145032913713 ], [ 100.49391279665582, 16.461960189571055 ], [ 100.519112240192968, 16.462785518405624 ], [ 100.526904178995224, 16.458712903978533 ], [ 100.530390823530325, 16.4627147244612 ], [ 100.547538758047409, 16.460448050973156 ], [ 100.554814901513964, 16.465710333275581 ], [ 100.563892052744563, 16.458420901324903 ], [ 100.568308640480751, 16.459839489437041 ], [ 100.579260343888976, 16.440179359125594 ], [ 100.595241376463292, 16.415755361217542 ], [ 100.606354023708604, 16.417517612212873 ], [ 100.604304665336855, 16.412236413972195 ], [ 100.613266459504885, 16.40517873855989 ], [ 100.624012793410685, 16.405452923938554 ], [ 100.630346490444254, 16.398070350581296 ], [ 100.635556008544754, 16.375151600189248 ], [ 100.623063449774165, 16.359414250982269 ], [ 100.619736971181183, 16.348978303317164 ], [ 100.623657487248252, 16.330482000792522 ], [ 100.625507395128182, 16.326913925629512 ], [ 100.634366703646592, 16.327349313675057 ], [ 100.624923320614258, 16.317593279865015 ], [ 100.611644241860759, 16.316925773017246 ], [ 100.60524484769779, 16.308810569912769 ], [ 100.584385196571262, 16.307272442735417 ], [ 100.561777634149493, 16.293865572103634 ], [ 100.542061844750847, 16.294360499558344 ], [ 100.522531037941889, 16.303088795637059 ], [ 100.520312731705815, 16.299237852733615 ], [ 100.481317433890467, 16.295141674030901 ], [ 100.481309805665532, 16.295138338386657 ], [ 100.473012566649345, 16.324107743511924 ], [ 100.47788073460795, 16.339088574924116 ], [ 100.468605541769065, 16.339854914153349 ], [ 100.467093722387901, 16.351664072122361 ], [ 100.469885782436748, 16.358035344619523 ], [ 100.467005048316011, 16.364307200923836 ], [ 100.476042217886487, 16.376078779147438 ], [ 100.484191131757058, 16.382986037107891 ], [ 100.493970383907197, 16.38461587687604 ], [ 100.509925316140084, 16.376308382656113 ] ] ] ] } }
]
}
